{
"type": "FeatureCollection",
"name": "enjeux_points",
"crs": { "type": "name", "properties": { "name": "urn:ogc:def:crs:EPSG::2154" } },
"features": [
{ "type": "Feature", "properties": { "categorie": "ICPE" }, "geometry": { "type": "Point", "coordinates": [ 985982.96217891946435, 6270772.979089214466512 ] } },
{ "type": "Feature", "properties": { "categorie": "ICPE" }, "geometry": { "type": "Point", "coordinates": [ 986412.038901695050299, 6270412.030969406478107 ] } },
{ "type": "Feature", "properties": { "categorie": "ICPE" }, "geometry": { "type": "Point", "coordinates": [ 986388.017031087074429, 6270280.999619707465172 ] } },
{ "type": "Feature", "properties": { "categorie": "ICPE" }, "geometry": { "type": "Point", "coordinates": [ 988559.973031373228878, 6270158.03680513985455 ] } },
{ "type": "Feature", "properties": { "categorie": "ICPE" }, "geometry": { "type": "Point", "coordinates": [ 990112.991278367349878, 6270565.984949206933379 ] } },
{ "type": "Feature", "properties": { "categorie": "ICPE" }, "geometry": { "type": "Point", "coordinates": [ 986903.965363614493981, 6263625.945410832762718 ] } },
{ "type": "Feature", "properties": { "categorie": "ICPE" }, "geometry": { "type": "Point", "coordinates": [ 990112.991278367349878, 6270565.984949206933379 ] } },
{ "type": "Feature", "properties": { "categorie": "ICPE" }, "geometry": { "type": "Point", "coordinates": [ 987242.973139749607071, 6269422.957307450473309 ] } },
{ "type": "Feature", "properties": { "categorie": "ICPE" }, "geometry": { "type": "Point", "coordinates": [ 990112.991278367349878, 6270565.984949206933379 ] } },
{ "type": "Feature", "properties": { "categorie": "ICPE" }, "geometry": { "type": "Point", "coordinates": [ 990112.991278367349878, 6270565.984949206933379 ] } },
{ "type": "Feature", "properties": { "categorie": "ICPE" }, "geometry": { "type": "Point", "coordinates": [ 990112.991278367349878, 6270565.984949206933379 ] } },
{ "type": "Feature", "properties": { "categorie": "ICPE" }, "geometry": { "type": "Point", "coordinates": [ 986162.009170868434012, 6268973.994767224416137 ] } },
{ "type": "Feature", "properties": { "categorie": "ICPE" }, "geometry": { "type": "Point", "coordinates": [ 990112.991278367349878, 6270565.984949206933379 ] } },
{ "type": "Feature", "properties": { "categorie": "ICPE" }, "geometry": { "type": "Point", "coordinates": [ 990112.991278367349878, 6270565.984949206933379 ] } },
{ "type": "Feature", "properties": { "categorie": "ICPE" }, "geometry": { "type": "Point", "coordinates": [ 985786.977799304528162, 6270332.955151951871812 ] } },
{ "type": "Feature", "properties": { "categorie": "ICPE" }, "geometry": { "type": "Point", "coordinates": [ 991211.009639968397096, 6270719.00142686907202 ] } },
{ "type": "Feature", "properties": { "categorie": "ICPE" }, "geometry": { "type": "Point", "coordinates": [ 990428.029018272529356, 6270973.962078745476902 ] } },
{ "type": "Feature", "properties": { "categorie": "ICPE" }, "geometry": { "type": "Point", "coordinates": [ 988918.996025132364593, 6269547.96459136903286 ] } },
{ "type": "Feature", "properties": { "categorie": "ICPE" }, "geometry": { "type": "Point", "coordinates": [ 988933.977750122430734, 6269584.024524536915123 ] } },
{ "type": "Feature", "properties": { "categorie": "ICPE" }, "geometry": { "type": "Point", "coordinates": [ 988650.00785502360668, 6269429.988303945399821 ] } },
{ "type": "Feature", "properties": { "categorie": "ICPE" }, "geometry": { "type": "Point", "coordinates": [ 986188.974712163442746, 6270684.967404243536294 ] } },
{ "type": "Feature", "properties": { "categorie": "ICPE" }, "geometry": { "type": "Point", "coordinates": [ 987776.029108905117027, 6269089.02029363065958 ] } },
{ "type": "Feature", "properties": { "categorie": "Etablissement scolaire" }, "geometry": { "type": "Point", "coordinates": [ 988430.099795624031685, 6270248.704524542205036 ] } },
{ "type": "Feature", "properties": { "categorie": "Etablissement scolaire" }, "geometry": { "type": "Point", "coordinates": [ 988590.99979550531134, 6270373.104524563066661 ] } }
]
}
