{
"type": "FeatureCollection",
"name": "priorites",
"crs": { "type": "name", "properties": { "name": "urn:ogc:def:crs:OGC:1.3:CRS84" } },
"features": [
{ "type": "Feature", "properties": { "id": 1, "surface_m2": 400, "score_priorite": 0.584, "classe_risque": "Tres eleve", "enjeu_proche": "ICPE", "categorie_enjeu": "ICPE", "distance_enjeu_m": 386.5, "action_recommandee": "Application prioritaire du retardant en lisiere du site industriel/ICPE, debroussaillement renforce du perimetre" }, "geometry": { "type": "Polygon", "coordinates": [ [ [ 6.553274630867705, 43.459600272982293 ], [ 6.553263519092835, 43.45942052029131 ], [ 6.553510283222496, 43.459412425783853 ], [ 6.553521395766963, 43.459592178448467 ], [ 6.553274630867705, 43.459600272982293 ] ] ] } },
{ "type": "Feature", "properties": { "id": 2, "surface_m2": 300, "score_priorite": 0.582, "classe_risque": "Tres eleve", "enjeu_proche": "ICPE", "categorie_enjeu": "ICPE", "distance_enjeu_m": 216.6, "action_recommandee": "Application prioritaire du retardant en lisiere du site industriel/ICPE, debroussaillement renforce du perimetre" }, "geometry": { "type": "Polygon", "coordinates": [ [ [ 6.569643509049778, 43.464375623778061 ], [ 6.569632345194226, 43.464195872143421 ], [ 6.569755736357441, 43.464191806314588 ], [ 6.569761318468919, 43.464281682122461 ], [ 6.569884709807113, 43.464277616146589 ], [ 6.56989029212846, 43.464367491953446 ], [ 6.569643509049778, 43.464375623778061 ] ] ] } },
{ "type": "Feature", "properties": { "id": 3, "surface_m2": 300, "score_priorite": 0.578, "classe_risque": "Tres eleve", "enjeu_proche": "ICPE", "categorie_enjeu": "ICPE", "distance_enjeu_m": 320.8, "action_recommandee": "Application prioritaire du retardant en lisiere du site industriel/ICPE, debroussaillement renforce du perimetre" }, "geometry": { "type": "Polygon", "coordinates": [ [ [ 6.594962597216053, 43.47578673832691 ], [ 6.594956974599213, 43.475696863070283 ], [ 6.594833560536555, 43.475700957617384 ], [ 6.594827938129781, 43.475611082359649 ], [ 6.595074765852542, 43.475602893138273 ], [ 6.595086011453624, 43.47578264363267 ], [ 6.594962597216053, 43.47578673832691 ] ] ] } },
{ "type": "Feature", "properties": { "id": 4, "surface_m2": 10400, "score_priorite": 0.577, "classe_risque": "Tres eleve", "enjeu_proche": "ICPE", "categorie_enjeu": "ICPE", "distance_enjeu_m": 477.6, "action_recommandee": "Application prioritaire du retardant en lisiere du site industriel/ICPE, debroussaillement renforce du perimetre" }, "geometry": { "type": "Polygon", "coordinates": [ [ [ 6.548236801230112, 43.462106922653355 ], [ 6.548231252964044, 43.462017045882831 ], [ 6.547984476917433, 43.462025128388255 ], [ 6.547973381206988, 43.461845374837672 ], [ 6.548096768854127, 43.461841333668339 ], [ 6.548091220832494, 43.461751456908019 ], [ 6.547844445905711, 43.461759539093109 ], [ 6.54782780309934, 43.461489908806314 ], [ 6.547951189994152, 43.461485867803731 ], [ 6.547956737771354, 43.461575744553805 ], [ 6.548080124841245, 43.461571703404204 ], [ 6.548069028919351, 43.461391949922813 ], [ 6.548192415587073, 43.461387908645939 ], [ 6.548186867459721, 43.461298031920215 ], [ 6.548310253917691, 43.461293990509489 ], [ 6.548304705615264, 43.461204113795958 ], [ 6.548428091863481, 43.461200072251387 ], [ 6.54841699492582, 43.461020318854281 ], [ 6.548787152411959, 43.461008193417463 ], [ 6.548792701449354, 43.461098070093492 ], [ 6.549409631208134, 43.461077858190684 ], [ 6.549415181224931, 43.461167734839393 ], [ 6.5497853394493, 43.461155605992808 ], [ 6.549790890060677, 43.461245482627369 ], [ 6.549667503810822, 43.46124952572324 ], [ 6.549673054247133, 43.461339402369987 ], [ 6.549549667787518, 43.461343445332012 ], [ 6.549555218048763, 43.461433321990924 ], [ 6.549431831379389, 43.461437364819105 ], [ 6.549437381465565, 43.461527241490217 ], [ 6.549313994586432, 43.461531284184559 ], [ 6.54931954449754, 43.461621160867871 ], [ 6.549196157408647, 43.461625203428341 ], [ 6.549201707144683, 43.461715080123831 ], [ 6.548831545196696, 43.461727206982424 ], [ 6.548842643566302, 43.46190696042968 ], [ 6.548719255830788, 43.46191100244819 ], [ 6.548724804849186, 43.462000879186796 ], [ 6.548601416903912, 43.462004921071454 ], [ 6.548606965747235, 43.462094797822246 ], [ 6.548236801230112, 43.462106922653355 ] ] ] } },
{ "type": "Feature", "properties": { "id": 5, "surface_m2": 300, "score_priorite": 0.574, "classe_risque": "Tres eleve", "enjeu_proche": "Etablissement scolaire", "categorie_enjeu": "Etablissement scolaire", "distance_enjeu_m": 442.4, "action_recommandee": "Application prioritaire du retardant en perimetre de securite autour de l'etablissement scolaire" }, "geometry": { "type": "Polygon", "coordinates": [ [ [ 6.571727407741073, 43.474033437266385 ], [ 6.571721821610137, 43.473943560922976 ], [ 6.571845233541558, 43.473939492687059 ], [ 6.571839647235599, 43.473849616355849 ], [ 6.571963058957071, 43.473845547986102 ], [ 6.571974231971428, 43.474025300640832 ], [ 6.571727407741073, 43.474033437266385 ] ] ] } },
{ "type": "Feature", "properties": { "id": 6, "surface_m2": 600, "score_priorite": 0.574, "classe_risque": "Tres eleve", "enjeu_proche": "ICPE", "categorie_enjeu": "ICPE", "distance_enjeu_m": 370.3, "action_recommandee": "Application prioritaire du retardant en lisiere du site industriel/ICPE, debroussaillement renforce du perimetre" }, "geometry": { "type": "Polygon", "coordinates": [ [ [ 6.552208621902668, 43.460355702895974 ], [ 6.552197513313269, 43.460175949996717 ], [ 6.552320897082236, 43.460171904024321 ], [ 6.552315342621171, 43.460082027589692 ], [ 6.552438726180375, 43.460077981483451 ], [ 6.552449835504675, 43.460257734345127 ], [ 6.552573219431329, 43.460253688085281 ], [ 6.552578774311923, 43.460343564517949 ], [ 6.552208621902668, 43.460355702895974 ] ] ] } },
{ "type": "Feature", "properties": { "id": 7, "surface_m2": 101400, "score_priorite": 0.574, "classe_risque": "Tres eleve", "enjeu_proche": "ICPE", "categorie_enjeu": "ICPE", "distance_enjeu_m": 406.7, "action_recommandee": "Application prioritaire du retardant en lisiere du site industriel/ICPE, debroussaillement renforce du perimetre" }, "geometry": { "type": "Polygon", "coordinates": [ [ [ 6.543838406498928, 43.418843493938027 ], [ 6.543832869270966, 43.418753619799723 ], [ 6.544202755909314, 43.418741510392827 ], [ 6.544191680352485, 43.418561762172764 ], [ 6.543945090046067, 43.418569835224723 ], [ 6.543939552677851, 43.418479961110087 ], [ 6.54418614260001, 43.418471888071259 ], [ 6.54418060486483, 43.418382013975489 ], [ 6.544303899607842, 43.418377977252163 ], [ 6.544292823805106, 43.418198229090876 ], [ 6.544169529446352, 43.41820226580105 ], [ 6.544163991763051, 43.418112391722381 ], [ 6.544040697579129, 43.418116428285678 ], [ 6.544046235070303, 43.418206302370905 ], [ 6.543922940676961, 43.418210338800442 ], [ 6.543917403377915, 43.41812046470865 ], [ 6.543794109159408, 43.41812450099129 ], [ 6.543771960904647, 43.417765004654797 ], [ 6.543648667437351, 43.41776904077085 ], [ 6.54363205700421, 43.417499418558684 ], [ 6.543508764095994, 43.417503454514687 ], [ 6.543530910606267, 43.417862950835257 ], [ 6.543284323200975, 43.417871022378911 ], [ 6.543278786931721, 43.417781148277065 ], [ 6.543402080450887, 43.41777711258198 ], [ 6.543396544006799, 43.417687238492405 ], [ 6.543273250679756, 43.417691274180918 ], [ 6.543267714445081, 43.417601400090497 ], [ 6.543144421292874, 43.417605435632119 ], [ 6.54313888526761, 43.417515561540824 ], [ 6.54289229929558, 43.417523632189976 ], [ 6.542897834936597, 43.417613506294423 ], [ 6.54302112812338, 43.417609471033423 ], [ 6.543026663973808, 43.417699345136988 ], [ 6.542903370594901, 43.417703380404546 ], [ 6.54291444196337, 43.417883128641954 ], [ 6.542421266737881, 43.417899268361538 ], [ 6.542415731813505, 43.417809394213712 ], [ 6.5421691444813, 43.417817463218462 ], [ 6.542163609958458, 43.417727589063212 ], [ 6.542533490354463, 43.417715485365306 ], [ 6.542522420207887, 43.417535737111329 ], [ 6.542399127144084, 43.417539771804464 ], [ 6.542393592288846, 43.417449897679461 ], [ 6.541283955666009, 43.417486203544314 ], [ 6.541295021935539, 43.417665951918252 ], [ 6.541171728506796, 43.417669985214786 ], [ 6.541177261475354, 43.417759859416861 ], [ 6.541053967837207, 43.417763892579636 ], [ 6.541059500630918, 43.417853766793996 ], [ 6.54068961903643, 43.417865865460072 ], [ 6.540684086819097, 43.417775991226037 ], [ 6.540560793111839, 43.417780023827532 ], [ 6.540555261103908, 43.417690149592609 ], [ 6.540801848116894, 43.417682084262424 ], [ 6.540779718720929, 43.417322587432317 ], [ 6.540903011433012, 43.417318554583026 ], [ 6.540897478935089, 43.41722868039632 ], [ 6.540774186415129, 43.417232713239073 ], [ 6.540768654126606, 43.417142839051522 ], [ 6.541015238765006, 43.41713477323885 ], [ 6.541009706109516, 43.417044899070149 ], [ 6.541256290294563, 43.417036832709357 ], [ 6.541245224266935, 43.416857084415291 ], [ 6.541368515949301, 43.416853051037549 ], [ 6.541362982769286, 43.416763176905654 ], [ 6.542595896721317, 43.41672283547647 ], [ 6.542579291521419, 43.416453213312082 ], [ 6.543442326224974, 43.416424966100777 ], [ 6.543436789848101, 43.416335092103374 ], [ 6.543560080258771, 43.416331056232792 ], [ 6.543543470655544, 43.416061434294555 ], [ 6.54403662981996, 43.41604528948789 ], [ 6.544042167105533, 43.4161351634353 ], [ 6.544535326761737, 43.416119016357307 ], [ 6.544529788707711, 43.416029142436173 ], [ 6.544653078386417, 43.416025105322475 ], [ 6.544647540157573, 43.415935231413634 ], [ 6.544524250670981, 43.415939268520773 ], [ 6.544518712651544, 43.415849394611065 ], [ 6.544642001946024, 43.415845357510499 ], [ 6.544636463751771, 43.415755483613069 ], [ 6.545129619988302, 43.415739333833955 ], [ 6.5451240810429, 43.41564945996852 ], [ 6.545247369866684, 43.415645422179544 ], [ 6.54524183074647, 43.415555548326417 ], [ 6.545118542114796, 43.415559586108834 ], [ 6.545107464310477, 43.415379838406544 ], [ 6.545600617196521, 43.415363686487581 ], [ 6.545583998314481, 43.415094065055875 ], [ 6.545830573501073, 43.415085988293974 ], [ 6.545825033524112, 43.414996114507964 ], [ 6.545948320899354, 43.414992075923102 ], [ 6.545942780747589, 43.414902202149413 ], [ 6.546189355061962, 43.414894124571923 ], [ 6.546205976721789, 43.415163745870771 ], [ 6.545959401254786, 43.415171823487668 ], [ 6.545964941458452, 43.415261697278538 ], [ 6.54608822939271, 43.415257658533655 ], [ 6.546093769805784, 43.415347532323651 ], [ 6.546463634081072, 43.415335415227403 ], [ 6.546469175087769, 43.415425289003373 ], [ 6.547208904323793, 43.415401050982986 ], [ 6.54721444650044, 43.415490924725205 ], [ 6.547337734837981, 43.415486884557481 ], [ 6.547354362048086, 43.415756505798662 ], [ 6.548340672735911, 43.415724179247661 ], [ 6.548351760702938, 43.415903926665059 ], [ 6.548228471543328, 43.41590796798819 ], [ 6.5482340153607, 43.415997841712048 ], [ 6.548110725991668, 43.41600188290144 ], [ 6.548116269634241, 43.416091756637584 ], [ 6.547746400846944, 43.416103879383627 ], [ 6.547751943930494, 43.416193753145208 ], [ 6.547628654107997, 43.416197793786502 ], [ 6.547634197016744, 43.416287667560361 ], [ 6.547510906984824, 43.416291708067916 ], [ 6.547521992470017, 43.41647145564594 ], [ 6.547768573285001, 43.4164633744642 ], [ 6.547774116437789, 43.416553248248604 ], [ 6.547650825846838, 43.416557288916209 ], [ 6.54765636882482, 43.416647162712913 ], [ 6.547533078024445, 43.416651203246779 ], [ 6.547527535238577, 43.416561329443503 ], [ 6.547404244613008, 43.416565369830472 ], [ 6.547398702036563, 43.416475496026344 ], [ 6.547275411585799, 43.416479536266436 ], [ 6.547286496371768, 43.416659283893573 ], [ 6.54703991464986, 43.416667363979123 ], [ 6.547062082892557, 43.417026859354536 ], [ 6.546815499564488, 43.41703493893143 ], [ 6.546821041284193, 43.41712481280269 ], [ 6.54669774940208, 43.417128852387236 ], [ 6.546714374088668, 43.417398474055041 ], [ 6.546960958988304, 43.417390394706153 ], [ 6.546966500969353, 43.417480268593685 ], [ 6.546596623017577, 43.417492387426243 ], [ 6.546591081612891, 43.417402513519001 ], [ 6.546467789119811, 43.417406552842635 ], [ 6.546473330332375, 43.417496426756472 ], [ 6.546350037629868, 43.417500465946361 ], [ 6.546344496609425, 43.417410592025959 ], [ 6.545974618974451, 43.41742270873403 ], [ 6.54598015941853, 43.417512582674163 ], [ 6.545856866646813, 43.417516621302781 ], [ 6.54586794720263, 43.41769636921331 ], [ 6.546114533497254, 43.417688291789432 ], [ 6.546120074185361, 43.417778165740096 ], [ 6.545626900758418, 43.417794320052884 ], [ 6.545632440695332, 43.417884194035544 ], [ 6.545385853493807, 43.417892270363176 ], [ 6.545402472255603, 43.418161892384873 ], [ 6.545279178052516, 43.418165930357929 ], [ 6.545284717482252, 43.418255804383151 ], [ 6.544914834192817, 43.418267917480115 ], [ 6.544903756503402, 43.418088169395972 ], [ 6.545150344611816, 43.418080094164594 ], [ 6.545139266223087, 43.417900346129528 ], [ 6.544646091474074, 43.41791649597841 ], [ 6.544657168325799, 43.418096244066049 ], [ 6.544533874211055, 43.418100281190611 ], [ 6.54455048904198, 43.418369903384566 ], [ 6.545043667702708, 43.418353753965512 ], [ 6.545049206782788, 43.418443628015261 ], [ 6.544679322236802, 43.418455740309767 ], [ 6.544684860757791, 43.418545614384968 ], [ 6.544438270589728, 43.418553688559506 ], [ 6.544449346915078, 43.418733436753293 ], [ 6.544819233294008, 43.418721325241563 ], [ 6.544824772059017, 43.418811199327294 ], [ 6.543838406498928, 43.418843493938027 ] ], [ [ 6.543911866096161, 43.418030590622529 ], [ 6.544158454097045, 43.418022517649419 ], [ 6.544147378816912, 43.417842769520597 ], [ 6.543900791584529, 43.417850842467438 ], [ 6.543911866096161, 43.418030590622529 ] ], [ [ 6.542651248511173, 43.417621576395433 ], [ 6.542774541732529, 43.41761754141509 ], [ 6.542769006283636, 43.417527667304071 ], [ 6.542645713254403, 43.417531702277863 ], [ 6.542651248511173, 43.417621576395433 ] ], [ [ 6.543262178227694, 43.417511526005761 ], [ 6.543385471170488, 43.417507490330394 ], [ 6.543379934778267, 43.417417616257936 ], [ 6.543256642027595, 43.417421651926752 ], [ 6.543262178227694, 43.417511526005761 ] ], [ [ 6.545935836350342, 43.416793591312903 ], [ 6.546059127567803, 43.416789552596548 ], [ 6.546053587070018, 43.416699678708646 ], [ 6.545930296044673, 43.416703717418422 ], [ 6.545935836350342, 43.416793591312903 ] ], [ [ 6.545297222726988, 43.416454287114725 ], [ 6.546036965680477, 43.416430057079182 ], [ 6.5460314252519, 43.41634018321411 ], [ 6.54578484472083, 43.416348260440735 ], [ 6.545773764684032, 43.416168512701397 ], [ 6.545527184852219, 43.416176589340459 ], [ 6.545532724477741, 43.416266463220431 ], [ 6.545656014594412, 43.416262424964486 ], [ 6.545661554429346, 43.416352298843584 ], [ 6.545291683451097, 43.416364413210211 ], [ 6.545297222726988, 43.416454287114725 ] ], [ [ 6.545403894910361, 43.416180627449535 ], [ 6.545527184852219, 43.416176589340459 ], [ 6.545521645243995, 43.416086715466221 ], [ 6.545398355494251, 43.416090753568703 ], [ 6.545403894910361, 43.416180627449535 ] ], [ [ 6.545897054573991, 43.416164474171389 ], [ 6.546266924140056, 43.416152357739506 ], [ 6.546261383379158, 43.41606248390471 ], [ 6.54589151438943, 43.41607460031689 ], [ 6.545897054573991, 43.416164474171389 ] ], [ [ 6.544658616632554, 43.416114979237022 ], [ 6.544905196322304, 43.416106904575507 ], [ 6.544899657691941, 43.416017030674112 ], [ 6.544653078386417, 43.416025105322475 ], [ 6.544658616632554, 43.416114979237022 ] ], [ [ 6.545028486141237, 43.416102867034297 ], [ 6.545151775942872, 43.416098829352748 ], [ 6.545146236928284, 43.416008955464484 ], [ 6.545022947318761, 43.416012993139454 ], [ 6.545028486141237, 43.416102867034297 ] ] ] } },
{ "type": "Feature", "properties": { "id": 8, "surface_m2": 400, "score_priorite": 0.572, "classe_risque": "Tres eleve", "enjeu_proche": "ICPE", "categorie_enjeu": "ICPE", "distance_enjeu_m": 746.9, "action_recommandee": "Application prioritaire du retardant en lisiere du site industriel/ICPE, debroussaillement renforce du perimetre" }, "geometry": { "type": "Polygon", "coordinates": [ [ [ 6.585498732960772, 43.484656168038228 ], [ 6.585487515597548, 43.484476415397047 ], [ 6.585734382708043, 43.484468247385905 ], [ 6.585745600841478, 43.484648000000469 ], [ 6.585498732960772, 43.484656168038228 ] ] ] } },
{ "type": "Feature", "properties": { "id": 9, "surface_m2": 1900, "score_priorite": 0.57, "classe_risque": "Eleve", "enjeu_proche": "ICPE", "categorie_enjeu": "ICPE", "distance_enjeu_m": 231.5, "action_recommandee": "Application recommandee du retardant en lisiere du site industriel/ICPE, debroussaillement renforce du perimetre" }, "geometry": { "type": "Polygon", "coordinates": [ [ [ 6.564688831826361, 43.47021252798865 ], [ 6.564677682324233, 43.470032775081293 ], [ 6.564430874198163, 43.470040895073218 ], [ 6.564425299858164, 43.469951018614687 ], [ 6.564548703737447, 43.469946958695559 ], [ 6.564537554724795, 43.469767205808495 ], [ 6.565154571935206, 43.46974690417224 ], [ 6.565165722872491, 43.469926656993209 ], [ 6.565042319080335, 43.469930717614588 ], [ 6.565047894382654, 43.470020594040058 ], [ 6.564924490380606, 43.470024654527577 ], [ 6.564935640652594, 43.470204407408488 ], [ 6.564688831826361, 43.47021252798865 ] ] ] } },
{ "type": "Feature", "properties": { "id": 10, "surface_m2": 700, "score_priorite": 0.57, "classe_risque": "Eleve", "enjeu_proche": "ICPE", "categorie_enjeu": "ICPE", "distance_enjeu_m": 52.2, "action_recommandee": "Application recommandee du retardant en lisiere du site industriel/ICPE, debroussaillement renforce du perimetre" }, "geometry": { "type": "Polygon", "coordinates": [ [ [ 6.566281228786053, 43.471961324794584 ], [ 6.566275651368041, 43.471871448305933 ], [ 6.566399059237667, 43.471867386275029 ], [ 6.566393481644612, 43.471777509798542 ], [ 6.566763704571452, 43.47176532288298 ], [ 6.566774860929849, 43.471945075801862 ], [ 6.566281228786053, 43.471961324794584 ] ] ] } },
{ "type": "Feature", "properties": { "id": 11, "surface_m2": 12300, "score_priorite": 0.57, "classe_risque": "Tres eleve", "enjeu_proche": "ICPE", "categorie_enjeu": "ICPE", "distance_enjeu_m": 574.0, "action_recommandee": "Application prioritaire du retardant en lisiere du site industriel/ICPE, debroussaillement renforce du perimetre" }, "geometry": { "type": "Polygon", "coordinates": [ [ [ 6.553213516965354, 43.458611633459469 ], [ 6.553202405572451, 43.458431880891872 ], [ 6.552955645606037, 43.458439974692681 ], [ 6.552961200909023, 43.458529850986857 ], [ 6.552837820707382, 43.458533897683225 ], [ 6.55283226559679, 43.458444021382462 ], [ 6.552708885570182, 43.458448067931812 ], [ 6.552703330669342, 43.458358191630083 ], [ 6.552579950817767, 43.458362238032436 ], [ 6.552574396126676, 43.458272361729712 ], [ 6.55269777578586, 43.458268315333953 ], [ 6.552692220919736, 43.458178439043436 ], [ 6.552198702948421, 43.458194623757599 ], [ 6.552193148869218, 43.458104747446328 ], [ 6.5519463901642, 43.458112838947706 ], [ 6.551940836487133, 43.458022962628867 ], [ 6.55181745730098, 43.458027008162347 ], [ 6.551800796951083, 43.457757379219771 ], [ 6.551677418324743, 43.457761424593066 ], [ 6.551671865101873, 43.4576715482835 ], [ 6.551795243535826, 43.457667502916777 ], [ 6.551784136757373, 43.457487750327672 ], [ 6.551907514789199, 43.457483704833713 ], [ 6.551901961233618, 43.457393828554153 ], [ 6.552148716860429, 43.45738573715817 ], [ 6.552143162937432, 43.457295860897389 ], [ 6.552513295670324, 43.457283722770022 ], [ 6.552518850170475, 43.457373599011028 ], [ 6.552765605623718, 43.457365506210841 ], [ 6.552782270382636, 43.457635134927997 ], [ 6.552905648660377, 43.457631088297525 ], [ 6.552900093530993, 43.457541212059461 ], [ 6.553146849649623, 43.457533118390408 ], [ 6.553152405163782, 43.457622994615306 ], [ 6.553275783389442, 43.457618947563567 ], [ 6.553286894854614, 43.457798700017015 ], [ 6.553410273447687, 43.457794652811678 ], [ 6.553454721541972, 43.458513662797188 ], [ 6.553331341409777, 43.458517710055226 ], [ 6.553336897307302, 43.458607586335248 ], [ 6.553213516965354, 43.458611633459469 ] ], [ [ 6.552664446849505, 43.457729057674939 ], [ 6.552787825336994, 43.457725011178283 ], [ 6.552782270382636, 43.457635134927997 ], [ 6.552658892087536, 43.457639181418081 ], [ 6.552664446849505, 43.457729057674939 ] ] ] } },
{ "type": "Feature", "properties": { "id": 12, "surface_m2": 500, "score_priorite": 0.57, "classe_risque": "Tres eleve", "enjeu_proche": "ICPE", "categorie_enjeu": "ICPE", "distance_enjeu_m": 603.3, "action_recommandee": "Application prioritaire du retardant en lisiere du site industriel/ICPE, debroussaillement renforce du perimetre" }, "geometry": { "type": "Polygon", "coordinates": [ [ [ 6.543503294058358, 43.469556596947122 ], [ 6.5434977524712, 43.469466719447396 ], [ 6.543744561080191, 43.469458647112006 ], [ 6.543739019125416, 43.469368769630996 ], [ 6.54398582728018, 43.469360696746968 ], [ 6.543991369619895, 43.469450574214839 ], [ 6.543867965358705, 43.469454610733656 ], [ 6.543873507523273, 43.469544488213671 ], [ 6.543503294058358, 43.469556596947122 ] ] ] } },
{ "type": "Feature", "properties": { "id": 13, "surface_m2": 500, "score_priorite": 0.569, "classe_risque": "Tres eleve", "enjeu_proche": "ICPE", "categorie_enjeu": "ICPE", "distance_enjeu_m": 690.4, "action_recommandee": "Application prioritaire du retardant en lisiere du site industriel/ICPE, debroussaillement renforce du perimetre" }, "geometry": { "type": "Polygon", "coordinates": [ [ [ 6.54773653135903, 43.472029774984556 ], [ 6.547725434493261, 43.471850020100874 ], [ 6.548095661832879, 43.471837896929912 ], [ 6.548101210834546, 43.471927774349226 ], [ 6.5479778015462, 43.471931815553255 ], [ 6.547983350372725, 43.472021692984718 ], [ 6.54773653135903, 43.472029774984556 ] ] ] } },
{ "type": "Feature", "properties": { "id": 14, "surface_m2": 52400, "score_priorite": 0.569, "classe_risque": "Tres eleve", "enjeu_proche": "ICPE", "categorie_enjeu": "ICPE", "distance_enjeu_m": 333.6, "action_recommandee": "Application prioritaire du retardant en lisiere du site industriel/ICPE, debroussaillement renforce du perimetre" }, "geometry": { "type": "Polygon", "coordinates": [ [ [ 6.537375602489091, 43.472458589647573 ], [ 6.537364537926764, 43.472278833649106 ], [ 6.537241127131701, 43.472282862633314 ], [ 6.537224530995378, 43.472013228657737 ], [ 6.537101120760497, 43.472017257481831 ], [ 6.537084525357268, 43.471747623536785 ], [ 6.536961115682563, 43.471751652200737 ], [ 6.536944521012416, 43.47148201828626 ], [ 6.536821111897884, 43.471486046790055 ], [ 6.536798986683026, 43.471126534955999 ], [ 6.536675578321145, 43.471130563293109 ], [ 6.53665898516899, 43.470860929456492 ], [ 6.53653557736727, 43.470864957633466 ], [ 6.536513454176361, 43.47050544590325 ], [ 6.53639004712728, 43.47050947391353 ], [ 6.536373455493057, 43.470239840154839 ], [ 6.536250049004125, 43.470243868004999 ], [ 6.536238988386033, 43.470064112180651 ], [ 6.536115582264771, 43.470068139877256 ], [ 6.536104522100775, 43.469888384062131 ], [ 6.536227927837084, 43.46988435637865 ], [ 6.536233458102915, 43.469974234276854 ], [ 6.536356864014413, 43.469970206446355 ], [ 6.536351333556106, 43.469880328554716 ], [ 6.536474739257841, 43.469876300590322 ], [ 6.536491331262054, 43.470145934262362 ], [ 6.536614737523935, 43.470141906137847 ], [ 6.536620268419058, 43.470231784033132 ], [ 6.5364968619647, 43.470235812164212 ], [ 6.536507923421854, 43.470415567984645 ], [ 6.537001550675382, 43.470399454565154 ], [ 6.537007082199808, 43.470489332457518 ], [ 6.537130489162447, 43.470485303744965 ], [ 6.537136020896644, 43.470575181636356 ], [ 6.536889206569118, 43.470583238934147 ], [ 6.536894737935643, 43.470673116844246 ], [ 6.537264959978439, 43.470661030667195 ], [ 6.537287087927226, 43.471020542284634 ], [ 6.537410496010171, 43.471016513251811 ], [ 6.537421560473283, 43.471196269080956 ], [ 6.537668377357231, 43.471188210567668 ], [ 6.537662844732061, 43.471098332663438 ], [ 6.538033069350827, 43.471086243859801 ], [ 6.538027536165501, 43.47099636598081 ], [ 6.538150944144683, 43.470992336105247 ], [ 6.538128810806406, 43.470632824671469 ], [ 6.538005403597151, 43.470636854520798 ], [ 6.5379998704983, 43.470546976669752 ], [ 6.538123277515077, 43.470542946826988 ], [ 6.538117744241042, 43.470453068988064 ], [ 6.537994337416745, 43.470457098824284 ], [ 6.537988804352485, 43.4703672209844 ], [ 6.537865397703372, 43.470371250673573 ], [ 6.537848799191792, 43.470101617167757 ], [ 6.538095611317857, 43.470093557688294 ], [ 6.538090078130297, 43.470003679877316 ], [ 6.538213483974912, 43.469999649933463 ], [ 6.538207950612171, 43.469909772134613 ], [ 6.538331356247014, 43.469905742056866 ], [ 6.538325822709095, 43.469815864270188 ], [ 6.538572633541941, 43.469807803706473 ], [ 6.538561565748095, 43.469628048176084 ], [ 6.538808375741856, 43.469619987076811 ], [ 6.538802841485933, 43.469530109333121 ], [ 6.538926246264393, 43.469526078579349 ], [ 6.538915177419497, 43.469346323121876 ], [ 6.539038581795715, 43.469342292240789 ], [ 6.539044116401986, 43.469432169960186 ], [ 6.539167520953377, 43.469428138932095 ], [ 6.539161986154634, 43.469338261219256 ], [ 6.539285390496254, 43.469334230057278 ], [ 6.53927985552234, 43.46924435235659 ], [ 6.539526663768735, 43.469236289624384 ], [ 6.539543269897204, 43.469505922703817 ], [ 6.539666674571865, 43.469501891107349 ], [ 6.539683281433468, 43.469771524217343 ], [ 6.539806686668243, 43.46976749246074 ], [ 6.539828830162519, 43.470127003326013 ], [ 6.53995223614989, 43.470122971402702 ], [ 6.539968844529714, 43.470392604590572 ], [ 6.540092251077214, 43.470388572507112 ], [ 6.540108860190213, 43.470658205725563 ], [ 6.540232267297843, 43.470654173481961 ], [ 6.540248877144031, 43.47092380673093 ], [ 6.540372284811796, 43.470919774327172 ], [ 6.540383358514082, 43.471099529841283 ], [ 6.540506766549504, 43.471095497283947 ], [ 6.540517840705983, 43.471275252807246 ], [ 6.540764657494837, 43.471267187244919 ], [ 6.540759120022977, 43.471177309493612 ], [ 6.540882528198957, 43.471173276508338 ], [ 6.540871452922201, 43.470993521035595 ], [ 6.541118268452306, 43.470985454669936 ], [ 6.541140420614918, 43.471344965585203 ], [ 6.54101701208859, 43.471348998864528 ], [ 6.541011474214455, 43.47125912112076 ], [ 6.5408880658633, 43.471263154253073 ], [ 6.540893603544952, 43.471353032003393 ], [ 6.540523377810183, 43.471365130577261 ], [ 6.540528914931692, 43.471455008352862 ], [ 6.540282097303672, 43.471463073379638 ], [ 6.540287634057518, 43.471552951173926 ], [ 6.539917406908234, 43.471565047680343 ], [ 6.539922943101928, 43.471654925499948 ], [ 6.53979953382507, 43.471658957394411 ], [ 6.539782925873356, 43.471389323932677 ], [ 6.539659517156651, 43.471393355666969 ], [ 6.539642909938126, 43.471123722235809 ], [ 6.539519501781569, 43.471127753809967 ], [ 6.539502895296218, 43.470858120409311 ], [ 6.539379487699805, 43.47086215182334 ], [ 6.539373952431773, 43.47077227402773 ], [ 6.53925054501054, 43.470776305294706 ], [ 6.539256080086089, 43.470866183096895 ], [ 6.539132672455072, 43.47087021422999 ], [ 6.539138207355442, 43.470960092044301 ], [ 6.539014799514643, 43.470964123043522 ], [ 6.539020334239831, 43.471054000870005 ], [ 6.53889692618925, 43.471058031735325 ], [ 6.538902460739254, 43.471147909573936 ], [ 6.53877905247889, 43.471151940305361 ], [ 6.538784586853711, 43.471241818156109 ], [ 6.538537769896118, 43.471249879210717 ], [ 6.538548837927717, 43.471429634955214 ], [ 6.538672246800133, 43.47142560448502 ], [ 6.538677781034365, 43.471515482359081 ], [ 6.538801190081967, 43.471511451741861 ], [ 6.538806724525985, 43.471601329614927 ], [ 6.538559906028509, 43.471609390722037 ], [ 6.538554371969465, 43.47151951283584 ], [ 6.538430962887265, 43.47152354317214 ], [ 6.538453098457286, 43.47188305477669 ], [ 6.538576508309434, 43.47187902441415 ], [ 6.538593110746044, 43.472148658156463 ], [ 6.538469700316427, 43.472152688538699 ], [ 6.538475234304072, 43.472242566470541 ], [ 6.538105002333965, 43.472254656794178 ], [ 6.538110535761432, 43.472344534751279 ], [ 6.537740303058182, 43.472356623830471 ], [ 6.53774583592547, 43.472446501812833 ], [ 6.537375602489091, 43.472458589647573 ] ], [ [ 6.539878654036901, 43.470935903099495 ], [ 6.540002061756582, 43.470931871117095 ], [ 6.539985453065278, 43.470662237828712 ], [ 6.539862045923038, 43.470666269791423 ], [ 6.539878654036901, 43.470935903099495 ] ], [ [ 6.539453076774487, 43.470049220508862 ], [ 6.539576482621293, 43.470045189013469 ], [ 6.539565411644054, 43.469865433554567 ], [ 6.5394420061822, 43.469869465036844 ], [ 6.539453076774487, 43.470049220508862 ] ] ] } },
{ "type": "Feature", "properties": { "id": 15, "surface_m2": 616800, "score_priorite": 0.569, "classe_risque": "Tres eleve", "enjeu_proche": "ICPE", "categorie_enjeu": "ICPE", "distance_enjeu_m": 213.2, "action_recommandee": "Application prioritaire du retardant en lisiere du site industriel/ICPE, debroussaillement renforce du perimetre" }, "geometry": { "type": "Polygon", "coordinates": [ [ [ 6.576954782348049, 43.478544161747301 ], [ 6.576898835737717, 43.477645398321563 ], [ 6.576651996665534, 43.477653546178999 ], [ 6.576657590862845, 43.477743422509803 ], [ 6.57616391173859, 43.477759716565579 ], [ 6.57615272490154, 43.477579963856456 ], [ 6.576646402485711, 43.477563669853716 ], [ 6.576640808323375, 43.477473793534024 ], [ 6.575776873715047, 43.477502306517493 ], [ 6.575771280917762, 43.477412430156946 ], [ 6.575894700007469, 43.477408357301606 ], [ 6.575889107035159, 43.477318480953244 ], [ 6.576629620051166, 43.477294040911325 ], [ 6.576624025941291, 43.477204164608288 ], [ 6.576747444523583, 43.477200090782972 ], [ 6.576741850238689, 43.47711021449215 ], [ 6.576618431848905, 43.477114288310837 ], [ 6.576607243716594, 43.47693453573261 ], [ 6.576730661721366, 43.476930461927196 ], [ 6.576725067488934, 43.476840585653058 ], [ 6.576354813999673, 43.476852806628017 ], [ 6.576349220362244, 43.476762930339547 ], [ 6.575608714066655, 43.47678736845716 ], [ 6.575603121601737, 43.476697492134477 ], [ 6.57547970401712, 43.476701564655812 ], [ 6.575485296289532, 43.476791440985139 ], [ 6.575238460682844, 43.476799585619709 ], [ 6.575249644510089, 43.476979338321577 ], [ 6.575496480886801, 43.476971193660482 ], [ 6.575507665553995, 43.47715094635808 ], [ 6.575260828407257, 43.477159091045685 ], [ 6.575277604384111, 43.477428720173577 ], [ 6.575647861810573, 43.477416502871797 ], [ 6.575653454415348, 43.477506379238982 ], [ 6.575159777041731, 43.477522668720276 ], [ 6.575126226295513, 43.47698341044142 ], [ 6.575002808063457, 43.476987482420803 ], [ 6.575008399618287, 43.477077358793345 ], [ 6.574514725745249, 43.477093645332722 ], [ 6.574520316547527, 43.477183521737345 ], [ 6.573903222850466, 43.477203876784266 ], [ 6.573908812707677, 43.477293753227578 ], [ 6.575019582780383, 43.477257111555083 ], [ 6.575036357654625, 43.477526740739442 ], [ 6.574789518827974, 43.477534884356359 ], [ 6.574783927570768, 43.477445007942762 ], [ 6.574043411826413, 43.477469435382559 ], [ 6.574054592048179, 43.477649188294855 ], [ 6.573807752556879, 43.477657329677584 ], [ 6.573802162822282, 43.477567453205396 ], [ 6.573678743242932, 43.477571523679437 ], [ 6.573695511921608, 43.477841153132537 ], [ 6.572708150037537, 43.477873712027019 ], [ 6.572702562000609, 43.477783835484082 ], [ 6.572455721739921, 43.477791973789799 ], [ 6.572478072452334, 43.478151480047941 ], [ 6.572354651525731, 43.478155549016591 ], [ 6.572382589346682, 43.478604931997481 ], [ 6.572259167440026, 43.478609000858768 ], [ 6.572247992644281, 43.478429247636491 ], [ 6.572124571105195, 43.478433316344073 ], [ 6.572096635384075, 43.477983933352554 ], [ 6.572220055960581, 43.477979864678083 ], [ 6.572192119713534, 43.477530481858665 ], [ 6.572315539310011, 43.477526413076852 ], [ 6.57230436454843, 43.477346660001267 ], [ 6.572427783742418, 43.477342591092217 ], [ 6.572394258721818, 43.476803332038706 ], [ 6.572270840682881, 43.47680740090798 ], [ 6.572276427950142, 43.476897277409613 ], [ 6.572153009701232, 43.476901346145056 ], [ 6.57214183556919, 43.476721593134087 ], [ 6.572018417687829, 43.476725661715804 ], [ 6.571990483625886, 43.476276279252644 ], [ 6.572113900544725, 43.476272210704039 ], [ 6.572108313592225, 43.476182334234714 ], [ 6.57198489686589, 43.476186402776683 ], [ 6.57197372339829, 43.476006649841494 ], [ 6.571850307039494, 43.476010718229759 ], [ 6.571844720524391, 43.47592084176388 ], [ 6.572338385084782, 43.475904567394508 ], [ 6.57233279781714, 43.475814690960718 ], [ 6.572456213721074, 43.475810622023843 ], [ 6.572450626278399, 43.475720745602224 ], [ 6.572574041972369, 43.475716676531519 ], [ 6.572568454354659, 43.475626800122086 ], [ 6.572815285305201, 43.47561866157254 ], [ 6.572809697319962, 43.475528785181922 ], [ 6.572933112576534, 43.475524715703052 ], [ 6.572927524416265, 43.475434839324635 ], [ 6.573050939462871, 43.475430769711963 ], [ 6.573045351127574, 43.475340893345731 ], [ 6.572181446782002, 43.475369377638422 ], [ 6.572175859811648, 43.475279501231384 ], [ 6.57229927457806, 43.47527543247471 ], [ 6.572288100304753, 43.475095679690583 ], [ 6.572411514668708, 43.475091610806707 ], [ 6.572422689327007, 43.475271363577605 ], [ 6.572916348148131, 43.47525508658449 ], [ 6.572910760040267, 43.475165210222762 ], [ 6.573527832211163, 43.475144860854158 ], [ 6.573533421281505, 43.475234737182745 ], [ 6.573656835855769, 43.475230666881018 ], [ 6.573645657347567, 43.475050914242644 ], [ 6.573522243158292, 43.475054984531127 ], [ 6.573499887121514, 43.47469547929466 ], [ 6.573376473684742, 43.474699549416172 ], [ 6.573365296156158, 43.474519796818107 ], [ 6.573858948258494, 43.474503515542317 ], [ 6.573853358750445, 43.474413639278147 ], [ 6.574100184311804, 43.474405497810771 ], [ 6.574089004578164, 43.474225745325626 ], [ 6.574459241634216, 43.47421353211088 ], [ 6.574464832069766, 43.474303408330783 ], [ 6.574588244579322, 43.474299336971647 ], [ 6.574577063340723, 43.474119584550678 ], [ 6.574453651216144, 43.474123655896555 ], [ 6.574448060815545, 43.47403377968778 ], [ 6.573954412912431, 43.474050063640185 ], [ 6.57396000254308, 43.474139939875442 ], [ 6.573713178101713, 43.474148081022165 ], [ 6.573707588856039, 43.47405820477362 ], [ 6.573584176801636, 43.474062275129668 ], [ 6.573572998747677, 43.473882522636039 ], [ 6.573696410417106, 43.473878452293263 ], [ 6.573690821223845, 43.47378857606143 ], [ 6.573814232683318, 43.473784505584824 ], [ 6.573819822069064, 43.473874381810006 ], [ 6.574313468502176, 43.47385809847249 ], [ 6.574307878346486, 43.473768222273804 ], [ 6.574431289718596, 43.473764151094905 ], [ 6.574442470432421, 43.473943903484596 ], [ 6.574565882172027, 43.473939832151977 ], [ 6.57456029161389, 43.473849955960965 ], [ 6.574807114655706, 43.473841812887635 ], [ 6.574812705598813, 43.473931689065388 ], [ 6.575182940607919, 43.473919473382061 ], [ 6.575205306864962, 43.474278978069158 ], [ 6.574958482003137, 43.474287122051521 ], [ 6.574975255724508, 43.474556750665101 ], [ 6.575098668741628, 43.474552678724258 ], [ 6.57510426020953, 43.474642554933276 ], [ 6.575227673401661, 43.474638482845343 ], [ 6.575210898472919, 43.474368854254841 ], [ 6.575334311070102, 43.474364782046344 ], [ 6.575356678446678, 43.474724286818287 ], [ 6.575480091796343, 43.474720214442783 ], [ 6.575485683876677, 43.474810090643068 ], [ 6.575115443197769, 43.474822307368022 ], [ 6.575121034718107, 43.474912183593766 ], [ 6.575491275974491, 43.474899966848909 ], [ 6.57550246022256, 43.475079719277296 ], [ 6.575625874324714, 43.475075646734837 ], [ 6.575620281999446, 43.474985770524498 ], [ 6.575743695891626, 43.474981697848193 ], [ 6.575738103391346, 43.474891821650054 ], [ 6.575861517073551, 43.474887748839933 ], [ 6.575867109766325, 43.474977625031457 ], [ 6.575990523623541, 43.474973552074246 ], [ 6.575996116526287, 43.47506342826469 ], [ 6.576119530558514, 43.475059355160376 ], [ 6.576113937463274, 43.474969478976568 ], [ 6.576607592647368, 43.474953185181299 ], [ 6.576601998799641, 43.474863309029566 ], [ 6.576478585222338, 43.474867382682447 ], [ 6.576472991584589, 43.474777506529641 ], [ 6.576596404969401, 43.47477343288341 ], [ 6.576590811156649, 43.474683556742832 ], [ 6.576220571527227, 43.474695777240285 ], [ 6.576209385109116, 43.474516024936023 ], [ 6.576826449145823, 43.47449565680428 ], [ 6.576804072669639, 43.474136152395182 ], [ 6.57668066066722, 43.474140226275907 ], [ 6.576641503854507, 43.473511093727979 ], [ 6.576394682491999, 43.473519240975229 ], [ 6.576389089116518, 43.473429364905961 ], [ 6.576512499614031, 43.473425291359206 ], [ 6.57650690606355, 43.473335415302131 ], [ 6.576260085436003, 43.473343562241944 ], [ 6.57625449228797, 43.473253686177195 ], [ 6.576131082140453, 43.473257759429771 ], [ 6.576125489202383, 43.473167883363949 ], [ 6.576495719015043, 43.473155663204722 ], [ 6.576490125517015, 43.473065787164366 ], [ 6.57661353522712, 43.473061713503675 ], [ 6.576602347898558, 43.472881961452948 ], [ 6.5768491664964, 43.472873813736761 ], [ 6.576815602620622, 43.472334557797915 ], [ 6.576939010738456, 43.472330483768914 ], [ 6.576961387355603, 43.472689987679331 ], [ 6.577208205078619, 43.472681839146958 ], [ 6.577213799661576, 43.472771715125226 ], [ 6.57733720868933, 43.472767640641727 ], [ 6.577342803482251, 43.472857516618902 ], [ 6.577466212684994, 43.472853441988313 ], [ 6.577471807687881, 43.472943317964457 ], [ 6.577595217065615, 43.472939243186772 ], [ 6.577600812278471, 43.473029119161843 ], [ 6.577971040884167, 43.473016893966168 ], [ 6.577976636691949, 43.473106769926908 ], [ 6.578223456059916, 43.473098619080915 ], [ 6.578217859867176, 43.473008743133448 ], [ 6.578094450384417, 43.473012818620028 ], [ 6.578077662488587, 43.472743190791135 ], [ 6.578941524458512, 43.47271465957482 ], [ 6.578947121753634, 43.472804535465748 ], [ 6.579317348627178, 43.472792305674922 ], [ 6.579322946517229, 43.472882181551547 ], [ 6.57956976473039, 43.472874027642092 ], [ 6.579575363022894, 43.472963903511001 ], [ 6.579698772295703, 43.472959826338958 ], [ 6.579693173810724, 43.472869950476692 ], [ 6.579939991918891, 43.472861795724548 ], [ 6.579945590788825, 43.472951671573533 ], [ 6.580192409211944, 43.472943516246282 ], [ 6.580181210719668, 43.472763764580435 ], [ 6.580428028302872, 43.472755608717925 ], [ 6.580422428698036, 43.472665732906648 ], [ 6.580299020107661, 43.472669810901486 ], [ 6.580287821335446, 43.472490059282322 ], [ 6.580534637728795, 43.472481903178739 ], [ 6.580545837270908, 43.472661654771358 ], [ 6.580669245826277, 43.472657576495607 ], [ 6.580674845816064, 43.472747452293618 ], [ 6.581045071954569, 43.472735216603745 ], [ 6.581050672539288, 43.472825092387424 ], [ 6.581174081409586, 43.472821013536574 ], [ 6.581185283016496, 43.473000765107322 ], [ 6.581308692254242, 43.472996686102761 ], [ 6.581297490262379, 43.472816934545286 ], [ 6.581544307915442, 43.472808776141356 ], [ 6.581538706560821, 43.472718900384251 ], [ 6.581785523758898, 43.47271074143179 ], [ 6.581791125498471, 43.472800617175608 ], [ 6.582037943011461, 43.472792457648033 ], [ 6.582026738779926, 43.472612706192557 ], [ 6.582396963763229, 43.472600465887687 ], [ 6.582402566447664, 43.47269034159271 ], [ 6.582525974932881, 43.472686261203549 ], [ 6.582514769196576, 43.472506509812334 ], [ 6.582391361096307, 43.472510590188222 ], [ 6.582385758446897, 43.472420714494305 ], [ 6.582632574244977, 43.472412553615371 ], [ 6.582649383400586, 43.472682180673914 ], [ 6.582896200283454, 43.472674019193292 ], [ 6.582901803755299, 43.472763894877346 ], [ 6.583025212362934, 43.472759813919708 ], [ 6.583030816044771, 43.47284968960264 ], [ 6.583154224827366, 43.472845608497934 ], [ 6.583148620953055, 43.472755732821611 ], [ 6.583395438080745, 43.472747570204099 ], [ 6.583401042340006, 43.472837445867135 ], [ 6.583524451070049, 43.472833364341042 ], [ 6.583507637767397, 43.472563737388626 ], [ 6.583260821444637, 43.472571900260469 ], [ 6.583266425476389, 43.472661775918979 ], [ 6.583019608698615, 43.472669938242305 ], [ 6.583002797810745, 43.472400311243568 ], [ 6.583249613433681, 43.472392148960139 ], [ 6.583255217430401, 43.472482024607523 ], [ 6.583625441310845, 43.472469780109016 ], [ 6.583614232180092, 43.472290028859675 ], [ 6.583490824622404, 43.472294110486345 ], [ 6.583474011635071, 43.472024483634208 ], [ 6.583597418615346, 43.472020402027489 ], [ 6.583591814128801, 43.471930526427897 ], [ 6.583468407340996, 43.471934608027986 ], [ 6.583445990339864, 43.471575105658772 ], [ 6.583322584304412, 43.471579187091841 ], [ 6.583328188335952, 43.471669062682409 ], [ 6.583204782090517, 43.471673143981647 ], [ 6.583199178251444, 43.471583268384428 ], [ 6.583075772180959, 43.471587349536591 ], [ 6.583070168551869, 43.471497473938278 ], [ 6.582823356743289, 43.471505635807958 ], [ 6.582828959987446, 43.471595511419544 ], [ 6.58295236609296, 43.471591430548287 ], [ 6.582974780014604, 43.471950933023813 ], [ 6.582851373139218, 43.471955013921644 ], [ 6.582856976470945, 43.472044889561097 ], [ 6.582733569385574, 43.472048970325126 ], [ 6.582739172542346, 43.472138845976779 ], [ 6.582862579820189, 43.472134765206128 ], [ 6.582873786571217, 43.472314516512888 ], [ 6.582380155815, 43.472330838806002 ], [ 6.582368950603741, 43.4721510874461 ], [ 6.582492357934123, 43.472147007096773 ], [ 6.582486755162292, 43.472057131431818 ], [ 6.582610162282689, 43.472053050948709 ], [ 6.582604559335901, 43.471963175295954 ], [ 6.582727966246315, 43.471959094679022 ], [ 6.582722363124571, 43.471869219038496 ], [ 6.582845769825004, 43.471865138287768 ], [ 6.582840166528303, 43.471775262659442 ], [ 6.582716760020339, 43.471779343403547 ], [ 6.582699950812727, 43.471509716532111 ], [ 6.582576544864652, 43.471513797115819 ], [ 6.582570942022942, 43.471423921496516 ], [ 6.582817753516646, 43.471415760201928 ], [ 6.582812150307516, 43.471325884601491 ], [ 6.583058961346233, 43.471317722758407 ], [ 6.583053357769686, 43.471227847176806 ], [ 6.582929952451551, 43.471231928161927 ], [ 6.582924349084984, 43.471142052579289 ], [ 6.582800943941798, 43.471146133417328 ], [ 6.582795340785209, 43.471056257833595 ], [ 6.582671935816973, 43.471060338524545 ], [ 6.582666332870361, 43.470970462939754 ], [ 6.58303654714514, 43.470958220465512 ], [ 6.583042150669141, 43.471048096030373 ], [ 6.583288960483014, 43.471039933665352 ], [ 6.583294564409456, 43.471129809222489 ], [ 6.583541374538191, 43.471121646282384 ], [ 6.583552583213483, 43.471301397386839 ], [ 6.583675988636503, 43.471297315692823 ], [ 6.583692802358216, 43.471566942371325 ], [ 6.583569396357799, 43.471571024085272 ], [ 6.583575000774273, 43.471660899662567 ], [ 6.583698406967157, 43.471656817941962 ], [ 6.583709616237593, 43.471836569100013 ], [ 6.583833022797895, 43.471832487225662 ], [ 6.583861047242909, 43.472281865184996 ], [ 6.583984454748039, 43.472277783136974 ], [ 6.583995665033624, 43.472457534346439 ], [ 6.584242480761211, 43.472449369802476 ], [ 6.584248086315228, 43.472539245402253 ], [ 6.584124678267724, 43.472543327751119 ], [ 6.58413028364679, 43.472633203363117 ], [ 6.58400687538929, 43.472637285578166 ], [ 6.584040506876782, 43.473176539407064 ], [ 6.583917097446911, 43.473180621521536 ], [ 6.583911492347671, 43.473090745862827 ], [ 6.583541264530368, 43.473102991343588 ], [ 6.583535660026077, 43.473013115670504 ], [ 6.583412250911082, 43.473017197209877 ], [ 6.583417855222896, 43.473107072889604 ], [ 6.583294445897906, 43.473111154295182 ], [ 6.583288841778569, 43.473021278608798 ], [ 6.583165432628538, 43.473025359867279 ], [ 6.5831710365554, 43.473115235560279 ], [ 6.583047627195376, 43.473119316684937 ], [ 6.583042023460992, 43.473029440985286 ], [ 6.582795205073351, 43.473037602799948 ], [ 6.582789601741434, 43.47294772709256 ], [ 6.582542783668687, 43.472955888332109 ], [ 6.582548386615651, 43.473045764052806 ], [ 6.581931340164926, 43.473066164726987 ], [ 6.581925738180346, 43.472976288973108 ], [ 6.581678919862432, 43.472984448246329 ], [ 6.581684521462057, 43.473074324013496 ], [ 6.581437702689151, 43.473082482738199 ], [ 6.58145450643821, 43.47335211011297 ], [ 6.581207686440399, 43.473360268315673 ], [ 6.581202085558163, 43.473270392505242 ], [ 6.581325495373343, 43.473266313480742 ], [ 6.581314293276435, 43.473086561889858 ], [ 6.580820655450503, 43.473102877091989 ], [ 6.58082625572029, 43.473192752911196 ], [ 6.581073075053226, 43.473184595577784 ], [ 6.581078675725476, 43.473274471389288 ], [ 6.580955265875283, 43.473278550132875 ], [ 6.580983268536731, 43.473727929307181 ], [ 6.581106679349328, 43.473723850530405 ], [ 6.581112280126619, 43.473813726375326 ], [ 6.58098886912154, 43.473817805158745 ], [ 6.580994469723854, 43.473907681015881 ], [ 6.581117880921417, 43.473903602225832 ], [ 6.581123481733721, 43.473993478081894 ], [ 6.58124689310626, 43.473989399144706 ], [ 6.58123569111419, 43.473809647451439 ], [ 6.581359102084255, 43.473805568387093 ], [ 6.581364703264017, 43.473895444224318 ], [ 6.581488114409057, 43.473891365012875 ], [ 6.581493715798812, 43.473981240849007 ], [ 6.58137030446129, 43.473985320067094 ], [ 6.58137590567607, 43.474075195915447 ], [ 6.581499317206075, 43.474071116690723 ], [ 6.581527324505034, 43.474520495982787 ], [ 6.581280499502656, 43.474528654358195 ], [ 6.581286100630001, 43.474618530246588 ], [ 6.581162687910061, 43.474622609230231 ], [ 6.581157086975204, 43.474532733335202 ], [ 6.581033674430245, 43.474536812171735 ], [ 6.58104487593249, 43.474716563980678 ], [ 6.580798050020097, 43.474724721258958 ], [ 6.580809250822414, 43.474904473116737 ], [ 6.58117949081968, 43.474892236948747 ], [ 6.581190692846963, 43.475071988788919 ], [ 6.581684347471456, 43.475055671878735 ], [ 6.581689949281326, 43.475145547780613 ], [ 6.581813363086165, 43.475141468195261 ], [ 6.581802159098956, 43.474961716410377 ], [ 6.581925572501303, 43.474957636697873 ], [ 6.581914368199159, 43.474777884948537 ], [ 6.582037781199015, 43.474773805108867 ], [ 6.582032178881723, 43.474683929249188 ], [ 6.581908766074354, 43.474688009082207 ], [ 6.581903163967061, 43.474598133221455 ], [ 6.582026576581941, 43.474594053395059 ], [ 6.582020974299672, 43.474504177546514 ], [ 6.582144386704554, 43.474500097586301 ], [ 6.582172399253461, 43.474949476851485 ], [ 6.582295812603271, 43.474945396717615 ], [ 6.582307018130404, 43.475125148449344 ], [ 6.582677259229692, 43.475112907165084 ], [ 6.582671655879897, 43.475023031316368 ], [ 6.58254824239014, 43.475027111878269 ], [ 6.582531433023315, 43.474757484345567 ], [ 6.58277825883038, 43.474749323121159 ], [ 6.582772655358157, 43.474659447301335 ], [ 6.582279004443922, 43.474675769161735 ], [ 6.582267799091922, 43.474496017485642 ], [ 6.58251462381412, 43.474487856862929 ], [ 6.582520226866337, 43.474577732684907 ], [ 6.583137289327756, 43.474557328636912 ], [ 6.583131685313105, 43.474467452848145 ], [ 6.583255097560353, 43.474463371623848 ], [ 6.583249493370734, 43.474373495847296 ], [ 6.583372905407979, 43.474369414489161 ], [ 6.583378509790083, 43.474459290259055 ], [ 6.583501922002293, 43.474455208753824 ], [ 6.583507526594403, 43.474545084522632 ], [ 6.583630938981581, 43.474541002870282 ], [ 6.583625334196986, 43.474451127108118 ], [ 6.583748746374159, 43.474447045321973 ], [ 6.583731931548035, 43.4741774180888 ], [ 6.583608519948317, 43.474181499855007 ], [ 6.583614124680355, 43.474271375600459 ], [ 6.583367301043392, 43.474279538724829 ], [ 6.583361696696324, 43.474189662966069 ], [ 6.583485108331081, 43.474185581480761 ], [ 6.583479503809046, 43.474095705734207 ], [ 6.5836029152338, 43.474091624115076 ], [ 6.583597310536803, 43.474001748380736 ], [ 6.583720721751553, 43.473997666627831 ], [ 6.58370951202515, 43.47381791518913 ], [ 6.583832922837418, 43.473813833309045 ], [ 6.583804897865605, 43.473364454843015 ], [ 6.583928307697952, 43.473360372855673 ], [ 6.583939518019074, 43.4735401242121 ], [ 6.584186338401124, 43.473531959789518 ], [ 6.584180732846844, 43.473442084121828 ], [ 6.584304142819105, 43.473438001706498 ], [ 6.584309748565865, 43.473527877367559 ], [ 6.584433158713083, 43.473523794805132 ], [ 6.584438764669846, 43.47361367046512 ], [ 6.584562174992022, 43.473609587755604 ], [ 6.584573387343074, 43.473789339078976 ], [ 6.584449976635938, 43.47379342180178 ], [ 6.584455582645269, 43.473883297478459 ], [ 6.584578993544887, 43.47387921474899 ], [ 6.584595812255467, 43.474148841792534 ], [ 6.584472400778402, 43.474152924541926 ], [ 6.584483612954775, 43.474332675945391 ], [ 6.584607024816809, 43.474328593182697 ], [ 6.584601418527376, 43.474238717484809 ], [ 6.5847248301794, 43.474234634588313 ], [ 6.584736043160759, 43.474414385976324 ], [ 6.584859455180228, 43.47441030292606 ], [ 6.5848482418139, 43.474230551551358 ], [ 6.584971653430875, 43.474226468373914 ], [ 6.584966046581516, 43.474136592701562 ], [ 6.584719223715009, 43.474144758902668 ], [ 6.584696798032686, 43.473785256215677 ], [ 6.585190440615887, 43.473768923358044 ], [ 6.585196047780104, 43.47385879899484 ], [ 6.58531945857457, 43.47385471542264 ], [ 6.585325065948795, 43.473944591058356 ], [ 6.585448476918214, 43.473940507339059 ], [ 6.585431654270677, 43.473670880468568 ], [ 6.584938012597609, 43.473687214423244 ], [ 6.584932405853404, 43.473597338784295 ], [ 6.584685585296674, 43.47360550490562 ], [ 6.584679978954953, 43.473515629258912 ], [ 6.58455656884278, 43.473519712102267 ], [ 6.584550962711063, 43.4734298364545 ], [ 6.584921192417571, 43.47341758752308 ], [ 6.584915585725944, 43.473327711900829 ], [ 6.584668766324086, 43.473335877982251 ], [ 6.584663160034938, 43.473246002352276 ], [ 6.584539750500199, 43.473250085175678 ], [ 6.584528538359429, 43.473070333919139 ], [ 6.584651947509213, 43.473066251109032 ], [ 6.584646341272638, 43.472976375495783 ], [ 6.584152705338266, 43.472992705866851 ], [ 6.584141494457485, 43.472812954603839 ], [ 6.584264903082412, 43.472808872235035 ], [ 6.584259297475829, 43.472718996618561 ], [ 6.584382705890759, 43.47271491411594 ], [ 6.584393917506395, 43.472894665341215 ], [ 6.584640735053584, 43.472886499888062 ], [ 6.584629522668052, 43.472706748689376 ], [ 6.584752931030414, 43.472702665765425 ], [ 6.584764143800895, 43.472882416950796 ], [ 6.585257778614887, 43.472866083797278 ], [ 6.585229742970649, 43.472416706008531 ], [ 6.585106335255804, 43.472420789474349 ], [ 6.585100728372006, 43.472330913926648 ], [ 6.584977320832108, 43.472334997245369 ], [ 6.584971714158307, 43.472245121696616 ], [ 6.584848306793354, 43.472249204868241 ], [ 6.58485951977354, 43.472428955984647 ], [ 6.58473611200612, 43.472433039029106 ], [ 6.584730505699737, 43.47234316346146 ], [ 6.584607098107265, 43.472347246358829 ], [ 6.584601492010877, 43.472257370790125 ], [ 6.584724899410877, 43.472253287899406 ], [ 6.584708080649441, 43.471983661246668 ], [ 6.584584673826849, 43.471987744117456 ], [ 6.584579067800553, 43.471897868571034 ], [ 6.584702474430676, 43.471893785706904 ], [ 6.584696868229434, 43.471803910172696 ], [ 6.584820274649566, 43.47179982717477 ], [ 6.584814668273379, 43.47170995165277 ], [ 6.584691262045715, 43.471714034644066 ], [ 6.58468565587952, 43.471624159121021 ], [ 6.584438843756556, 43.47163232466896 ], [ 6.584433237992815, 43.47154244913817 ], [ 6.584556643870592, 43.471538366441074 ], [ 6.584545432010747, 43.471358615409549 ], [ 6.584298621007533, 43.471366780636693 ], [ 6.584293015488822, 43.471276905116007 ], [ 6.584169610153399, 43.471280987512273 ], [ 6.584164004844673, 43.471191111990471 ], [ 6.584287409987633, 43.47118702960087 ], [ 6.584281804503965, 43.471097154091311 ], [ 6.584158399553468, 43.471101236474276 ], [ 6.584152794279783, 43.471011360963658 ], [ 6.584029389504229, 43.471015443199533 ], [ 6.584023784440527, 43.470925567687836 ], [ 6.584147189023619, 43.470921485458604 ], [ 6.584141583784974, 43.470831609959127 ], [ 6.584388392513675, 43.470823445092641 ], [ 6.584382786907629, 43.470733569612023 ], [ 6.584752999291887, 43.470721321278852 ], [ 6.584758605475315, 43.470811196739525 ], [ 6.584882009760817, 43.470807113674262 ], [ 6.584876403384928, 43.470717238220239 ], [ 6.585370019581851, 43.470700904581314 ], [ 6.585375626727583, 43.470790780008741 ], [ 6.58549903092546, 43.47078669624122 ], [ 6.585482208963466, 43.470517069995616 ], [ 6.585729016151884, 43.470508902079168 ], [ 6.585740231545524, 43.470688652877421 ], [ 6.585863635498361, 43.470684568695226 ], [ 6.585874851347031, 43.470864319502461 ], [ 6.585628042653989, 43.470872487752992 ], [ 6.585633650219695, 43.470962363178266 ], [ 6.585880459297659, 43.470954194914448 ], [ 6.585886067265815, 43.471044070331992 ], [ 6.586503090616273, 43.471023647181347 ], [ 6.586508699564269, 43.471113522571223 ], [ 6.58663210437423, 43.4711094375131 ], [ 6.58663771353222, 43.471199312901902 ], [ 6.586761118517112, 43.47119522769669 ], [ 6.586772337270615, 43.471374978477705 ], [ 6.587019147957649, 43.471366807619297 ], [ 6.587024757745629, 43.471456683004874 ], [ 6.587271568747455, 43.471448511571374 ], [ 6.587277178937898, 43.47153838694922 ], [ 6.587153773253287, 43.47154247274284 ], [ 6.587170603352432, 43.471812098929753 ], [ 6.587294009614439, 43.471808013116167 ], [ 6.587305230153147, 43.471987763921987 ], [ 6.587428636782551, 43.471983677954675 ], [ 6.587434247270678, 43.472073553359287 ], [ 6.587557654075013, 43.472069467244857 ], [ 6.587563264773144, 43.472159342648382 ], [ 6.587686671752412, 43.472155256386841 ], [ 6.587697893586225, 43.472335007197351 ], [ 6.587944708262021, 43.472326834226294 ], [ 6.587950319590174, 43.472416709626593 ], [ 6.588073727094233, 43.472412622923727 ], [ 6.588068115573609, 43.472322747530107 ], [ 6.588191522867659, 43.472318660693453 ], [ 6.58817468783362, 43.472049034565934 ], [ 6.588421501214285, 43.4720408605112 ], [ 6.588427113259693, 43.47213073586817 ], [ 6.588550520116182, 43.472126648623487 ], [ 6.588533683455181, 43.471857022589262 ], [ 6.588410277176094, 43.471861109813993 ], [ 6.588404665183311, 43.471771234473749 ], [ 6.58865147733901, 43.471763059897143 ], [ 6.588662702111983, 43.471942810556612 ], [ 6.588909514967376, 43.471934635391605 ], [ 6.588915127765111, 43.472024510716359 ], [ 6.589038534358959, 43.472020422916543 ], [ 6.5890273083961, 43.471840672285886 ], [ 6.589274120761297, 43.471832496291476 ], [ 6.589268507421252, 43.471742620997809 ], [ 6.589021695440987, 43.47175079697891 ], [ 6.589010469583395, 43.471571046381669 ], [ 6.589133875197371, 43.471566958474661 ], [ 6.58913948830986, 43.471656833763838 ], [ 6.589756517078873, 43.471636392088818 ], [ 6.589745288946803, 43.471456641582584 ], [ 6.589868694263037, 43.471452552839544 ], [ 6.589857465816233, 43.471272802368937 ], [ 6.589610655936065, 43.471280979687933 ], [ 6.589599428329298, 43.471101229212984 ], [ 6.589476023747817, 43.471105317648508 ], [ 6.589470410163213, 43.471015442412714 ], [ 6.589593814552234, 43.471011353983862 ], [ 6.589588200792718, 43.470921478760332 ], [ 6.589217988150397, 43.470933743605606 ], [ 6.589201148709254, 43.47066411790852 ], [ 6.589447956000261, 43.470655941525379 ], [ 6.589436729024059, 43.470476191115146 ], [ 6.589313325772242, 43.470480279363613 ], [ 6.589302099251135, 43.470300528962404 ], [ 6.589178696366687, 43.47030461705711 ], [ 6.589173083324905, 43.470214741858193 ], [ 6.588926277888286, 43.470222917612993 ], [ 6.588909440022931, 43.469953292009762 ], [ 6.589403048516544, 43.46993694001825 ], [ 6.589408661890601, 43.470026815187154 ], [ 6.589532064162596, 43.470022726831502 ], [ 6.589537677746652, 43.470112601999311 ], [ 6.589661080193554, 43.470108513496562 ], [ 6.58966669398761, 43.47019838866327 ], [ 6.58979009660942, 43.470194300013418 ], [ 6.589795710613477, 43.47028417517906 ], [ 6.589919113410197, 43.470280086382104 ], [ 6.589924727624255, 43.470369961546659 ], [ 6.590048130595882, 43.470365872602606 ], [ 6.590053745019945, 43.470455747766074 ], [ 6.590177148166478, 43.470451658674918 ], [ 6.590188377452165, 43.470631409005286 ], [ 6.590311780966063, 43.470627319760368 ], [ 6.590317395827687, 43.470717194927254 ], [ 6.590440799516493, 43.470713105535232 ], [ 6.590446414588126, 43.470802980701031 ], [ 6.590323010706862, 43.470807070099703 ], [ 6.59033424051786, 43.47098682046132 ], [ 6.590581049032672, 43.470978641496885 ], [ 6.590586664349418, 43.471068516672759 ], [ 6.590956877567378, 43.471056247152795 ], [ 6.590968109408285, 43.471235997481273 ], [ 6.590474490209549, 43.471252356613604 ], [ 6.590480105386487, 43.471342231812827 ], [ 6.589986485137085, 43.471358588724634 ], [ 6.589997714003912, 43.471538339193074 ], [ 6.590121119477513, 43.471534250162478 ], [ 6.590126734129713, 43.471624125398407 ], [ 6.590250139778229, 43.471620036220706 ], [ 6.590261369520208, 43.471799786695975 ], [ 6.590384775536101, 43.471795697364499 ], [ 6.590396005733213, 43.47197544784872 ], [ 6.590272599332389, 43.471979537193491 ], [ 6.590283829214771, 43.472159287713303 ], [ 6.590900862968046, 43.472138839518344 ], [ 6.590895247055744, 43.472048964288952 ], [ 6.591018653561273, 43.472044874235266 ], [ 6.591007421404399, 43.471865123806495 ], [ 6.591130827507442, 43.471861033625679 ], [ 6.591125211262871, 43.471771158426314 ], [ 6.591495428889276, 43.471758887061149 ], [ 6.591484195298015, 43.471579136719093 ], [ 6.591607600753444, 43.47157504599646 ], [ 6.591618834729633, 43.471754796325193 ], [ 6.591742240552433, 43.471750705448812 ], [ 6.591731006191317, 43.47157095513338 ], [ 6.591977817014389, 43.471562772985898 ], [ 6.591972199475241, 43.471472897849836 ], [ 6.592095604667978, 43.471468806572076 ], [ 6.592089986953928, 43.471378931448278 ], [ 6.592336796901798, 43.47137074848473 ], [ 6.592325560756533, 43.471190998280491 ], [ 6.592448965319206, 43.471186906601375 ], [ 6.592443347080454, 43.471097031514269 ], [ 6.592936964385698, 43.471080663419968 ], [ 6.59293134539467, 43.470990788365093 ], [ 6.593054749484616, 43.470986695997084 ], [ 6.593060368668104, 43.47107657104528 ], [ 6.593183772932945, 43.471072478530168 ], [ 6.593178153557, 43.470982603488608 ], [ 6.593918577622429, 43.470958045488388 ], [ 6.593929818701389, 43.471137795497107 ], [ 6.594053223035727, 43.471133701992187 ], [ 6.594058843794019, 43.471223576998241 ], [ 6.594305652794908, 43.471215389553713 ], [ 6.594300031651699, 43.471125514560988 ], [ 6.594546840197391, 43.471117326568006 ], [ 6.594541218686834, 43.471027451594196 ], [ 6.594911430796215, 43.471015168571384 ], [ 6.594905808725857, 43.470925293623132 ], [ 6.594782404899425, 43.470929388097844 ], [ 6.594776783039095, 43.470839513148498 ], [ 6.595146993888299, 43.470827229323 ], [ 6.595141371468173, 43.470737354399233 ], [ 6.596005194820688, 43.470708687270829 ], [ 6.596022066175373, 43.470978311918863 ], [ 6.596268873844066, 43.470970120006726 ], [ 6.59627449804903, 43.471059994887199 ], [ 6.596151094031016, 43.471064090920152 ], [ 6.596156718061103, 43.471153965812881 ], [ 6.596033313833052, 43.471158061712082 ], [ 6.596038937688258, 43.471247936617033 ], [ 6.595668724321262, 43.471260223491889 ], [ 6.595674347616669, 43.471350098422441 ], [ 6.594563704834485, 43.471386951522923 ], [ 6.594574948013738, 43.471566701520722 ], [ 6.594451542787376, 43.471570795620742 ], [ 6.594445921381426, 43.471480920612407 ], [ 6.594322516329955, 43.471485014565324 ], [ 6.594328137543444, 43.471574889580332 ], [ 6.593711111060242, 43.471595357271589 ], [ 6.593716731328988, 43.471685232325498 ], [ 6.593469920227809, 43.471693418432167 ], [ 6.593464300343987, 43.471603543364942 ], [ 6.593217489557469, 43.471611728896512 ], [ 6.593223109056366, 43.471701603977074 ], [ 6.592976297814664, 43.471709788960169 ], [ 6.592981916946198, 43.471799664059631 ], [ 6.593228728572828, 43.471791479063192 ], [ 6.593239967658445, 43.471971229252183 ], [ 6.593363373830341, 43.471967136529976 ], [ 6.59337461337115, 43.472146886727927 ], [ 6.593251206814323, 43.472150979463464 ], [ 6.593256826418608, 43.47224085457745 ], [ 6.593380233167903, 43.472236761835248 ], [ 6.593391472814106, 43.472416512066602 ], [ 6.593268065679878, 43.472420604822126 ], [ 6.593284924703522, 43.472690230230931 ], [ 6.592914701463227, 43.472702507714779 ], [ 6.592897844171802, 43.472432882246004 ], [ 6.593144658528084, 43.472424697437184 ], [ 6.593139039081135, 43.472334822305406 ], [ 6.592892225109789, 43.472343007100896 ], [ 6.592886606065339, 43.472253131961359 ], [ 6.592639792408673, 43.472261316181715 ], [ 6.592645411068189, 43.472351191334582 ], [ 6.592522004021045, 43.472355283240752 ], [ 6.592527622505655, 43.472445158405854 ], [ 6.592774436967316, 43.472436974439745 ], [ 6.592780055854425, 43.472526849597088 ], [ 6.592533241007827, 43.472535033576527 ], [ 6.592544478064856, 43.472714783934578 ], [ 6.592174254508427, 43.472727058890328 ], [ 6.592191108493445, 43.472996684529107 ], [ 6.592314516940563, 43.472992592997663 ], [ 6.592303280548047, 43.472812842579557 ], [ 6.592426688592662, 43.472808750920983 ], [ 6.59243792537012, 43.472988501325766 ], [ 6.592808150553418, 43.47297622546737 ], [ 6.592813769545907, 43.47306610065813 ], [ 6.591826500499439, 43.473098833524794 ], [ 6.591832117969706, 43.473188708774408 ], [ 6.592078935721634, 43.473180526387139 ], [ 6.592090171484745, 43.473360276876448 ], [ 6.592213580719317, 43.473356185458798 ], [ 6.592219198819688, 43.47344606070515 ], [ 6.592095789392639, 43.473450152129459 ], [ 6.592118261199823, 43.473809653197137 ], [ 6.591994850985309, 43.473813744507616 ], [ 6.592000468788529, 43.473903619795124 ], [ 6.592123879195522, 43.473899528477972 ], [ 6.592140733287978, 43.474169154353895 ], [ 6.591893911301558, 43.474177336887678 ], [ 6.591905146681078, 43.474357087526101 ], [ 6.59202855806803, 43.474352996316092 ], [ 6.592034175976613, 43.474442871637009 ], [ 6.590923471129594, 43.474479687530597 ], [ 6.590912238794663, 43.474299936774479 ], [ 6.591035650129596, 43.474295846694758 ], [ 6.591030033795983, 43.474205971331742 ], [ 6.59115344492088, 43.474201881118233 ], [ 6.591147828412341, 43.474112005767417 ], [ 6.591271239327201, 43.47410791542012 ], [ 6.591265622643738, 43.474018040081539 ], [ 6.591512444035828, 43.474009858978896 ], [ 6.591495592935909, 43.473740233036466 ], [ 6.591619003028182, 43.473736142294449 ], [ 6.591607768664403, 43.473556391707341 ], [ 6.591731178354165, 43.473552300838186 ], [ 6.591725561006137, 43.473462425559624 ], [ 6.591602151508852, 43.473466516422121 ], [ 6.591596534370858, 43.47337664114248 ], [ 6.591719943675668, 43.473372550286648 ], [ 6.591708709067404, 43.473192799757378 ], [ 6.591585300147542, 43.47319689059988 ], [ 6.591590917250421, 43.473286765868387 ], [ 6.591097280625507, 43.473303127860554 ], [ 6.591102896976045, 43.473393003161277 ], [ 6.590979487583451, 43.473397093314851 ], [ 6.590985103759067, 43.473486968627796 ], [ 6.591355332461608, 43.473474697725749 ], [ 6.591366566020365, 43.473654448328368 ], [ 6.590996336162965, 43.473666719270369 ], [ 6.591001952391246, 43.473756594600012 ], [ 6.590878542211191, 43.473760684639757 ], [ 6.590884158264549, 43.473850559981628 ], [ 6.59113097899206, 43.473842379748348 ], [ 6.591136595447932, 43.473932255082481 ], [ 6.591013184900476, 43.473936345276016 ], [ 6.591018801181422, 43.474026220622349 ], [ 6.590771979648884, 43.474034400601333 ], [ 6.59079444340838, 43.474393902095649 ], [ 6.58894326812761, 43.47445523442957 ], [ 6.588948881224123, 43.474545109916939 ], [ 6.588825469205868, 43.474549197622203 ], [ 6.588842308023226, 43.474818824137586 ], [ 6.58871889540997, 43.474822911722363 ], [ 6.588713282645791, 43.474733036205023 ], [ 6.587232332228239, 43.474782076186898 ], [ 6.587243553154464, 43.474961827386849 ], [ 6.586996727069372, 43.474969998777361 ], [ 6.587002337173815, 43.475059874398987 ], [ 6.586508684023245, 43.475076215521149 ], [ 6.586525512131921, 43.475345842499237 ], [ 6.586402098222973, 43.475349927448576 ], [ 6.586407707435109, 43.475439803125695 ], [ 6.586284293316137, 43.475443887941246 ], [ 6.586289902353315, 43.475533763630608 ], [ 6.586166488024316, 43.475537848312335 ], [ 6.586172096886536, 43.47562772401389 ], [ 6.586418925911983, 43.475619554496674 ], [ 6.586413316664779, 43.475529678808421 ], [ 6.58653673095871, 43.475525593845752 ], [ 6.586531121536548, 43.475435718169713 ], [ 6.586654535620453, 43.475431633073249 ], [ 6.586643316443752, 43.475251881751156 ], [ 6.586766730125141, 43.47524779652754 ], [ 6.586761120370602, 43.475157920881493 ], [ 6.587007947295795, 43.475149750026169 ], [ 6.587019167592365, 43.475329501297253 ], [ 6.587142581413636, 43.475325415645599 ], [ 6.587159412567488, 43.475595042574 ], [ 6.587035998168745, 43.47559912824557 ], [ 6.587030387959081, 43.475509252590562 ], [ 6.586783559493966, 43.475517423499092 ], [ 6.586805998897902, 43.475876926205721 ], [ 6.586312338677363, 43.475893266443663 ], [ 6.58631794780221, 43.475983142160814 ], [ 6.586194532510746, 43.475987226875787 ], [ 6.58620014146063, 43.47607710260516 ], [ 6.586076725959137, 43.476081187186338 ], [ 6.586082334734058, 43.476171062927918 ], [ 6.585712087546898, 43.47618331584863 ], [ 6.585717695761861, 43.476273191615739 ], [ 6.585347447839432, 43.476285443292227 ], [ 6.585353055494435, 43.476375319084852 ], [ 6.585106223073507, 43.476383486180175 ], [ 6.585111830361043, 43.476473361991644 ], [ 6.584864997485004, 43.476481528538415 ], [ 6.58487060440507, 43.476571404368755 ], [ 6.584130104201333, 43.476595900677879 ], [ 6.584135709983926, 43.476685776553651 ], [ 6.583642042060956, 43.476702104643749 ], [ 6.583647647091067, 43.476791980551646 ], [ 6.583277395387364, 43.476804225164294 ], [ 6.583282999857491, 43.476894101097699 ], [ 6.582912747418605, 43.476906344466116 ], [ 6.582918351328743, 43.476996220425043 ], [ 6.582671515896891, 43.477004381981615 ], [ 6.582677119439541, 43.477094257959394 ], [ 6.581936611568582, 43.477118739297865 ], [ 6.581947816396374, 43.477298491349764 ], [ 6.581577561069429, 43.477310730162593 ], [ 6.581571959224294, 43.477220854113952 ], [ 6.581201704317263, 43.477233091642667 ], [ 6.581207305584883, 43.477322967711245 ], [ 6.581083887055013, 43.477327046613219 ], [ 6.581067083882198, 43.477057418404215 ], [ 6.581190501834552, 43.477053339522186 ], [ 6.581184900619461, 43.476963463470284 ], [ 6.58167857148376, 43.476947146564079 ], [ 6.581667367566082, 43.4767673945301 ], [ 6.58203761937542, 43.476755155415432 ], [ 6.58204322190301, 43.476845031409717 ], [ 6.582166639330265, 43.476840951417252 ], [ 6.582161036610174, 43.476751075429625 ], [ 6.582531288209347, 43.476738834629387 ], [ 6.582536891506945, 43.476828710597104 ], [ 6.582660308864141, 43.476824630042799 ], [ 6.582654705374041, 43.476734754081733 ], [ 6.582778122521218, 43.476730673393604 ], [ 6.582783726203821, 43.47682054934802 ], [ 6.582907143525984, 43.476816468512787 ], [ 6.582901539650879, 43.476726592565015 ], [ 6.583271790934755, 43.476714349236453 ], [ 6.583260582082096, 43.476534597397446 ], [ 6.582396664869489, 43.476563163104558 ], [ 6.582391061816938, 43.476473287146895 ], [ 6.582144228554979, 43.476481447500042 ], [ 6.582149831222529, 43.476571323471013 ], [ 6.581902997505516, 43.476579483275607 ], [ 6.581908599805578, 43.476669359265408 ], [ 6.581414931391397, 43.476685677215627 ], [ 6.581403728348794, 43.476505925188441 ], [ 6.581156894806644, 43.476514083294212 ], [ 6.581162495934189, 43.476603959318311 ], [ 6.581039078944349, 43.476608038167136 ], [ 6.581033478009306, 43.476518162136394 ], [ 6.580292976857624, 43.476542632239827 ], [ 6.580298576637661, 43.476632508310395 ], [ 6.580051742395386, 43.476640663901115 ], [ 6.580057341807923, 43.476730539990527 ], [ 6.57981050711063, 43.476738695032665 ], [ 6.579816106155664, 43.476828571140913 ], [ 6.579075600488722, 43.476853032936063 ], [ 6.579081198396236, 43.476942909089694 ], [ 6.578957780531325, 43.476946985570571 ], [ 6.578963378263833, 43.477036861736387 ], [ 6.578593123986597, 43.477049090356154 ], [ 6.578598721159086, 43.477138966547457 ], [ 6.578228466146863, 43.477151193922928 ], [ 6.578234062759329, 43.477241070139705 ], [ 6.578480899836653, 43.477232918683264 ], [ 6.578486496851629, 43.477322794892309 ], [ 6.578609915556554, 43.477318718946748 ], [ 6.578615512781533, 43.477408595154756 ], [ 6.578862350523907, 43.477400442828952 ], [ 6.578867948151399, 43.477490319029236 ], [ 6.578744529096454, 43.477494395268984 ], [ 6.578750126548936, 43.477584271481483 ], [ 6.578873545796391, 43.477580195235085 ], [ 6.57887914345888, 43.477670071446454 ], [ 6.579002562881345, 43.477665995052959 ], [ 6.579008160753844, 43.477755871263305 ], [ 6.578761321506394, 43.477764023923115 ], [ 6.57876691901137, 43.477853900152262 ], [ 6.579013758643839, 43.477845747479186 ], [ 6.579019356551335, 43.47793562370061 ], [ 6.57852567644636, 43.477951928511466 ], [ 6.578520079308909, 43.477862052263468 ], [ 6.578026399694028, 43.47787835480031 ], [ 6.578020803344117, 43.477788478531352 ], [ 6.57777396381673, 43.477796628943722 ], [ 6.57777955978162, 43.477886505225946 ], [ 6.577656139799175, 43.477890580228042 ], [ 6.577650544026796, 43.477800703939181 ], [ 6.57752712421937, 43.477804778794187 ], [ 6.57751593311211, 43.477625026219854 ], [ 6.577145674739945, 43.477637249902266 ], [ 6.577156864692141, 43.477817002516424 ], [ 6.57703344481475, 43.477821076809562 ], [ 6.577061419038755, 43.478270458475357 ], [ 6.57718483987871, 43.478266384149052 ], [ 6.577196030075772, 43.478446136841022 ], [ 6.577319451283264, 43.478442062360976 ], [ 6.577325046600547, 43.478531938708656 ], [ 6.576954782348049, 43.478544161747301 ] ], [ [ 6.578520079308909, 43.477862052263468 ], [ 6.578643499168888, 43.477857976278109 ], [ 6.578637901856423, 43.477768100042319 ], [ 6.578514482188955, 43.477772176021077 ], [ 6.578520079308909, 43.477862052263468 ] ], [ [ 6.578508885086495, 43.477682299784171 ], [ 6.578632304561455, 43.47767822381207 ], [ 6.578626707283984, 43.477588347587421 ], [ 6.578503288001533, 43.477592423552863 ], [ 6.578508885086495, 43.477682299784171 ] ], [ [ 6.572321126716999, 43.477616289622979 ], [ 6.572691385979157, 43.477604082414892 ], [ 6.572685797994634, 43.477514205888617 ], [ 6.572932637030376, 43.477506067060823 ], [ 6.572938225399922, 43.47759594357381 ], [ 6.573061645084101, 43.477591873942586 ], [ 6.573016937076794, 43.476872862047223 ], [ 6.572770100771115, 43.476881001063212 ], [ 6.572764512733828, 43.476791124588075 ], [ 6.572887930702896, 43.47678705515694 ], [ 6.57288234249057, 43.476697178693975 ], [ 6.572635506919979, 43.476705317402548 ], [ 6.572646682592072, 43.476885070360524 ], [ 6.572523264395562, 43.476889139517347 ], [ 6.572534439752511, 43.477068892510815 ], [ 6.572781276898094, 43.477060754030191 ], [ 6.572792453094945, 43.47724050701941 ], [ 6.57266903414587, 43.477244576343203 ], [ 6.572663446231219, 43.47715469983919 ], [ 6.572540027457185, 43.477158769015908 ], [ 6.572556790676015, 43.477428398564513 ], [ 6.572433371306985, 43.477432467620631 ], [ 6.572438958889019, 43.477522344154572 ], [ 6.572315539310011, 43.477526413076852 ], [ 6.572321126716999, 43.477616289622979 ] ], [ [ 6.573555323646109, 43.477575594012983 ], [ 6.573678743242932, 43.477571523679437 ], [ 6.573667564211179, 43.4773917707385 ], [ 6.573544144999379, 43.477395841058794 ], [ 6.573555323646109, 43.477575594012983 ] ], [ [ 6.576640808323375, 43.477473793534024 ], [ 6.577011065750359, 43.477461571576988 ], [ 6.577005471027984, 43.477371695282748 ], [ 6.576882052095653, 43.477375769402265 ], [ 6.576876457583276, 43.477285893106952 ], [ 6.576753038825965, 43.477289967079386 ], [ 6.576758633145833, 43.477379843381314 ], [ 6.576635214178527, 43.477383917219896 ], [ 6.576640808323375, 43.477473793534024 ] ], [ [ 6.577375727720039, 43.477359472081417 ], [ 6.578239659389291, 43.477330946362038 ], [ 6.578234062759329, 43.477241070139705 ], [ 6.577370132437631, 43.47726959581265 ], [ 6.577375727720039, 43.477359472081417 ] ], [ [ 6.581571959224294, 43.477220854113952 ], [ 6.581695377491616, 43.477216774656775 ], [ 6.581689775471486, 43.47712689862032 ], [ 6.581566357396668, 43.477130978070846 ], [ 6.581571959224294, 43.477220854113952 ] ], [ [ 6.573420725770105, 43.477399911238635 ], [ 6.573544144999379, 43.477395841058794 ], [ 6.573527377160322, 43.477126211669209 ], [ 6.573403958508576, 43.477130281829169 ], [ 6.573420725770105, 43.477399911238635 ] ], [ [ 6.581801989156057, 43.476943066986372 ], [ 6.582048824448114, 43.476934907409557 ], [ 6.58204322190301, 43.476845031409717 ], [ 6.581796386995959, 43.476853190973245 ], [ 6.581801989156057, 43.476943066986372 ] ], [ [ 6.573274950979634, 43.477044475383344 ], [ 6.573398369456344, 43.47704040537046 ], [ 6.573353657667442, 43.476321393901131 ], [ 6.573230240730775, 43.476325463861002 ], [ 6.573274950979634, 43.477044475383344 ] ], [ [ 6.574380126066184, 43.476917963810621 ], [ 6.574873798469078, 43.476901677886111 ], [ 6.574868207141713, 43.476811801518082 ], [ 6.574744789259712, 43.476815873203272 ], [ 6.574739198142329, 43.476725996834162 ], [ 6.574368944968977, 43.476738211027083 ], [ 6.574380126066184, 43.476917963810621 ] ], [ [ 6.583260582082096, 43.476534597397446 ], [ 6.583630832053294, 43.476522352844597 ], [ 6.583625227075745, 43.47643247695337 ], [ 6.583254977682045, 43.476444721486281 ], [ 6.583260582082096, 43.476534597397446 ] ], [ [ 6.584741581020694, 43.47648561160112 ], [ 6.584864997485004, 43.476481528538415 ], [ 6.584859390582466, 43.476391652713666 ], [ 6.58498280683675, 43.476387569517144 ], [ 6.584971592699257, 43.476207817897595 ], [ 6.58435451317755, 43.476228232409056 ], [ 6.584360119275046, 43.476318108249295 ], [ 6.583866454572249, 43.476334437356741 ], [ 6.583872059917275, 43.476424313229124 ], [ 6.584612558021317, 43.476399818685287 ], [ 6.584606951521301, 43.476309942852794 ], [ 6.584730367618139, 43.476305859943849 ], [ 6.584741581020694, 43.47648561160112 ] ], [ [ 6.575232868795442, 43.476709709277138 ], [ 6.575356286415021, 43.476705637036702 ], [ 6.575345102307648, 43.476525884381473 ], [ 6.575098267821025, 43.476534028695312 ], [ 6.575103859480964, 43.476623905033421 ], [ 6.575227276925518, 43.476619832940102 ], [ 6.575232868795442, 43.476709709277138 ] ], [ [ 6.575967781225748, 43.476595397430394 ], [ 6.576214615852629, 43.476587251136777 ], [ 6.576209022460159, 43.476497374858361 ], [ 6.575962188218284, 43.476505521138705 ], [ 6.575967781225748, 43.476595397430394 ] ], [ [ 6.572259666200758, 43.476627647921376 ], [ 6.572383083854683, 43.476623579065347 ], [ 6.572377496447315, 43.476533702587012 ], [ 6.572254078985894, 43.476537771436433 ], [ 6.572259666200758, 43.476627647921376 ] ], [ [ 6.584971592699257, 43.476207817897595 ], [ 6.585095008551018, 43.476203734573929 ], [ 6.585089401316067, 43.476113858779144 ], [ 6.584965985656802, 43.47611794209616 ], [ 6.584971592699257, 43.476207817897595 ] ], [ [ 6.572377496447315, 43.476533702587012 ], [ 6.572500913891268, 43.476529633597146 ], [ 6.572495326308861, 43.476439757131011 ], [ 6.572371909057412, 43.476443826114263 ], [ 6.572377496447315, 43.476533702587012 ] ], [ [ 6.581510340083522, 43.476232217945736 ], [ 6.581633756233322, 43.476228138561609 ], [ 6.581628154405819, 43.476138262586332 ], [ 6.581504738448516, 43.476142341963815 ], [ 6.581510340083522, 43.476232217945736 ] ], [ [ 6.585212816957804, 43.476109775321632 ], [ 6.585336232582013, 43.476105691723696 ], [ 6.585330624979598, 43.476015815947775 ], [ 6.585207209547884, 43.476019899539089 ], [ 6.585212816957804, 43.476109775321632 ] ], [ [ 6.572495326308861, 43.476439757131011 ], [ 6.572742160759359, 43.476431618743149 ], [ 6.572736572809412, 43.476341742295816 ], [ 6.572489738743921, 43.476349880670433 ], [ 6.572495326308861, 43.476439757131011 ] ], [ [ 6.585454040393782, 43.476011732216016 ], [ 6.585700871169561, 43.476003564331108 ], [ 6.585695263007189, 43.475913688580711 ], [ 6.5854484326164, 43.475921856452302 ], [ 6.585454040393782, 43.476011732216016 ] ], [ [ 6.572736572809412, 43.476341742295816 ], [ 6.573230240730775, 43.476325463861002 ], [ 6.573224652028284, 43.476235587445736 ], [ 6.572730984876932, 43.47625186585406 ], [ 6.572736572809412, 43.476341742295816 ] ], [ [ 6.574464409311195, 43.476284757941521 ], [ 6.574587826073127, 43.476280686577041 ], [ 6.574582235253112, 43.476190810234684 ], [ 6.57445881868368, 43.476194881592541 ], [ 6.574464409311195, 43.476284757941521 ] ], [ [ 6.575081492946086, 43.476264399714431 ], [ 6.575204909620629, 43.476260327647623 ], [ 6.575199317838106, 43.476170451338405 ], [ 6.575075901356064, 43.476174523398591 ], [ 6.575081492946086, 43.476264399714431 ] ], [ [ 6.575328326277694, 43.476256255440347 ], [ 6.57557515953938, 43.476248110604423 ], [ 6.575558382511744, 43.475978481753124 ], [ 6.575434966467142, 43.475982554221432 ], [ 6.575446150749752, 43.476162306796653 ], [ 6.575322734302668, 43.476166379137766 ], [ 6.575328326277694, 43.476256255440347 ] ], [ [ 6.585695263007189, 43.475913688580711 ], [ 6.585942093327855, 43.475905520147258 ], [ 6.585936484798024, 43.475815644415697 ], [ 6.585689654862347, 43.475823812835856 ], [ 6.585695263007189, 43.475913688580711 ] ], [ [ 6.585936484798024, 43.475815644415697 ], [ 6.586059899739565, 43.475811559994945 ], [ 6.586054291034773, 43.475721684275584 ], [ 6.585930876285725, 43.475725768689706 ], [ 6.585936484798024, 43.475815644415697 ] ], [ [ 6.586054291034773, 43.475721684275584 ], [ 6.586177705766289, 43.475717599721015 ], [ 6.586172096886536, 43.47562772401389 ], [ 6.586048682347514, 43.475631808561801 ], [ 6.586054291034773, 43.475721684275584 ] ], [ [ 6.572226143173559, 43.476088389095125 ], [ 6.572349559672462, 43.476084320278829 ], [ 6.572343972369889, 43.475994443833912 ], [ 6.572220556063487, 43.475998512643564 ], [ 6.572226143173559, 43.476088389095125 ] ], [ [ 6.575558382511744, 43.475978481753124 ], [ 6.575681798538863, 43.475974409144378 ], [ 6.57567620603878, 43.475884532878382 ], [ 6.57579962185592, 43.475880460135784 ], [ 6.575794029180821, 43.475790583881967 ], [ 6.575917444787978, 43.475786511005545 ], [ 6.575923037655576, 43.475876387252725 ], [ 6.576046453437749, 43.4758723142292 ], [ 6.576040860377654, 43.475782437988649 ], [ 6.576164275949846, 43.475778364831307 ], [ 6.576147496296968, 43.475508736162972 ], [ 6.575900666290085, 43.475516882297427 ], [ 6.575906259105233, 43.47560675852791 ], [ 6.575782843883071, 43.475610831391087 ], [ 6.575788436523205, 43.475700707633742 ], [ 6.575541605641439, 43.475708852951946 ], [ 6.575558382511744, 43.475978481753124 ] ], [ [ 6.580618425282145, 43.475811389615195 ], [ 6.580988671159241, 43.47579915409078 ], [ 6.580983070381769, 43.475709278110102 ], [ 6.580612825082159, 43.475721513614616 ], [ 6.580618425282145, 43.475811389615195 ] ], [ [ 6.577897688071986, 43.475811202020992 ], [ 6.578021103574351, 43.475807126750091 ], [ 6.578015507434292, 43.475717250615681 ], [ 6.577892092124423, 43.475721325879952 ], [ 6.577897688071986, 43.475811202020992 ] ], [ [ 6.573942792975914, 43.475851660173007 ], [ 6.574683287929769, 43.475827233449053 ], [ 6.574660924334103, 43.475467728250827 ], [ 6.574784339328589, 43.47546365666507 ], [ 6.574778748280869, 43.475373780386057 ], [ 6.574655333478878, 43.475377851965206 ], [ 6.57464974264113, 43.47528797568512 ], [ 6.574526328014159, 43.475292047117158 ], [ 6.574520737386384, 43.47520217083602 ], [ 6.574890980637379, 43.475189956138387 ], [ 6.574879798279288, 43.475010203632593 ], [ 6.574756384264754, 43.475014275325663 ], [ 6.574745202361557, 43.474834522828864 ], [ 6.574498375050031, 43.474842665767099 ], [ 6.574492784509633, 43.474752789513815 ], [ 6.573999130446851, 43.474769073678281 ], [ 6.574004720217281, 43.474858949958104 ], [ 6.574128133951679, 43.474854879121047 ], [ 6.574133723932075, 43.474944755399811 ], [ 6.573886896060818, 43.474952896946718 ], [ 6.573914844299955, 43.475402278490286 ], [ 6.573297769503676, 43.475422630065225 ], [ 6.573303358241436, 43.475512506423748 ], [ 6.573426773428132, 43.475508436383073 ], [ 6.57343236237586, 43.475598312740559 ], [ 6.573555777737583, 43.475594242552795 ], [ 6.573550188597356, 43.475504366201925 ], [ 6.573673603749111, 43.475500295880302 ], [ 6.573679193081835, 43.47559017222455 ], [ 6.57392602371792, 43.475582031146693 ], [ 6.573931613453111, 43.475671907483239 ], [ 6.574055028937444, 43.475667836726991 ], [ 6.574060618882608, 43.475757713062478 ], [ 6.573937203205777, 43.475761783825341 ], [ 6.573942792975914, 43.475851660173007 ] ], [ [ 6.574806703694246, 43.475823161836793 ], [ 6.575176950882809, 43.475810946157203 ], [ 6.575171359187684, 43.47572106987581 ], [ 6.574801112576615, 43.475733285535526 ], [ 6.574806703694246, 43.475823161836793 ] ], [ [ 6.575300366577372, 43.475806873983061 ], [ 6.575423782254456, 43.475802801668486 ], [ 6.575418190174334, 43.475712925400366 ], [ 6.575294774689748, 43.475716997708318 ], [ 6.575300366577372, 43.475806873983061 ] ], [ [ 6.579984550810202, 43.475562151262046 ], [ 6.580107965630111, 43.475558073616597 ], [ 6.580102366252619, 43.475468197606141 ], [ 6.580349195454937, 43.47546004190712 ], [ 6.580354795217416, 43.475549917904281 ], [ 6.580478209984814, 43.475545839837451 ], [ 6.58046701009237, 43.475366087861943 ], [ 6.579973352457711, 43.475382399233439 ], [ 6.579984550810202, 43.475562151262046 ] ], [ [ 6.57516017584987, 43.475541317329736 ], [ 6.575283590966941, 43.475537245175502 ], [ 6.575277999131755, 43.475447368917429 ], [ 6.575401414038848, 43.475443296629365 ], [ 6.575395822028647, 43.475353420383492 ], [ 6.575025577832416, 43.475365636806423 ], [ 6.575031169265128, 43.475455513072177 ], [ 6.575154584207181, 43.47545144106504 ], [ 6.57516017584987, 43.475541317329736 ] ], [ [ 6.585644790334706, 43.475104807077308 ], [ 6.585768203771377, 43.475100722990653 ], [ 6.585756987429791, 43.474920971619959 ], [ 6.585633574378098, 43.474925055693312 ], [ 6.585644790334706, 43.475104807077308 ] ], [ [ 6.580208982257594, 43.475194491848796 ], [ 6.580332396272522, 43.475190413948987 ], [ 6.5803211969051, 43.475010662004721 ], [ 6.579950955962758, 43.475022895242986 ], [ 6.579956555060243, 43.475112771232247 ], [ 6.580203382757623, 43.475104615867252 ], [ 6.580208982257594, 43.475194491848796 ] ], [ [ 6.582924086541642, 43.475104745606622 ], [ 6.583047500171341, 43.475100664616711 ], [ 6.583041896244077, 43.47501078878792 ], [ 6.582918482806866, 43.475014869771201 ], [ 6.582924086541642, 43.475104745606622 ] ], [ [ 6.584158222050294, 43.475063929386799 ], [ 6.584281635504794, 43.475059846992288 ], [ 6.584276029652632, 43.474969971229946 ], [ 6.58415261639062, 43.474974053617807 ], [ 6.584158222050294, 43.475063929386799 ] ], [ [ 6.586749900914134, 43.474978169606068 ], [ 6.586996727069372, 43.474969998777361 ], [ 6.586991116982465, 43.474880123161299 ], [ 6.586867704106101, 43.474884208639224 ], [ 6.586862094229218, 43.474794333022096 ], [ 6.586615268808857, 43.474802503543259 ], [ 6.586620878300766, 43.474892379173696 ], [ 6.586744291212201, 43.474888293976711 ], [ 6.586749900914134, 43.474978169606068 ] ], [ [ 6.58045021038499, 43.475096459940424 ], [ 6.580573624172418, 43.475092381766316 ], [ 6.580568024112476, 43.475002505810252 ], [ 6.58044461051754, 43.475006583977724 ], [ 6.58045021038499, 43.475096459940424 ] ], [ [ 6.584276029652632, 43.474969971229946 ], [ 6.58439944289712, 43.474965888701632 ], [ 6.584388230860388, 43.474786137206969 ], [ 6.584264818000877, 43.474790219721996 ], [ 6.584276029652632, 43.474969971229946 ] ], [ [ 6.583036292334328, 43.474920912964691 ], [ 6.583406531963384, 43.474908669192047 ], [ 6.583395323041509, 43.474728917602171 ], [ 6.583271910234317, 43.47473299898688 ], [ 6.583277514494008, 43.474822874785687 ], [ 6.583030688442097, 43.474831037147027 ], [ 6.583036292334328, 43.474920912964691 ] ], [ [ 6.583900184556859, 43.474892342195446 ], [ 6.584023597661425, 43.474888260095156 ], [ 6.584017992229286, 43.474798384330654 ], [ 6.584141405123842, 43.474794302096541 ], [ 6.584135799516736, 43.474704426344253 ], [ 6.583888974095077, 43.474712590658712 ], [ 6.583900184556859, 43.474892342195446 ] ], [ [ 6.586368443318359, 43.474810673502603 ], [ 6.586615268808857, 43.474802503543259 ], [ 6.586609659334481, 43.474712627918379 ], [ 6.586362834228957, 43.474720797864414 ], [ 6.586368443318359, 43.474810673502603 ] ], [ [ 6.575255631965811, 43.475087863940836 ], [ 6.575379046102924, 43.475083791679296 ], [ 6.575373454162643, 43.474993915455691 ], [ 6.575250040218023, 43.474997987710609 ], [ 6.575255631965811, 43.475087863940836 ] ], [ [ 6.586104791697039, 43.474549215962348 ], [ 6.586351616102752, 43.474541046604728 ], [ 6.586346007065949, 43.474451170983265 ], [ 6.586222595064344, 43.474455255725637 ], [ 6.586216986237559, 43.474365380103094 ], [ 6.586093574410905, 43.474369464698341 ], [ 6.586104791697039, 43.474549215962348 ] ], [ [ 6.58647502827931, 43.474536961715266 ], [ 6.586598440438334, 43.474532876685295 ], [ 6.586592831016562, 43.474443001077113 ], [ 6.586469419050022, 43.474447086100419 ], [ 6.58647502827931, 43.474536961715266 ] ], [ [ 6.584124588355091, 43.474524674856355 ], [ 6.584248000654665, 43.47452059250174 ], [ 6.58424239490764, 43.474430716772794 ], [ 6.584118982800551, 43.474434799120786 ], [ 6.584124588355091, 43.474524674856355 ] ], [ [ 6.585728946882604, 43.474471593290616 ], [ 6.585852358954336, 43.474467509110056 ], [ 6.58582992606219, 43.474108006573374 ], [ 6.585706514760393, 43.474112090727338 ], [ 6.585728946882604, 43.474471593290616 ] ], [ [ 6.59140588402906, 43.47428357561293 ], [ 6.591529295293768, 43.474279484971412 ], [ 6.59151806110425, 43.474099734304168 ], [ 6.591271239327201, 43.47410791542012 ], [ 6.59127685602822, 43.474197790764279 ], [ 6.591400267118003, 43.474193700269879 ], [ 6.59140588402906, 43.47428357561293 ] ], [ [ 6.573628889716297, 43.474781285326841 ], [ 6.57375230331062, 43.474777214917772 ], [ 6.573746713942648, 43.474687338630268 ], [ 6.573623300540817, 43.474691409032708 ], [ 6.573628889716297, 43.474781285326841 ] ], [ [ 6.576590811156649, 43.474683556742832 ], [ 6.576714224331485, 43.474679482962756 ], [ 6.576708630343727, 43.474589606834364 ], [ 6.576585217361379, 43.474593680607796 ], [ 6.576590811156649, 43.474683556742832 ] ], [ [ 6.586216986237559, 43.474365380103094 ], [ 6.58634039804668, 43.474361295367345 ], [ 6.586334789044943, 43.474271419756981 ], [ 6.586211377428306, 43.474275504486066 ], [ 6.586216986237559, 43.474365380103094 ] ], [ [ 6.58053442412043, 43.474463250190723 ], [ 6.580657836542925, 43.474459171922632 ], [ 6.580652236413032, 43.474369296012171 ], [ 6.580528824183022, 43.474373374273625 ], [ 6.58053442412043, 43.474463250190723 ] ], [ [ 6.581151486057855, 43.47444285744573 ], [ 6.581274898392819, 43.474438778475346 ], [ 6.581269297300492, 43.474348902598088 ], [ 6.581145885158014, 43.474352981561836 ], [ 6.581151486057855, 43.47444285744573 ] ], [ [ 6.583866553381764, 43.474353087652048 ], [ 6.584113377263535, 43.474344923390746 ], [ 6.584102166242067, 43.474165171947405 ], [ 6.583855343130233, 43.474173336182105 ], [ 6.583866553381764, 43.474353087652048 ] ], [ [ 6.585218476612245, 43.474218301597709 ], [ 6.585341888176639, 43.474214217998913 ], [ 6.58533628074983, 43.474124342346485 ], [ 6.585212869377919, 43.474128425938645 ], [ 6.585218476612245, 43.474218301597709 ] ], [ [ 6.574599425887823, 43.474479089414906 ], [ 6.574722838764883, 43.474475017902073 ], [ 6.574717247909406, 43.47438514168428 ], [ 6.574593835224835, 43.474389213190484 ], [ 6.574599425887823, 43.474479089414906 ] ], [ [ 6.584090955290685, 43.473985420526319 ], [ 6.584214366435353, 43.473981338211566 ], [ 6.584208760793464, 43.473891462516029 ], [ 6.584332171728127, 43.47388738006746 ], [ 6.584315354330148, 43.473617753034198 ], [ 6.584191943972925, 43.473621835462808 ], [ 6.58419754956225, 43.473711711141654 ], [ 6.583950728410281, 43.47371987559081 ], [ 6.583956333632165, 43.473809751288506 ], [ 6.584079744409391, 43.473805669127508 ], [ 6.584090955290685, 43.473985420526319 ] ], [ [ 6.591860205584431, 43.473638085106032 ], [ 6.59198361543155, 43.473633993949321 ], [ 6.591977997681011, 43.473544118678525 ], [ 6.591854588026368, 43.473548209828579 ], [ 6.591860205584431, 43.473638085106032 ] ], [ [ 6.574694884662255, 43.474025636868852 ], [ 6.574818296559398, 43.474021565248698 ], [ 6.574812705598813, 43.473931689065388 ], [ 6.574689293894158, 43.473935760678913 ], [ 6.574694884662255, 43.474025636868852 ] ], [ [ 6.584786569552152, 43.47324191938845 ], [ 6.585033388534006, 43.473233753039409 ], [ 6.585022174853423, 43.473054001836026 ], [ 6.584775356641475, 43.473062168158492 ], [ 6.584786569552152, 43.47324191938845 ] ], [ [ 6.585274600211749, 43.473135710537363 ], [ 6.585398009448857, 43.473131626877901 ], [ 6.5853924020399, 43.47304175129895 ], [ 6.585268992995267, 43.473045834951769 ], [ 6.585274600211749, 43.473135710537363 ] ], [ [ 6.589823887345339, 43.472714895594095 ], [ 6.590194111325016, 43.472702628664045 ], [ 6.590188496462215, 43.472612753361275 ], [ 6.58981827305995, 43.472625020271366 ], [ 6.589823887345339, 43.472714895594095 ] ], [ [ 6.577353993120557, 43.473037268590026 ], [ 6.577477402708259, 43.473033193946172 ], [ 6.577471807687881, 43.472943317964457 ], [ 6.57734839829266, 43.472947392601689 ], [ 6.577353993120557, 43.473037268590026 ] ], [ [ 6.59128793258381, 43.472396194577676 ], [ 6.591534747011722, 43.472388013433893 ], [ 6.591529130084417, 43.472298138221085 ], [ 6.591282316041442, 43.472306319351567 ], [ 6.59128793258381, 43.472396194577676 ] ], [ [ 6.585358757954232, 43.472502497942216 ], [ 6.585482165826495, 43.472498414188841 ], [ 6.585470950886545, 43.472318663127766 ], [ 6.585347543399226, 43.472322746867846 ], [ 6.585358757954232, 43.472502497942216 ] ], [ [ 6.585605573681231, 43.472494330295 ], [ 6.585728981518438, 43.472490246260747 ], [ 6.585717765808604, 43.47231049522626 ], [ 6.585594358356339, 43.472314579247232 ], [ 6.585605573681231, 43.472494330295 ] ], [ [ 6.585852389338116, 43.472486162086 ], [ 6.585975797140265, 43.472482077770827 ], [ 6.585970188891642, 43.472392202264118 ], [ 6.585846781281964, 43.472396286572639 ], [ 6.585852389338116, 43.472486162086 ] ], [ [ 6.589801430309077, 43.472355394336546 ], [ 6.589924837549972, 43.472351305526921 ], [ 6.589919223142308, 43.472261430233132 ], [ 6.589795816093882, 43.472265519036085 ], [ 6.589801430309077, 43.472355394336546 ] ], [ [ 6.590048244773317, 43.472347216576885 ], [ 6.590171651979113, 43.472343127486376 ], [ 6.590166037186513, 43.472253252205874 ], [ 6.590042630173185, 43.472257341289726 ], [ 6.590048244773317, 43.472347216576885 ] ], [ [ 6.587204264024179, 43.472351351453987 ], [ 6.587451078840276, 43.472343179606575 ], [ 6.587445468299539, 43.47225330418523 ], [ 6.587198653868382, 43.472261476019348 ], [ 6.587204264024179, 43.472351351453987 ] ], [ [ 6.588561744644561, 43.47230639934083 ], [ 6.588685151868443, 43.472302311942379 ], [ 6.588679539403014, 43.472212436587569 ], [ 6.588556132371599, 43.472216523979341 ], [ 6.588561744644561, 43.47230639934083 ] ], [ [ 6.589549001944387, 43.472273696220633 ], [ 6.589672409027908, 43.472269607698586 ], [ 6.5896611810351, 43.472089857101047 ], [ 6.589414367620381, 43.472098033978071 ], [ 6.589419981223075, 43.472187909287356 ], [ 6.589543388131676, 43.472183820912406 ], [ 6.589549001944387, 43.472273696220633 ] ], [ [ 6.589913608752194, 43.472171554944872 ], [ 6.590160422411462, 43.472163376930951 ], [ 6.590149192914013, 43.471983626397815 ], [ 6.590025786478088, 43.471987715461701 ], [ 6.590031401025571, 43.472077590732134 ], [ 6.589907994379629, 43.47208167966221 ], [ 6.589913608752194, 43.472171554944872 ] ], [ [ 6.59127108300937, 43.472126568915968 ], [ 6.591764709485356, 43.472110206146517 ], [ 6.591753474983778, 43.471930455786513 ], [ 6.59138325630792, 43.471942728034335 ], [ 6.591388872972533, 43.472032603231519 ], [ 6.591265466519668, 43.472036693706549 ], [ 6.59127108300937, 43.472126568915968 ] ], [ [ 6.585341936148013, 43.472232871339038 ], [ 6.585465343442864, 43.472228787605601 ], [ 6.585459736016706, 43.472138912089008 ], [ 6.585336328914327, 43.47214299581578 ], [ 6.585341936148013, 43.472232871339038 ] ], [ [ 6.585958972446982, 43.472212451267382 ], [ 6.58608237965419, 43.472208366831715 ], [ 6.586065554541268, 43.471938740398357 ], [ 6.585695334599278, 43.471950993224212 ], [ 6.585700942375317, 43.47204086871637 ], [ 6.585577535500462, 43.47204495271739 ], [ 6.585583143101559, 43.472134828221769 ], [ 6.585953364250948, 43.472122575777377 ], [ 6.585958972446982, 43.472212451267382 ] ], [ [ 6.586822822529276, 43.472183857268149 ], [ 6.586946229613759, 43.472179771849319 ], [ 6.586918181110163, 43.471730394721064 ], [ 6.586794774988019, 43.471734480106633 ], [ 6.586789165532367, 43.471644604691036 ], [ 6.586665759585155, 43.471648689929523 ], [ 6.58667136884834, 43.471738565351771 ], [ 6.58654796269113, 43.471742650456441 ], [ 6.586553571779381, 43.471832525890882 ], [ 6.586676978129058, 43.471828440779568 ], [ 6.586688196743093, 43.472008191651909 ], [ 6.586811603460172, 43.472004106386827 ], [ 6.586822822529276, 43.472183857268149 ] ], [ [ 6.582497960723466, 43.472236882767298 ], [ 6.582621368228806, 43.472232802270895 ], [ 6.582615765246992, 43.472142926607006 ], [ 6.582492357934123, 43.472147007096773 ], [ 6.582497960723466, 43.472236882767298 ] ], [ [ 6.585437306487354, 43.471779410078341 ], [ 6.585684119099786, 43.471771242256615 ], [ 6.58567851137633, 43.471681366781162 ], [ 6.585925323533716, 43.471673198410947 ], [ 6.585930931642104, 43.471763073873099 ], [ 6.586177744114306, 43.471754904927785 ], [ 6.586166527145195, 43.471575154035662 ], [ 6.585796309565395, 43.471587407203053 ], [ 6.585790701684531, 43.471497531745406 ], [ 6.585914107369529, 43.471493447503384 ], [ 6.585908499313729, 43.471403572057959 ], [ 6.585785093821195, 43.471407656293351 ], [ 6.585779485975388, 43.471317780846846 ], [ 6.585409269970016, 43.471330032690375 ], [ 6.58541487723843, 43.471419908156811 ], [ 6.585291471675788, 43.471423991830413 ], [ 6.585308293008793, 43.471693618283133 ], [ 6.585431699148832, 43.471689534589586 ], [ 6.585437306487354, 43.471779410078341 ] ], [ [ 6.586295541638325, 43.471660944802252 ], [ 6.586418947638133, 43.471656859985124 ], [ 6.586413338777412, 43.471566984555153 ], [ 6.586289932970069, 43.471571069365638 ], [ 6.586295541638325, 43.471660944802252 ] ], [ [ 6.593329655629487, 43.471427886069876 ], [ 6.593823275522301, 43.471411513936459 ], [ 6.593817655113794, 43.471321638905927 ], [ 6.593324035990825, 43.471338011012691 ], [ 6.593329655629487, 43.471427886069876 ] ], [ [ 6.585055873932541, 43.471611909745739 ], [ 6.585179279915166, 43.471607826339742 ], [ 6.58517367299663, 43.47151795084887 ], [ 6.585050267206471, 43.471522034248217 ], [ 6.585055873932541, 43.471611909745739 ] ], [ [ 6.586284324319345, 43.471481193934594 ], [ 6.586407729934223, 43.471477109130753 ], [ 6.586402121108564, 43.471387233711937 ], [ 6.58627871568615, 43.471391318509113 ], [ 6.586284324319345, 43.471481193934594 ] ], [ [ 6.585044660497925, 43.471432158756237 ], [ 6.585168066095619, 43.471428075363541 ], [ 6.585162459212135, 43.471338199883796 ], [ 6.585039053806905, 43.471342283269841 ], [ 6.585044660497925, 43.471432158756237 ] ], [ [ 6.584893222565166, 43.470986864599027 ], [ 6.585016627218066, 43.470982781380016 ], [ 6.58501102061467, 43.470892905921488 ], [ 6.58488761615423, 43.470896989133855 ], [ 6.584893222565166, 43.470986864599027 ] ] ] } }
]
}
