{
"type": "FeatureCollection",
"name": "commune",
"crs": { "type": "name", "properties": { "name": "urn:ogc:def:crs:OGC:1.3:CRS84" } },
"features": [
{ "type": "Feature", "properties": { "nom": "Le Muy", "code": "83086", "surface": 6689.13, "_score": 0.090788394288405863 }, "geometry": { "type": "Polygon", "coordinates": [ [ [ 6.542648, 43.397096 ], [ 6.54309, 43.397483 ], [ 6.543197, 43.397535 ], [ 6.543331, 43.397679 ], [ 6.543705, 43.397893 ], [ 6.544294, 43.398287 ], [ 6.544392, 43.398411 ], [ 6.544634, 43.398615 ], [ 6.545084, 43.399119 ], [ 6.545294, 43.399301 ], [ 6.545471, 43.399363 ], [ 6.545383, 43.399454 ], [ 6.54511, 43.399826 ], [ 6.545053, 43.399848 ], [ 6.543746, 43.401695 ], [ 6.538462, 43.40428 ], [ 6.537212, 43.404849 ], [ 6.536959, 43.406367 ], [ 6.537112, 43.40655 ], [ 6.536673, 43.407621 ], [ 6.536489, 43.407722 ], [ 6.537481, 43.409664 ], [ 6.536877, 43.410708 ], [ 6.536796, 43.411399 ], [ 6.536633, 43.412021 ], [ 6.536492, 43.412653 ], [ 6.53644, 43.41305 ], [ 6.536436, 43.413242 ], [ 6.536373, 43.41353 ], [ 6.536246, 43.413771 ], [ 6.536156, 43.413855 ], [ 6.536048, 43.414045 ], [ 6.535597, 43.414506 ], [ 6.535198, 43.41451 ], [ 6.534291, 43.415204 ], [ 6.533937, 43.415371 ], [ 6.533481, 43.415538 ], [ 6.533097, 43.415777 ], [ 6.532828, 43.416145 ], [ 6.53273, 43.416363 ], [ 6.532672, 43.416608 ], [ 6.532673, 43.416819 ], [ 6.532773, 43.417201 ], [ 6.532914, 43.417581 ], [ 6.532963, 43.418127 ], [ 6.533096, 43.418518 ], [ 6.533096, 43.418948 ], [ 6.533308, 43.419087 ], [ 6.533396, 43.419215 ], [ 6.533179, 43.419625 ], [ 6.53316, 43.419756 ], [ 6.5337, 43.420084 ], [ 6.533852, 43.420144 ], [ 6.534042, 43.420455 ], [ 6.534031, 43.420588 ], [ 6.533939, 43.420915 ], [ 6.533967, 43.421126 ], [ 6.534074, 43.42146 ], [ 6.534489, 43.421871 ], [ 6.534678, 43.421967 ], [ 6.534823, 43.423039 ], [ 6.534944, 43.423848 ], [ 6.534953, 43.424114 ], [ 6.534851, 43.424417 ], [ 6.534564, 43.424662 ], [ 6.534434, 43.424952 ], [ 6.534497, 43.425095 ], [ 6.534535, 43.425384 ], [ 6.534387, 43.425751 ], [ 6.534228, 43.425967 ], [ 6.53418, 43.426108 ], [ 6.534305, 43.426371 ], [ 6.534652, 43.426817 ], [ 6.534853, 43.426991 ], [ 6.535024, 43.427092 ], [ 6.53549, 43.427275 ], [ 6.535844, 43.427474 ], [ 6.536137, 43.427727 ], [ 6.536395, 43.42811 ], [ 6.536504, 43.42824 ], [ 6.536953, 43.428526 ], [ 6.537374, 43.428834 ], [ 6.537794, 43.429121 ], [ 6.537887, 43.429244 ], [ 6.537916, 43.42954 ], [ 6.537986, 43.429763 ], [ 6.537665, 43.430112 ], [ 6.53674, 43.430827 ], [ 6.536333, 43.431104 ], [ 6.535984, 43.431397 ], [ 6.535728, 43.431653 ], [ 6.536059, 43.431976 ], [ 6.536246, 43.432195 ], [ 6.536488, 43.432408 ], [ 6.536663, 43.43265 ], [ 6.536753, 43.432828 ], [ 6.536932, 43.43337 ], [ 6.537529, 43.437672 ], [ 6.537489, 43.437836 ], [ 6.53753, 43.438225 ], [ 6.537623, 43.438519 ], [ 6.53766, 43.439217 ], [ 6.537697, 43.439446 ], [ 6.537774, 43.439653 ], [ 6.53759, 43.439848 ], [ 6.538165, 43.441429 ], [ 6.53835, 43.443109 ], [ 6.53841, 43.443547 ], [ 6.538381, 43.443814 ], [ 6.538444, 43.44386 ], [ 6.538132, 43.444266 ], [ 6.536913, 43.44475 ], [ 6.536328, 43.44595 ], [ 6.535522, 43.446673 ], [ 6.535227, 43.447295 ], [ 6.535025, 43.44743 ], [ 6.534692, 43.447482 ], [ 6.531578, 43.447697 ], [ 6.529503, 43.449563 ], [ 6.52848, 43.450267 ], [ 6.527365, 43.450499 ], [ 6.527434, 43.451879 ], [ 6.528613, 43.455641 ], [ 6.528471, 43.456169 ], [ 6.528391, 43.456375 ], [ 6.528477, 43.456614 ], [ 6.528464, 43.456744 ], [ 6.528527, 43.457135 ], [ 6.528463, 43.457224 ], [ 6.528526, 43.457573 ], [ 6.528651, 43.458023 ], [ 6.528889, 43.459005 ], [ 6.52928, 43.460337 ], [ 6.529321, 43.462033 ], [ 6.529741, 43.462198 ], [ 6.529556, 43.462642 ], [ 6.529341, 43.463327 ], [ 6.529327, 43.463706 ], [ 6.529369, 43.464125 ], [ 6.529475, 43.464599 ], [ 6.529575, 43.464959 ], [ 6.529223, 43.465689 ], [ 6.529059, 43.466059 ], [ 6.528637, 43.467165 ], [ 6.528631, 43.467732 ], [ 6.528574, 43.467849 ], [ 6.528331, 43.468205 ], [ 6.528182, 43.468512 ], [ 6.527992, 43.469087 ], [ 6.527888, 43.469309 ], [ 6.527662, 43.469539 ], [ 6.527515, 43.469861 ], [ 6.527359, 43.470133 ], [ 6.527231, 43.470405 ], [ 6.527008, 43.470705 ], [ 6.526726, 43.47129 ], [ 6.526644, 43.471517 ], [ 6.52428, 43.475849 ], [ 6.523647, 43.476113 ], [ 6.522419, 43.476919 ], [ 6.521415, 43.479591 ], [ 6.521538, 43.480075 ], [ 6.522093, 43.480023 ], [ 6.522209, 43.479991 ], [ 6.522827, 43.479963 ], [ 6.523568, 43.479908 ], [ 6.524855, 43.479861 ], [ 6.525402, 43.479819 ], [ 6.525726, 43.479773 ], [ 6.526203, 43.47968 ], [ 6.526863, 43.47953 ], [ 6.527186, 43.479433 ], [ 6.527622, 43.479345 ], [ 6.528881, 43.47916 ], [ 6.52941, 43.479027 ], [ 6.530954, 43.480253 ], [ 6.531344, 43.480734 ], [ 6.531798, 43.481189 ], [ 6.532097, 43.481466 ], [ 6.532228, 43.481414 ], [ 6.532442, 43.48141 ], [ 6.532484, 43.481579 ], [ 6.533409, 43.482401 ], [ 6.535475, 43.482446 ], [ 6.5357, 43.482355 ], [ 6.53574, 43.482409 ], [ 6.537404, 43.483084 ], [ 6.538841, 43.483465 ], [ 6.539345, 43.483615 ], [ 6.54027, 43.48386 ], [ 6.541773, 43.484161 ], [ 6.541827, 43.484216 ], [ 6.542429, 43.484362 ], [ 6.542471, 43.484446 ], [ 6.542819, 43.484539 ], [ 6.543494, 43.485229 ], [ 6.543667, 43.485294 ], [ 6.543869, 43.485315 ], [ 6.544228, 43.485174 ], [ 6.544309, 43.485349 ], [ 6.544453, 43.485471 ], [ 6.544939, 43.485822 ], [ 6.545101, 43.48579 ], [ 6.546501, 43.485434 ], [ 6.547263, 43.485208 ], [ 6.547653, 43.485116 ], [ 6.547783, 43.485226 ], [ 6.548545, 43.48542 ], [ 6.549172, 43.485628 ], [ 6.549105, 43.485818 ], [ 6.549047, 43.486102 ], [ 6.549257, 43.486131 ], [ 6.549845, 43.486151 ], [ 6.550444, 43.486137 ], [ 6.550575, 43.486154 ], [ 6.551063, 43.486823 ], [ 6.551318, 43.486887 ], [ 6.551503, 43.486898 ], [ 6.551708, 43.487553 ], [ 6.551476, 43.487996 ], [ 6.552052, 43.488053 ], [ 6.55226, 43.488047 ], [ 6.552863, 43.487982 ], [ 6.553207, 43.487883 ], [ 6.553664, 43.487693 ], [ 6.554232, 43.487396 ], [ 6.554567, 43.487275 ], [ 6.554895, 43.487234 ], [ 6.555273, 43.487279 ], [ 6.555723, 43.487383 ], [ 6.555925, 43.4874 ], [ 6.556605, 43.487382 ], [ 6.55694, 43.487308 ], [ 6.55777, 43.488052 ], [ 6.55746, 43.488178 ], [ 6.558008, 43.488614 ], [ 6.558598, 43.48829 ], [ 6.559024, 43.488446 ], [ 6.559871, 43.488349 ], [ 6.560512, 43.488266 ], [ 6.560814, 43.488208 ], [ 6.560799, 43.488343 ], [ 6.56097, 43.488358 ], [ 6.562594, 43.488581 ], [ 6.563185, 43.488673 ], [ 6.563682, 43.488719 ], [ 6.563863, 43.488658 ], [ 6.564837, 43.488447 ], [ 6.56518, 43.488529 ], [ 6.565489, 43.488772 ], [ 6.565626, 43.488758 ], [ 6.566065, 43.488642 ], [ 6.566246, 43.488636 ], [ 6.566551, 43.4887 ], [ 6.566776, 43.488787 ], [ 6.566974, 43.488908 ], [ 6.567208, 43.489005 ], [ 6.567432, 43.48916 ], [ 6.567901, 43.489075 ], [ 6.568253, 43.489076 ], [ 6.568867, 43.488988 ], [ 6.569092, 43.488852 ], [ 6.569528, 43.488395 ], [ 6.569592, 43.488355 ], [ 6.570675, 43.488966 ], [ 6.571196, 43.489223 ], [ 6.571267, 43.489197 ], [ 6.571603, 43.489236 ], [ 6.571918, 43.489392 ], [ 6.572103, 43.489553 ], [ 6.572377, 43.48991 ], [ 6.57261, 43.490039 ], [ 6.573442, 43.490331 ], [ 6.573654, 43.490635 ], [ 6.573825, 43.490985 ], [ 6.574738, 43.491483 ], [ 6.574974, 43.491496 ], [ 6.575481, 43.491572 ], [ 6.575625, 43.490889 ], [ 6.575854, 43.490964 ], [ 6.57618, 43.491115 ], [ 6.576719, 43.491089 ], [ 6.577183, 43.491032 ], [ 6.577834, 43.490999 ], [ 6.578798, 43.491006 ], [ 6.579992, 43.491052 ], [ 6.580581, 43.491141 ], [ 6.581059, 43.491243 ], [ 6.581444, 43.491196 ], [ 6.581988, 43.491097 ], [ 6.582236, 43.491102 ], [ 6.583231, 43.491208 ], [ 6.583495, 43.491168 ], [ 6.584172, 43.490894 ], [ 6.585728, 43.490248 ], [ 6.586455, 43.489931 ], [ 6.58747, 43.489524 ], [ 6.58892, 43.488888 ], [ 6.590597, 43.488233 ], [ 6.590786, 43.488139 ], [ 6.590934, 43.488138 ], [ 6.590997, 43.488206 ], [ 6.591108, 43.488608 ], [ 6.591427, 43.48913 ], [ 6.591531, 43.489221 ], [ 6.591733, 43.489237 ], [ 6.592147, 43.48952 ], [ 6.592122, 43.48966 ], [ 6.591548, 43.490116 ], [ 6.591129, 43.490358 ], [ 6.590834, 43.490555 ], [ 6.589754, 43.491466 ], [ 6.58952, 43.491701 ], [ 6.589267, 43.492057 ], [ 6.589272, 43.492492 ], [ 6.589456, 43.492818 ], [ 6.589873, 43.493004 ], [ 6.590493, 43.493158 ], [ 6.591372, 43.49329 ], [ 6.591769, 43.493388 ], [ 6.592313, 43.49357 ], [ 6.592551, 43.493628 ], [ 6.593624, 43.493853 ], [ 6.594056, 43.493973 ], [ 6.59417, 43.494025 ], [ 6.59435, 43.49418 ], [ 6.594525, 43.494471 ], [ 6.594528, 43.494694 ], [ 6.594463, 43.494909 ], [ 6.594421, 43.495197 ], [ 6.594323, 43.495392 ], [ 6.594166, 43.495612 ], [ 6.594178, 43.495808 ], [ 6.594412, 43.49602 ], [ 6.594299, 43.496331 ], [ 6.594126, 43.496594 ], [ 6.593877, 43.496851 ], [ 6.593688, 43.496987 ], [ 6.593318, 43.497208 ], [ 6.593099, 43.497294 ], [ 6.592472, 43.497437 ], [ 6.591474, 43.49771 ], [ 6.59128, 43.497798 ], [ 6.590931, 43.498092 ], [ 6.59033, 43.498251 ], [ 6.590038, 43.498474 ], [ 6.589801, 43.498603 ], [ 6.589777, 43.498697 ], [ 6.589834, 43.499208 ], [ 6.589931, 43.499449 ], [ 6.590098, 43.499707 ], [ 6.590155, 43.499865 ], [ 6.590319, 43.50049 ], [ 6.590275, 43.500735 ], [ 6.590288, 43.501066 ], [ 6.590272, 43.501321 ], [ 6.590211, 43.501426 ], [ 6.590009, 43.501591 ], [ 6.590262, 43.502229 ], [ 6.590613, 43.502734 ], [ 6.590887, 43.503189 ], [ 6.590994, 43.503513 ], [ 6.590811, 43.504068 ], [ 6.590338, 43.504379 ], [ 6.589617, 43.504678 ], [ 6.589447, 43.505213 ], [ 6.589302, 43.50562 ], [ 6.58909, 43.506369 ], [ 6.589006, 43.506889 ], [ 6.589317, 43.507828 ], [ 6.589255, 43.508453 ], [ 6.589247, 43.509255 ], [ 6.588804, 43.509587 ], [ 6.58841, 43.510254 ], [ 6.587534, 43.511307 ], [ 6.586959, 43.511854 ], [ 6.586581, 43.512542 ], [ 6.586222, 43.51307 ], [ 6.585809, 43.513412 ], [ 6.585862, 43.513546 ], [ 6.585811, 43.513706 ], [ 6.58557, 43.513879 ], [ 6.585461, 43.51404 ], [ 6.585339, 43.514303 ], [ 6.585013, 43.514478 ], [ 6.584822, 43.514513 ], [ 6.5847, 43.5147 ], [ 6.584681, 43.515043 ], [ 6.584744, 43.515316 ], [ 6.584939, 43.515924 ], [ 6.58514, 43.51633 ], [ 6.585293, 43.516719 ], [ 6.585385, 43.517111 ], [ 6.585269, 43.517429 ], [ 6.584964, 43.517722 ], [ 6.584629, 43.51796 ], [ 6.584271, 43.51818 ], [ 6.583874, 43.518375 ], [ 6.583369, 43.518518 ], [ 6.582428, 43.518549 ], [ 6.5816, 43.518668 ], [ 6.580993, 43.518816 ], [ 6.58052, 43.519009 ], [ 6.580364, 43.519089 ], [ 6.580045, 43.519376 ], [ 6.579688, 43.519856 ], [ 6.579602, 43.519948 ], [ 6.579304, 43.520175 ], [ 6.57911, 43.52029 ], [ 6.578398, 43.520554 ], [ 6.577987, 43.52075 ], [ 6.577546, 43.52112 ], [ 6.577295, 43.521433 ], [ 6.577019, 43.522244 ], [ 6.576779, 43.522735 ], [ 6.576581, 43.523224 ], [ 6.576575, 43.523433 ], [ 6.576647, 43.523715 ], [ 6.576786, 43.524405 ], [ 6.577031, 43.524847 ], [ 6.577148, 43.525118 ], [ 6.577303, 43.525559 ], [ 6.577345, 43.525775 ], [ 6.577557, 43.526102 ], [ 6.578074, 43.526573 ], [ 6.578196, 43.526703 ], [ 6.578587, 43.527001 ], [ 6.579222, 43.527449 ], [ 6.579623, 43.527856 ], [ 6.580036, 43.528421 ], [ 6.580364, 43.528827 ], [ 6.580845, 43.529289 ], [ 6.5812, 43.529371 ], [ 6.58158, 43.529382 ], [ 6.581973, 43.529421 ], [ 6.582123, 43.529475 ], [ 6.582285, 43.529294 ], [ 6.582431, 43.529043 ], [ 6.582276, 43.528878 ], [ 6.582228, 43.528739 ], [ 6.582358, 43.528672 ], [ 6.582951, 43.528877 ], [ 6.583166, 43.528644 ], [ 6.583869, 43.52805 ], [ 6.584712, 43.527854 ], [ 6.586328, 43.527937 ], [ 6.586653, 43.528229 ], [ 6.589696, 43.530125 ], [ 6.59078, 43.532429 ], [ 6.590964, 43.532695 ], [ 6.590988, 43.532918 ], [ 6.591186, 43.533056 ], [ 6.591323, 43.533249 ], [ 6.591475, 43.533394 ], [ 6.591539, 43.533538 ], [ 6.591611, 43.534037 ], [ 6.591595, 43.534198 ], [ 6.592008, 43.534801 ], [ 6.592439, 43.535177 ], [ 6.592842, 43.535364 ], [ 6.593556, 43.535657 ], [ 6.59368, 43.535949 ], [ 6.593655, 43.536215 ], [ 6.593505, 43.536357 ], [ 6.59349, 43.53659 ], [ 6.59354, 43.536905 ], [ 6.593489, 43.537229 ], [ 6.593333, 43.537553 ], [ 6.593338, 43.538154 ], [ 6.593437, 43.538494 ], [ 6.593652, 43.538888 ], [ 6.593774, 43.539222 ], [ 6.594077, 43.539888 ], [ 6.594233, 43.540072 ], [ 6.59454, 43.540347 ], [ 6.594767, 43.540498 ], [ 6.595097, 43.540655 ], [ 6.595376, 43.54071 ], [ 6.596206, 43.540766 ], [ 6.597931, 43.540731 ], [ 6.598305, 43.54116 ], [ 6.59883, 43.54166 ], [ 6.599565, 43.542058 ], [ 6.600059, 43.542249 ], [ 6.60025, 43.542125 ], [ 6.600528, 43.542016 ], [ 6.600831, 43.541822 ], [ 6.601087, 43.541725 ], [ 6.601972, 43.541578 ], [ 6.602235, 43.541414 ], [ 6.602394, 43.541423 ], [ 6.602464, 43.541328 ], [ 6.602782, 43.541295 ], [ 6.602883, 43.541152 ], [ 6.603073, 43.541019 ], [ 6.603379, 43.541058 ], [ 6.603565, 43.540983 ], [ 6.6036, 43.540858 ], [ 6.60391, 43.540797 ], [ 6.603923, 43.540715 ], [ 6.604077, 43.540658 ], [ 6.604303, 43.540643 ], [ 6.604367, 43.54057 ], [ 6.604658, 43.540559 ], [ 6.604931, 43.540435 ], [ 6.605205, 43.540429 ], [ 6.605428, 43.540324 ], [ 6.60573, 43.540249 ], [ 6.606818, 43.5401 ], [ 6.607573, 43.540065 ], [ 6.608042, 43.540175 ], [ 6.609682, 43.541078 ], [ 6.609748, 43.541125 ], [ 6.610519, 43.541236 ], [ 6.610727, 43.541236 ], [ 6.610999, 43.541172 ], [ 6.611627, 43.54108 ], [ 6.61186, 43.541103 ], [ 6.612204, 43.541072 ], [ 6.61239, 43.541097 ], [ 6.612887, 43.541033 ], [ 6.613064, 43.540935 ], [ 6.613323, 43.540912 ], [ 6.613551, 43.540936 ], [ 6.614481, 43.540842 ], [ 6.61481, 43.541018 ], [ 6.615392, 43.540991 ], [ 6.616237, 43.540572 ], [ 6.617013, 43.540462 ], [ 6.617898, 43.540221 ], [ 6.619095, 43.539654 ], [ 6.619929, 43.539531 ], [ 6.621712, 43.539514 ], [ 6.624201, 43.539399 ], [ 6.625892, 43.539301 ], [ 6.626231, 43.539395 ], [ 6.626449, 43.539387 ], [ 6.627066, 43.539282 ], [ 6.62759, 43.539342 ], [ 6.627963, 43.539306 ], [ 6.628462, 43.539211 ], [ 6.628661, 43.539209 ], [ 6.629043, 43.539137 ], [ 6.629675, 43.538974 ], [ 6.630222, 43.53872 ], [ 6.630534, 43.538691 ], [ 6.630824, 43.538635 ], [ 6.631519, 43.538355 ], [ 6.631891, 43.53817 ], [ 6.632162, 43.538061 ], [ 6.632552, 43.537873 ], [ 6.633024, 43.5376 ], [ 6.633572, 43.537262 ], [ 6.634311, 43.536786 ], [ 6.634472, 43.536653 ], [ 6.634555, 43.536525 ], [ 6.634782, 43.536412 ], [ 6.635055, 43.536348 ], [ 6.635671, 43.536036 ], [ 6.636016, 43.535877 ], [ 6.636273, 43.535732 ], [ 6.637028, 43.535492 ], [ 6.637418, 43.535435 ], [ 6.637708, 43.535371 ], [ 6.637977, 43.535351 ], [ 6.638279, 43.535284 ], [ 6.639386, 43.534759 ], [ 6.64029, 43.534394 ], [ 6.640287, 43.533947 ], [ 6.64058, 43.53285 ], [ 6.641047, 43.532576 ], [ 6.641127, 43.53256 ], [ 6.641365, 43.532393 ], [ 6.641615, 43.532166 ], [ 6.642029, 43.531606 ], [ 6.642314, 43.531327 ], [ 6.642629, 43.530941 ], [ 6.642649, 43.530862 ], [ 6.64359, 43.529412 ], [ 6.643722, 43.529192 ], [ 6.644007, 43.528822 ], [ 6.644422, 43.528343 ], [ 6.64442, 43.528216 ], [ 6.646483, 43.526714 ], [ 6.646953, 43.525727 ], [ 6.646886, 43.524416 ], [ 6.646507, 43.522753 ], [ 6.646126, 43.521841 ], [ 6.645539, 43.520712 ], [ 6.645272, 43.519807 ], [ 6.645304, 43.519031 ], [ 6.645516, 43.518837 ], [ 6.646402, 43.518315 ], [ 6.647314, 43.517992 ], [ 6.646906, 43.5179 ], [ 6.646567, 43.517372 ], [ 6.646317, 43.516666 ], [ 6.647273, 43.516188 ], [ 6.64727, 43.516063 ], [ 6.647057, 43.5156 ], [ 6.646968, 43.515457 ], [ 6.646831, 43.515348 ], [ 6.646504, 43.515299 ], [ 6.645851, 43.515379 ], [ 6.6458, 43.515372 ], [ 6.645668, 43.515098 ], [ 6.645536, 43.514927 ], [ 6.645012, 43.514732 ], [ 6.644812, 43.514731 ], [ 6.644535, 43.514678 ], [ 6.644202, 43.514697 ], [ 6.643854, 43.51478 ], [ 6.643396, 43.514943 ], [ 6.643145, 43.514989 ], [ 6.642813, 43.51508 ], [ 6.642361, 43.515112 ], [ 6.642123, 43.515208 ], [ 6.641935, 43.515323 ], [ 6.641642, 43.515562 ], [ 6.641475, 43.515725 ], [ 6.641098, 43.515818 ], [ 6.640703, 43.515866 ], [ 6.640321, 43.515966 ], [ 6.6401, 43.516053 ], [ 6.639852, 43.5162 ], [ 6.63965, 43.516373 ], [ 6.639502, 43.516418 ], [ 6.63922, 43.51661 ], [ 6.638768, 43.516837 ], [ 6.638481, 43.516928 ], [ 6.637994, 43.516963 ], [ 6.636659, 43.516495 ], [ 6.635251, 43.516102 ], [ 6.633664, 43.515927 ], [ 6.631764, 43.515764 ], [ 6.631089, 43.514837 ], [ 6.628145, 43.513197 ], [ 6.628039, 43.513327 ], [ 6.627736, 43.513488 ], [ 6.627475, 43.513525 ], [ 6.627046, 43.513652 ], [ 6.626734, 43.513647 ], [ 6.626629, 43.513611 ], [ 6.626467, 43.513449 ], [ 6.626046, 43.513206 ], [ 6.625241, 43.512891 ], [ 6.625018, 43.512779 ], [ 6.624871, 43.51264 ], [ 6.62478, 43.512413 ], [ 6.624716, 43.512165 ], [ 6.624598, 43.511975 ], [ 6.624388, 43.511795 ], [ 6.624316, 43.511666 ], [ 6.624229, 43.511295 ], [ 6.62383, 43.510945 ], [ 6.623222, 43.510314 ], [ 6.623245, 43.510236 ], [ 6.622981, 43.510159 ], [ 6.622225, 43.50975 ], [ 6.62196, 43.509551 ], [ 6.621699, 43.509418 ], [ 6.621391, 43.509358 ], [ 6.620916, 43.509345 ], [ 6.620728, 43.508818 ], [ 6.620184, 43.508235 ], [ 6.619214, 43.508045 ], [ 6.618702, 43.507981 ], [ 6.618451, 43.507814 ], [ 6.618, 43.507631 ], [ 6.617567, 43.507511 ], [ 6.617337, 43.506356 ], [ 6.61695, 43.506259 ], [ 6.616594, 43.506084 ], [ 6.61612, 43.505971 ], [ 6.615656, 43.505808 ], [ 6.615067, 43.505574 ], [ 6.614009, 43.505223 ], [ 6.613459, 43.505058 ], [ 6.612158, 43.504961 ], [ 6.611118, 43.504898 ], [ 6.610918, 43.504741 ], [ 6.609717, 43.503908 ], [ 6.609163, 43.50354 ], [ 6.608711, 43.502829 ], [ 6.608557, 43.502636 ], [ 6.608152, 43.502297 ], [ 6.607412, 43.501266 ], [ 6.606866, 43.500764 ], [ 6.606745, 43.49952 ], [ 6.606279, 43.498849 ], [ 6.606332, 43.498792 ], [ 6.606127, 43.498697 ], [ 6.605837, 43.498666 ], [ 6.605909, 43.498512 ], [ 6.606147, 43.497856 ], [ 6.606357, 43.4972 ], [ 6.606436, 43.496863 ], [ 6.606561, 43.496621 ], [ 6.606742, 43.49646 ], [ 6.607406, 43.496164 ], [ 6.607998, 43.495804 ], [ 6.60817, 43.495603 ], [ 6.60832, 43.495316 ], [ 6.608469, 43.494961 ], [ 6.608767, 43.494167 ], [ 6.608832, 43.493962 ], [ 6.609126, 43.492914 ], [ 6.609301, 43.492624 ], [ 6.609462, 43.492266 ], [ 6.609488, 43.49204 ], [ 6.609642, 43.491692 ], [ 6.60995, 43.491352 ], [ 6.610219, 43.490968 ], [ 6.610359, 43.490717 ], [ 6.610454, 43.490436 ], [ 6.610362, 43.490023 ], [ 6.610211, 43.48978 ], [ 6.609983, 43.489552 ], [ 6.609709, 43.489345 ], [ 6.609227, 43.488944 ], [ 6.609035, 43.488729 ], [ 6.609005, 43.488512 ], [ 6.609136, 43.488298 ], [ 6.609427, 43.487974 ], [ 6.609573, 43.487735 ], [ 6.609571, 43.48756 ], [ 6.609498, 43.487306 ], [ 6.60955, 43.486969 ], [ 6.609653, 43.486789 ], [ 6.609822, 43.486604 ], [ 6.610206, 43.48625 ], [ 6.610683, 43.485911 ], [ 6.61092, 43.485666 ], [ 6.611069, 43.485444 ], [ 6.611256, 43.485072 ], [ 6.611381, 43.484877 ], [ 6.611575, 43.484654 ], [ 6.612158, 43.484041 ], [ 6.612572, 43.483587 ], [ 6.612812, 43.483384 ], [ 6.613479, 43.482377 ], [ 6.61377, 43.482118 ], [ 6.613983, 43.481846 ], [ 6.614117, 43.481586 ], [ 6.614386, 43.480827 ], [ 6.614681, 43.480273 ], [ 6.614965, 43.479837 ], [ 6.611466, 43.475169 ], [ 6.611496, 43.475157 ], [ 6.611381, 43.474826 ], [ 6.611139, 43.474525 ], [ 6.610836, 43.474192 ], [ 6.610235, 43.473408 ], [ 6.609881, 43.473052 ], [ 6.609379, 43.472428 ], [ 6.609256, 43.4721 ], [ 6.609073, 43.471357 ], [ 6.608958, 43.470719 ], [ 6.608766, 43.469944 ], [ 6.608577, 43.469047 ], [ 6.608397, 43.468377 ], [ 6.608406, 43.46803 ], [ 6.608203, 43.466931 ], [ 6.608415, 43.466273 ], [ 6.60848, 43.465967 ], [ 6.608993, 43.465906 ], [ 6.60942, 43.465906 ], [ 6.609984, 43.465975 ], [ 6.610542, 43.465933 ], [ 6.610754, 43.465901 ], [ 6.610332, 43.465645 ], [ 6.610188, 43.465463 ], [ 6.610064, 43.465081 ], [ 6.609726, 43.464644 ], [ 6.609378, 43.464332 ], [ 6.609017, 43.464116 ], [ 6.608657, 43.463923 ], [ 6.607877, 43.463581 ], [ 6.607517, 43.463502 ], [ 6.606998, 43.463251 ], [ 6.605993, 43.46279 ], [ 6.605719, 43.462687 ], [ 6.60543, 43.46252 ], [ 6.605131, 43.462291 ], [ 6.604876, 43.462053 ], [ 6.604735, 43.46181 ], [ 6.604435, 43.46175 ], [ 6.604202, 43.461789 ], [ 6.603938, 43.46194 ], [ 6.603593, 43.462275 ], [ 6.603198, 43.462561 ], [ 6.602656, 43.462842 ], [ 6.602161, 43.46297 ], [ 6.601697, 43.463062 ], [ 6.601114, 43.463095 ], [ 6.600626, 43.463137 ], [ 6.599782, 43.463341 ], [ 6.599361, 43.463472 ], [ 6.59904, 43.463492 ], [ 6.598798, 43.463476 ], [ 6.598503, 43.463361 ], [ 6.59821, 43.463027 ], [ 6.598057, 43.462753 ], [ 6.597663, 43.462229 ], [ 6.597057, 43.461792 ], [ 6.596652, 43.461557 ], [ 6.596153, 43.461316 ], [ 6.595513, 43.461163 ], [ 6.59529, 43.461138 ], [ 6.59618, 43.459792 ], [ 6.595111, 43.458169 ], [ 6.59475, 43.457677 ], [ 6.59417, 43.456555 ], [ 6.593765, 43.456061 ], [ 6.592797, 43.455173 ], [ 6.592183, 43.454779 ], [ 6.591486, 43.454159 ], [ 6.591164, 43.453843 ], [ 6.590685, 43.453421 ], [ 6.589901, 43.452689 ], [ 6.589496, 43.451851 ], [ 6.588794, 43.44983 ], [ 6.588763, 43.449427 ], [ 6.588528, 43.448722 ], [ 6.588492, 43.448707 ], [ 6.58837, 43.44825 ], [ 6.588277, 43.448136 ], [ 6.588042, 43.447934 ], [ 6.587774, 43.447759 ], [ 6.587668, 43.447598 ], [ 6.587614, 43.447395 ], [ 6.587435, 43.447184 ], [ 6.587373, 43.447024 ], [ 6.587176, 43.446859 ], [ 6.587083, 43.446479 ], [ 6.586958, 43.446219 ], [ 6.586811, 43.445611 ], [ 6.58658, 43.445039 ], [ 6.586223, 43.444485 ], [ 6.586053, 43.444088 ], [ 6.585922, 43.443611 ], [ 6.585812, 43.442956 ], [ 6.585809, 43.442606 ], [ 6.58583, 43.44206 ], [ 6.585803, 43.441176 ], [ 6.585739, 43.440781 ], [ 6.585638, 43.439196 ], [ 6.585586, 43.438277 ], [ 6.585578, 43.436989 ], [ 6.585707, 43.436654 ], [ 6.585663, 43.436459 ], [ 6.585901, 43.435381 ], [ 6.586046, 43.434574 ], [ 6.586275, 43.433685 ], [ 6.586366, 43.432246 ], [ 6.586417, 43.43195 ], [ 6.586431, 43.431574 ], [ 6.586608, 43.430952 ], [ 6.586685, 43.430607 ], [ 6.586749, 43.42967 ], [ 6.586785, 43.429421 ], [ 6.587104, 43.426502 ], [ 6.587139, 43.425855 ], [ 6.5871, 43.425347 ], [ 6.587027, 43.425238 ], [ 6.586828, 43.424781 ], [ 6.586713, 43.424386 ], [ 6.586706, 43.4242 ], [ 6.586608, 43.423663 ], [ 6.586575, 43.423573 ], [ 6.586531, 43.423017 ], [ 6.586449, 43.422823 ], [ 6.586385, 43.422548 ], [ 6.586349, 43.422249 ], [ 6.586282, 43.422039 ], [ 6.58629, 43.421691 ], [ 6.586205, 43.421197 ], [ 6.5862, 43.420931 ], [ 6.582451, 43.417812 ], [ 6.578323, 43.414937 ], [ 6.575657, 43.413089 ], [ 6.573257, 43.411939 ], [ 6.57342, 43.411784 ], [ 6.573547, 43.411576 ], [ 6.57378, 43.410909 ], [ 6.574113, 43.410392 ], [ 6.574265, 43.410129 ], [ 6.574643, 43.409748 ], [ 6.574858, 43.409562 ], [ 6.575227, 43.409076 ], [ 6.57541, 43.408584 ], [ 6.575553, 43.408315 ], [ 6.575679, 43.408175 ], [ 6.576154, 43.407797 ], [ 6.576398, 43.407422 ], [ 6.57658, 43.406975 ], [ 6.57667, 43.406674 ], [ 6.576996, 43.405823 ], [ 6.577003, 43.405676 ], [ 6.577169, 43.405454 ], [ 6.577408, 43.405313 ], [ 6.577598, 43.405109 ], [ 6.577631, 43.40497 ], [ 6.577877, 43.404796 ], [ 6.577994, 43.404607 ], [ 6.578209, 43.404526 ], [ 6.578298, 43.404432 ], [ 6.578352, 43.404284 ], [ 6.578275, 43.403863 ], [ 6.578334, 43.403704 ], [ 6.578505, 43.403408 ], [ 6.578593, 43.403056 ], [ 6.578576, 43.402592 ], [ 6.578632, 43.402432 ], [ 6.578871, 43.402223 ], [ 6.579046, 43.40216 ], [ 6.5792, 43.402158 ], [ 6.579548, 43.402211 ], [ 6.580516, 43.402285 ], [ 6.580871, 43.402285 ], [ 6.581075, 43.402193 ], [ 6.58132, 43.401987 ], [ 6.581467, 43.401762 ], [ 6.581459, 43.401554 ], [ 6.581369, 43.401284 ], [ 6.581396, 43.401127 ], [ 6.581303, 43.400882 ], [ 6.581192, 43.400693 ], [ 6.580792, 43.4006 ], [ 6.580379, 43.400338 ], [ 6.580247, 43.400118 ], [ 6.57984, 43.400009 ], [ 6.57971, 43.399909 ], [ 6.579553, 43.3999 ], [ 6.579369, 43.399986 ], [ 6.579222, 43.399987 ], [ 6.578803, 43.399794 ], [ 6.578512, 43.39971 ], [ 6.57844, 43.399544 ], [ 6.578247, 43.399427 ], [ 6.578166, 43.399245 ], [ 6.57787, 43.399114 ], [ 6.577753, 43.39895 ], [ 6.577624, 43.398879 ], [ 6.577351, 43.398856 ], [ 6.576945, 43.398855 ], [ 6.576714, 43.398922 ], [ 6.576454, 43.398688 ], [ 6.576198, 43.398568 ], [ 6.576182, 43.39847 ], [ 6.575846, 43.398418 ], [ 6.575588, 43.398287 ], [ 6.575448, 43.398303 ], [ 6.575333, 43.398213 ], [ 6.575097, 43.398184 ], [ 6.57488, 43.398218 ], [ 6.574729, 43.398157 ], [ 6.574392, 43.398103 ], [ 6.574218, 43.398035 ], [ 6.573671, 43.397886 ], [ 6.57329, 43.397813 ], [ 6.572979, 43.397841 ], [ 6.572475, 43.39777 ], [ 6.571801, 43.397548 ], [ 6.571581, 43.39744 ], [ 6.571231, 43.397322 ], [ 6.570571, 43.397187 ], [ 6.570245, 43.397109 ], [ 6.570001, 43.397016 ], [ 6.569305, 43.396809 ], [ 6.567688, 43.396407 ], [ 6.567458, 43.396398 ], [ 6.566403, 43.396096 ], [ 6.565232, 43.395823 ], [ 6.565065, 43.395765 ], [ 6.564767, 43.395713 ], [ 6.564063, 43.395532 ], [ 6.563783, 43.395433 ], [ 6.563035, 43.395285 ], [ 6.562947, 43.395283 ], [ 6.561474, 43.394875 ], [ 6.561248, 43.394827 ], [ 6.560155, 43.39453 ], [ 6.559614, 43.394435 ], [ 6.559112, 43.394282 ], [ 6.557485, 43.393936 ], [ 6.557142, 43.393778 ], [ 6.556758, 43.393745 ], [ 6.551992, 43.394851 ], [ 6.551566, 43.394834 ], [ 6.5512, 43.39486 ], [ 6.550906, 43.394779 ], [ 6.550791, 43.394706 ], [ 6.55003, 43.394882 ], [ 6.549719, 43.394874 ], [ 6.549371, 43.395131 ], [ 6.54912, 43.395183 ], [ 6.549072, 43.395282 ], [ 6.548825, 43.395276 ], [ 6.548452, 43.395343 ], [ 6.548111, 43.395555 ], [ 6.547911, 43.395714 ], [ 6.547373, 43.395791 ], [ 6.547032, 43.39589 ], [ 6.546873, 43.395963 ], [ 6.546741, 43.396128 ], [ 6.546757, 43.396277 ], [ 6.54514, 43.396572 ], [ 6.544819, 43.396599 ], [ 6.544711, 43.396634 ], [ 6.542847, 43.396923 ], [ 6.542648, 43.397096 ] ] ] } }
]
}
