{
"type": "FeatureCollection",
"name": "commune_l93",
"crs": { "type": "name", "properties": { "name": "urn:ogc:def:crs:EPSG::2154" } },
"features": [
{ "type": "Feature", "properties": { "nom": "Le Muy", "code": "83086", "surface": 6689.13, "_score": 0.090788394288405863 }, "geometry": { "type": "Polygon", "coordinates": [ [ [ 987052.063611098797992, 6261770.750852415338159 ], [ 987085.92417400283739, 6261815.332004010677338 ], [ 987094.328963846899569, 6261821.495349118486047 ], [ 987104.461252539651468, 6261837.972972506657243 ], [ 987133.67771238880232, 6261863.096415266394615 ], [ 987179.405071176704951, 6261908.989897970110178 ], [ 987186.721782140433788, 6261923.115826103836298 ], [ 987205.299239307525568, 6261946.649063204415143 ], [ 987239.221815144293942, 6262004.252259768545628 ], [ 987255.317547917133197, 6262025.226250639185309 ], [ 987269.339890056638978, 6262032.754913697950542 ], [ 987261.76052612811327, 6262042.539796347729862 ], [ 987237.799951117485762, 6262082.855134658515453 ], [ 987233.074953594710678, 6262085.090763528831303 ], [ 987118.03740151738748, 6262285.436026623472571 ], [ 986677.33709429227747, 6262553.286770584061742 ], [ 986573.300680650514551, 6262611.933612015098333 ], [ 986545.261581867234781, 6262779.580651992931962 ], [ 986556.737632190808654, 6262800.456969487480819 ], [ 986515.86585162463598, 6262917.792229234240949 ], [ 986500.466818053508177, 6262928.340058437548578 ], [ 986571.110267368610948, 6263147.587263632565737 ], [ 986517.016806009691209, 6263261.325239242054522 ], [ 986507.020348358899355, 6263337.762619844637811 ], [ 986490.729358366574161, 6263406.240440893918276 ], [ 986476.169822290772572, 6263475.90852308832109 ], [ 986469.984642380848527, 6263519.804219323210418 ], [ 986468.705338328843936, 6263541.110094461590052 ], [ 986462.172216814593412, 6263572.862113879062235 ], [ 986450.692235609283671, 6263599.162908199243248 ], [ 986442.988736158236861, 6263608.164087108336389 ], [ 986433.300704017281532, 6263628.87060553021729 ], [ 986394.498763058451004, 6263678.42584328725934 ], [ 986362.180204850621521, 6263677.422938460484147 ], [ 986285.30778524139896, 6263751.198380396701396 ], [ 986255.8216611064272, 6263768.459278387017548 ], [ 986218.079036857932806, 6263785.350581610575318 ], [ 986185.806859387201257, 6263810.498199317604303 ], [ 986162.202519826358184, 6263850.38736544828862 ], [ 986153.185978028690442, 6263874.23973321262747 ], [ 986147.273121247766539, 6263901.235240536741912 ], [ 986146.305132136680186, 6263924.66906913369894 ], [ 986152.500647524371743, 6263967.450109747238457 ], [ 986162.024735854472965, 6264010.157640906050801 ], [ 986163.276504583889619, 6264070.964977111667395 ], [ 986172.098069543018937, 6264114.864978679455817 ], [ 986169.960176296066493, 6264162.613654254935682 ], [ 986186.428937868913636, 6264178.817023955285549 ], [ 986192.915443040430546, 6264193.349521818570793 ], [ 986173.312418541638181, 6264238.090829071588814 ], [ 986171.123199004679918, 6264252.568648734129965 ], [ 986213.200689479475841, 6264290.948035429231822 ], [ 986225.205385328968987, 6264298.161593935452402 ], [ 986239.037549667642452, 6264333.384777991101146 ], [ 986237.485772432060912, 6264348.113652038387954 ], [ 986228.413065047934651, 6264384.091288543306291 ], [ 986229.63007118855603, 6264407.62289799656719 ], [ 986236.62957459455356, 6264445.099181489087641 ], [ 986268.175151839386672, 6264492.242347781546414 ], [ 986282.995056600659154, 6264503.587695765309036 ], [ 986289.398741213488393, 6264623.151522141881287 ], [ 986295.16781269479543, 6264713.423960627056658 ], [ 986294.573035607929341, 6264742.993999003432691 ], [ 986284.810400832328014, 6264776.270170950330794 ], [ 986260.363420613924973, 6264802.435172604396939 ], [ 986248.399525183718652, 6264834.166321937926114 ], [ 986252.787138437386602, 6264850.273830677382648 ], [ 986254.425195826217532, 6264882.502959067001939 ], [ 986240.62167445931118, 6264922.719144689850509 ], [ 986226.679030043072999, 6264946.128018598072231 ], [ 986222.093006827868521, 6264961.611056827940047 ], [ 986230.901566433836706, 6264991.268403409980237 ], [ 986256.766695336205885, 6265042.051343472674489 ], [ 986272.168448760523461, 6265062.101455569267273 ], [ 986285.505305383587256, 6265073.936722884885967 ], [ 986322.308845750521868, 6265095.947152283973992 ], [ 986349.968277921900153, 6265119.328307396732271 ], [ 986372.422039032098837, 6265148.484643779695034 ], [ 986391.396098591154441, 6265191.949629719369113 ], [ 986399.570492878556252, 6265206.780488623306155 ], [ 986434.484414760954678, 6265240.167255538515747 ], [ 986467.022447704570368, 6265275.895556199364364 ], [ 986499.583726506913081, 6265309.28849817533046 ], [ 986506.497702634893358, 6265323.284133980050683 ], [ 986507.370959032094106, 6265356.257864428684115 ], [ 986511.925656356033869, 6265381.27427148912102 ], [ 986484.210542145418003, 6265418.86332562379539 ], [ 986405.794573651161045, 6265494.902966381981969 ], [ 986371.479235757375136, 6265524.185512147843838 ], [ 986341.778259144164622, 6265555.455234853550792 ], [ 986319.787668552133255, 6265582.953742268495262 ], [ 986344.966568873729557, 6265620.020633581094444 ], [ 986359.009641599375755, 6265645.017005630768836 ], [ 986377.533265414647758, 6265669.546621817164123 ], [ 986390.490540712256916, 6265697.053501714020967 ], [ 986396.887756088282913, 6265717.145413805730641 ], [ 986408.675371669349261, 6265777.979433233849704 ], [ 986435.570619685342535, 6266257.846741469576955 ], [ 986431.517581643187441, 6266275.91246431786567 ], [ 986432.89869673200883, 6266319.256360959261656 ], [ 986438.960271418327466, 6266352.239930527284741 ], [ 986438.47935595549643, 6266429.881112465634942 ], [ 986440.333163238829002, 6266455.443824491463602 ], [ 986445.533011132385582, 6266478.708725079894066 ], [ 986429.674190621124581, 6266499.694339086301625 ], [ 986468.327690523117781, 6266677.33659491315484 ], [ 986474.931263826554641, 6266864.556944800540805 ], [ 986477.604881788254716, 6266913.410620079375803 ], [ 986473.929106063209474, 6266942.9533696975559 ], [ 986478.797242479631677, 6266948.289821996353567 ], [ 986451.532662407960743, 6266992.240586431697011 ], [ 986350.498016826342791, 6267041.563073888421059 ], [ 986297.196203118655831, 6267172.691056538373232 ], [ 986228.389915590872988, 6267250.051703282631934 ], [ 986201.429011834552512, 6267318.049905172549188 ], [ 986184.415070442133583, 6267332.308302624151111 ], [ 986157.215809286339208, 6267336.875595386140049 ], [ 985904.216178743168712, 6267349.469386761076748 ], [ 985727.075521865393966, 6267549.161414680071175 ], [ 985640.819278822280467, 6267623.633192116394639 ], [ 985549.465240836958401, 6267645.36195912770927 ], [ 985548.197262060828507, 6267798.848248751834035 ], [ 985624.894709894433618, 6268220.848203331232071 ], [ 985610.786490455735475, 6268278.964050022885203 ], [ 985603.292421674355865, 6268301.549065894447267 ], [ 985609.062315790215507, 6268328.398839770816267 ], [ 985607.365269201924093, 6268342.787099609151483 ], [ 985610.519910894450732, 6268386.431846715509892 ], [ 985604.901088182348758, 6268396.082970041781664 ], [ 985608.26423018053174, 6268435.063997087068856 ], [ 985616.140873234020546, 6268485.484366164542735 ], [ 985630.515848419629037, 6268595.386987971141934 ], [ 985655.52741059102118, 6268744.707147723063827 ], [ 985650.420707081095316, 6268933.179657658562064 ], [ 985683.571787830907851, 6268953.020734632387757 ], [ 985666.403359884163365, 6269001.653228249400854 ], [ 985645.611829815199599, 6269076.937875411473215 ], [ 985642.597242380026728, 6269118.971396632492542 ], [ 985643.913269154494628, 6269165.649082263000309 ], [ 985650.132336094626226, 6269218.66546983551234 ], [ 985656.432199546718039, 6269259.001592541113496 ], [ 985624.337675431510434, 6269338.787362260743976 ], [ 985609.236374854575843, 6269379.278894059360027 ], [ 985569.614623416564427, 6269500.562629246152937 ], [ 985566.313996671582572, 6269563.500463682226837 ], [ 985561.123210306046531, 6269576.285972862504423 ], [ 985539.703222235664725, 6269614.937352183274925 ], [ 985526.128841848112643, 6269648.487744830548763 ], [ 985507.90831548825372, 6269711.648540398105979 ], [ 985498.395481555256993, 6269735.923310463316739 ], [ 985478.976617012056522, 6269760.645324102602899 ], [ 985465.4900878315093, 6269795.868635884486139 ], [ 985451.524030814063735, 6269825.50745197199285 ], [ 985439.822474312502891, 6269855.247508582659066 ], [ 985420.299359518103302, 6269887.753293810412288 ], [ 985394.590734710218385, 6269951.692159658297896 ], [ 985386.832924671121873, 6269976.601767241954803 ], [ 985174.174433225532994, 6270449.083807920105755 ], [ 985121.678972946479917, 6270476.112316740676761 ], [ 985018.384233101503924, 6270561.176721724681556 ], [ 984923.958617332857102, 6270854.250332288444042 ], [ 984931.505768820876256, 6270908.437134638428688 ], [ 984976.639365225797519, 6270904.665942644700408 ], [ 984986.177436428144574, 6270901.531342856585979 ], [ 985036.286185756907798, 6270900.65288888476789 ], [ 985096.474317595362663, 6270897.220861036330462 ], [ 985200.771119826938957, 6270896.649631161242723 ], [ 985245.208572475006804, 6270893.961831809021533 ], [ 985271.634660552721471, 6270890.024517265148461 ], [ 985310.665228778845631, 6270881.421297173015773 ], [ 985364.775789099279791, 6270867.150430186651647 ], [ 985391.374352680286393, 6270857.54701301176101 ], [ 985427.0653022127226, 6270849.351512159220874 ], [ 985529.784389157313854, 6270833.361080459319055 ], [ 985573.219012503279373, 6270820.505943408235908 ], [ 985691.973060202784836, 6270962.224487197585404 ], [ 985721.117031666683033, 6271017.045142006129026 ], [ 985755.564428126439452, 6271069.210517073981464 ], [ 985778.363445515744388, 6271101.05024603381753 ], [ 985789.213911865837872, 6271095.750369478948414 ], [ 985806.536779853282496, 6271096.08077057544142 ], [ 985809.092635106062517, 6271114.998275771737099 ], [ 985879.796306279604323, 6271209.620261779986322 ], [ 986046.615942823234946, 6271222.099014956504107 ], [ 986065.260723735205829, 6271212.80965135153383 ], [ 986068.226199552882463, 6271218.950621169060469 ], [ 986199.40645901102107, 6271299.931062938645482 ], [ 986313.694178565754555, 6271347.445937005802989 ], [ 986353.696465022745542, 6271365.929209982044995 ], [ 986427.263709989143535, 6271396.48835327476263 ], [ 986547.282986355479807, 6271435.363781272433698 ], [ 986551.374814501497895, 6271441.666809622198343 ], [ 986599.319154012016952, 6271460.063104635104537 ], [ 986602.296151097863913, 6271469.542697687633336 ], [ 986629.968436508439481, 6271481.132346351630986 ], [ 986681.101812009466812, 6271560.198604952543974 ], [ 986694.76460148091428, 6271568.044142491184175 ], [ 986710.991395882912911, 6271571.109363696537912 ], [ 986740.719407183583826, 6271556.756687676534057 ], [ 986746.395405420800671, 6271576.482361895032227 ], [ 986757.429175334749743, 6271590.55184849537909 ], [ 986794.970813831663691, 6271631.290985389612615 ], [ 986808.227868245798163, 6271628.326198305934668 ], [ 986923.192087752511725, 6271593.883068182505667 ], [ 986985.926919693592936, 6271571.557827304117382 ], [ 987017.917316512903199, 6271562.759929754771292 ], [ 987027.87855896144174, 6271575.446552803739905 ], [ 987088.516778859077021, 6271599.757900735363364 ], [ 987138.170105081284419, 6271625.133417421020567 ], [ 987131.804382583359256, 6271645.986808048561215 ], [ 987125.696887547150254, 6271677.310402097180486 ], [ 987142.530070385895669, 6271681.294104227796197 ], [ 987189.968583731679246, 6271685.65324785374105 ], [ 987238.466234939405695, 6271686.27750482223928 ], [ 987248.972334759077057, 6271688.641673347912729 ], [ 987285.083040362922475, 6271764.700653539970517 ], [ 987305.379100790247321, 6271772.734792209230363 ], [ 987320.280730661703274, 6271774.629337349906564 ], [ 987333.580719716381282, 6271848.10432681068778 ], [ 987312.610685519059189, 6271896.449381385929883 ], [ 987358.89246064145118, 6271904.874469961039722 ], [ 987375.738175321137533, 6271904.96522266510874 ], [ 987424.812558433273807, 6271899.942588618956506 ], [ 987453.118185825180262, 6271890.202197568491101 ], [ 987491.014450911432505, 6271870.7690165117383 ], [ 987538.419942552223802, 6271839.859344633296132 ], [ 987566.10844984347932, 6271827.64387293998152 ], [ 987592.830964303575456, 6271824.285944735631347 ], [ 987623.165567003656179, 6271830.659390083514154 ], [ 987659.025803315453231, 6271843.846421318128705 ], [ 987675.271551094949245, 6271846.469944084063172 ], [ 987730.336610862519592, 6271846.948895296081901 ], [ 987757.790250968770124, 6271839.952964768745005 ], [ 987821.16744523588568, 6271925.589021253399551 ], [ 987795.474889847799204, 6271938.449677534401417 ], [ 987837.594728639582172, 6271988.858918004669249 ], [ 987886.914956716587767, 6271955.034075038507581 ], [ 987920.573323014192283, 6271973.90894661936909 ], [ 987989.534032619441859, 6271966.227226860821247 ], [ 988041.770902432501316, 6271959.34928086400032 ], [ 988066.476443346007727, 6271954.010882469825447 ], [ 988064.587356270174496, 6271968.94602519646287 ], [ 988078.336520776967518, 6271971.235409029759467 ], [ 988208.50918237795122, 6272001.922596447169781 ], [ 988255.826462904573418, 6272014.29519032407552 ], [ 988295.77497687167488, 6272021.217283947393298 ], [ 988310.713529630331323, 6272015.104956167750061 ], [ 988390.513434932916425, 6271995.233202330768108 ], [ 988417.83144602261018, 6272005.590914314612746 ], [ 988441.59293643780984, 6272033.701291663572192 ], [ 988452.738696733256802, 6272032.647248215973377 ], [ 988488.810944191645831, 6272021.370892317034304 ], [ 988503.473699680296704, 6272021.365977331995964 ], [ 988527.809727776329964, 6272029.586677788756788 ], [ 988545.562809027847834, 6272040.068949516862631 ], [ 988560.962418541777879, 6272054.227810768410563 ], [ 988579.392767561599612, 6272065.853420604020357 ], [ 988596.723471233970486, 6272083.882595823146403 ], [ 988635.065372899058275, 6272076.158818587660789 ], [ 988663.516965253395028, 6272077.556598973460495 ], [ 988713.596265117870644, 6272070.030274383723736 ], [ 988732.468900026055053, 6272055.752154562622309 ], [ 988770.011837283382192, 6272006.603318145498633 ], [ 988775.38674027682282, 6272002.395952951163054 ], [ 988859.870396185899153, 6272074.199831987731159 ], [ 988900.69796116114594, 6272104.641963440924883 ], [ 988906.568421155330725, 6272102.01481668651104 ], [ 988933.535438469843939, 6272107.57460138015449 ], [ 988958.216664678417146, 6272126.048774851486087 ], [ 988972.363182369386777, 6272144.602458917535841 ], [ 988992.719255947973579, 6272185.244792648591101 ], [ 989010.906770160188898, 6272200.421105374582112 ], [ 989076.698268503532745, 6272235.88890995644033 ], [ 989092.307783106807619, 6272270.419704453088343 ], [ 989104.371357080759481, 6272309.908025204204023 ], [ 989175.672974724555388, 6272368.546594670042396 ], [ 989194.685571172391064, 6272370.854353761300445 ], [ 989235.288531748577952, 6272381.14998640678823 ], [ 989250.36575421364978, 6272305.840654510073364 ], [ 989268.500677859876305, 6272315.007154758088291 ], [ 989294.094539270037785, 6272332.967727068811655 ], [ 989337.797829202376306, 6272332.055700605735183 ], [ 989375.594228520989418, 6272327.427038404159248 ], [ 989428.386856897850521, 6272326.148844035342336 ], [ 989506.280856476398185, 6272330.460000204853714 ], [ 989602.571387628442608, 6272339.945977034978569 ], [ 989649.737324969959445, 6272351.988444749265909 ], [ 989687.864460603101179, 6272365.067479275166988 ], [ 989719.224332226905972, 6272361.261375322937965 ], [ 989763.699761079624295, 6272352.265092416666448 ], [ 989783.722668694797903, 6272353.73036643769592 ], [ 989863.623133956454694, 6272369.15205966681242 ], [ 989885.16631301981397, 6272365.67983964830637 ], [ 989941.276193619938567, 6272337.742055271752179 ], [ 990070.321615157532506, 6272271.728616409935057 ], [ 990130.692193915368989, 6272239.201677824370563 ], [ 990214.799928892869502, 6272197.740677806548774 ], [ 990335.231359761906788, 6272132.453281545080245 ], [ 990474.112592686200514, 6272065.893498303368688 ], [ 990489.86683435854502, 6272056.151570261456072 ], [ 990501.836637921631336, 6272056.585014888085425 ], [ 990506.586136198486201, 6272064.367113169282675 ], [ 990513.52831450488884, 6272109.411199191585183 ], [ 990536.678999715019017, 6272168.544661957770586 ], [ 990544.6266223131679, 6272179.031422402709723 ], [ 990560.875710786320269, 6272181.551251789554954 ], [ 990592.913556593121029, 6272214.497357015497983 ], [ 990590.18489145708736, 6272229.950104580260813 ], [ 990541.477791084907949, 6272278.469372583553195 ], [ 990506.382914064219221, 6272303.797971686348319 ], [ 990481.539781276369467, 6272324.586385839618742 ], [ 990389.631387161207385, 6272421.76590356323868 ], [ 990369.528260850347579, 6272446.998357420787215 ], [ 990347.278253184282221, 6272485.596110885962844 ], [ 990345.485441986354999, 6272533.914243209175766 ], [ 990358.712853748584166, 6272570.787867836654186 ], [ 990391.482063660514541, 6272592.973627372644842 ], [ 990440.822393886744976, 6272612.353128042072058 ], [ 990511.210040246602148, 6272630.243120541796088 ], [ 990542.80648702615872, 6272642.585104265250266 ], [ 990585.861003294936381, 6272664.79502369556576 ], [ 990604.806580514996313, 6272672.110852668061852 ], [ 990690.404875130043365, 6272701.042932346463203 ], [ 990724.718605997157283, 6272715.95739733427763 ], [ 990733.670757688116282, 6272722.150869619101286 ], [ 990747.437018802971579, 6272740.023813939653337 ], [ 990760.111148668802343, 6272772.97891634516418 ], [ 990759.225726477685384, 6272797.750407023355365 ], [ 990752.884107245597988, 6272821.383237187750638 ], [ 990748.032465008436702, 6272853.206191934645176 ], [ 990739.124604240525514, 6272874.496851356700063 ], [ 990725.321256289142184, 6272898.34612403344363 ], [ 990725.299981576856226, 6272920.152835278771818 ], [ 990743.142410975182429, 6272944.553464072756469 ], [ 990732.435511160874739, 6272978.668746249750257 ], [ 990717.121616256656125, 6273007.233538148924708 ], [ 990695.695071703288704, 6273034.852369071915746 ], [ 990679.730382920242846, 6273049.257116667926311 ], [ 990648.705725570209324, 6273072.433478137478232 ], [ 990630.569134709774517, 6273081.17625764105469 ], [ 990579.16588565078564, 6273094.746472750790417 ], [ 990497.118115759920329, 6273121.386477990075946 ], [ 990480.992509856587276, 6273130.443719034083188 ], [ 990451.297530709533021, 6273161.803710030391812 ], [ 990401.916072832653299, 6273177.247513520531356 ], [ 990377.187573272851296, 6273200.934103396721184 ], [ 990357.379620785359293, 6273214.385890942066908 ], [ 990354.964924603467807, 6273224.734775340184569 ], [ 990356.990893592243083, 6273281.682406133972108 ], [ 990363.613745604408905, 6273308.798119114711881 ], [ 990375.808521947357804, 6273338.058814349584281 ], [ 990379.617460407549515, 6273355.811680057086051 ], [ 990389.715488868067041, 6273425.810546172782779 ], [ 990384.921435728319921, 6273452.851861395873129 ], [ 990384.299961987067945, 6273489.651641138829291 ], [ 990381.718519809190184, 6273517.906248426996171 ], [ 990376.257786080008373, 6273529.340402090921998 ], [ 990359.097775595611893, 6273546.918053416535258 ], [ 990376.32312422641553, 6273618.687510746531188 ], [ 990402.140566055197269, 6273676.050005878321826 ], [ 990421.986875832546502, 6273727.577730973251164 ], [ 990428.997645715950057, 6273763.945942366495728 ], [ 990411.403104722267017, 6273824.896124863065779 ], [ 990371.603816282236949, 6273857.687846413813531 ], [ 990311.822260843822733, 6273888.235590299591422 ], [ 990295.380746484035626, 6273947.01317739021033 ], [ 990281.606415458256379, 6273991.67048501316458 ], [ 990260.690264281118289, 6274074.054736075922847 ], [ 990251.275530464481562, 6274131.483004131354392 ], [ 990271.667005704250187, 6274236.885933710262179 ], [ 990263.499901009374298, 6274306.05341834295541 ], [ 990258.802903739502653, 6274395.072141718119383 ], [ 990221.326059981016442, 6274430.306626509875059 ], [ 990186.117914893431589, 6274502.917296710424125 ], [ 990110.011041490244679, 6274616.615663538686931 ], [ 990060.784158611670136, 6274675.238053096458316 ], [ 990026.765931731788442, 6274750.239932170137763 ], [ 989995.091173466295004, 6274807.546542009338737 ], [ 989959.991832959465683, 6274844.002957727760077 ], [ 989963.598512309603393, 6274859.075927631929517 ], [ 989958.670033623231575, 6274876.653836063109338 ], [ 989938.322663780068979, 6274894.97749753203243 ], [ 989928.702438095584512, 6274912.45349151827395 ], [ 989917.517190478509292, 6274941.207072279416025 ], [ 989890.291521430481225, 6274959.440861956216395 ], [ 989874.680998668889515, 6274962.625808108597994 ], [ 989863.879413984948769, 6274982.941010327078402 ], [ 989860.613999190041795, 6275020.955375481396914 ], [ 989864.327691987156868, 6275051.498478697612882 ], [ 989877.017670437227935, 6275119.721977507695556 ], [ 989891.211158653255552, 6275165.538984895683825 ], [ 989901.611637291498482, 6275209.292234959080815 ], [ 989907.06786483025644, 6275253.154625311493874 ], [ 989896.090520140947774, 6275288.036973481066525 ], [ 989869.967897197464481, 6275319.449694340117276 ], [ 989841.698903126874939, 6275344.64562741946429 ], [ 989811.662488475441933, 6275367.758686252869666 ], [ 989778.601135089760646, 6275387.952954234555364 ], [ 989737.075735139893368, 6275401.977426348254085 ], [ 989660.886139219626784, 6275401.96706676017493 ], [ 989593.383552481420338, 6275412.142878536134958 ], [ 989543.591946315718815, 6275426.349690103903413 ], [ 989504.4010647716932, 6275446.044626299291849 ], [ 989491.39323100016918, 6275454.355274811387062 ], [ 989464.172305355314165, 6275485.052096188999712 ], [ 989432.909126762999222, 6275537.038978097960353 ], [ 989425.497034753556363, 6275546.938726999796927 ], [ 989400.275743410922587, 6275571.050835396163166 ], [ 989384.021692171692848, 6275583.108555477112532 ], [ 989325.164041248383, 6275609.811998629942536 ], [ 989290.969315116526559, 6275630.068490199744701 ], [ 989253.474973572418094, 6275669.534897274337709 ], [ 989231.619362136232667, 6275703.368601380847394 ], [ 989205.237510817823932, 6275792.404903640970588 ], [ 989183.375414718408138, 6275846.042776052840054 ], [ 989164.917071383912116, 6275899.612444295547903 ], [ 989163.380491392919794, 6275922.796211322769523 ], [ 989167.778432250022888, 6275954.370967068709433 ], [ 989175.536033842246979, 6276031.492208054289222 ], [ 989193.105518721509725, 6276081.465669721364975 ], [ 989201.194122022716329, 6276111.983872257173061 ], [ 989211.496984267607331, 6276161.51670425478369 ], [ 989213.802928083692677, 6276185.653450864367187 ], [ 989229.284427175065503, 6276222.737417344003916 ], [ 989268.681581806391478, 6276276.927288978360593 ], [ 989277.88336211303249, 6276291.808372216299176 ], [ 989307.971408050041646, 6276326.328361563384533 ], [ 989357.016040156944655, 6276378.397356097586453 ], [ 989387.362086154520512, 6276425.056804152205586 ], [ 989417.881192445056513, 6276489.303363493643701 ], [ 989442.333857454825193, 6276535.584447549656034 ], [ 989478.864178613992408, 6276588.644267356954515 ], [ 989507.129827482393011, 6276599.050354038365185 ], [ 989537.772832993650809, 6276601.665001709014177 ], [ 989569.324904254637659, 6276607.4363496247679 ], [ 989581.170514136669226, 6276613.982133754529059 ], [ 989595.170065518817864, 6276594.479569984599948 ], [ 989608.229984634788707, 6276567.146152139641345 ], [ 989596.539886719780043, 6276548.257488396018744 ], [ 989593.362791852210648, 6276532.648076575249434 ], [ 989604.202728389645927, 6276525.685750432312489 ], [ 989651.075483920867555, 6276550.62226701900363 ], [ 989669.619223546935245, 6276525.540640777908266 ], [ 989729.407438513124362, 6276462.167169309221208 ], [ 989798.49958938814234, 6276443.498524952679873 ], [ 989928.633044319227338, 6276458.64630348328501 ], [ 989953.41521472344175, 6276492.260787268169224 ], [ 990189.672267164103687, 6276713.954219953157008 ], [ 990265.600937295821495, 6276973.753317626193166 ], [ 990279.12052722403314, 6277003.963857365772128 ], [ 990279.932470367988572, 6277028.811904654838145 ], [ 990295.229567217756994, 6277044.862023703753948 ], [ 990305.321102025453001, 6277066.794588239863515 ], [ 990316.866818416630849, 6277083.452851191163063 ], [ 990321.308970154612325, 6277099.676549259573221 ], [ 990324.603259342722595, 6277155.345474644564092 ], [ 990322.497162359184586, 6277173.162547212094069 ], [ 990352.810795247554779, 6277241.632437069900334 ], [ 990385.725151285994798, 6277284.964759884402156 ], [ 990417.332788681727834, 6277307.209541630931199 ], [ 990473.525598583277315, 6277342.367683598771691 ], [ 990482.065287250676192, 6277375.244651176966727 ], [ 990478.700849098386243, 6277404.686703124083579 ], [ 990465.866568053606898, 6277419.901191093958914 ], [ 990463.476815313333645, 6277445.716033606790006 ], [ 990465.922778244363144, 6277480.874443172477186 ], [ 990460.165039273677394, 6277516.660586543381214 ], [ 990445.926149560837075, 6277552.060501595027745 ], [ 990443.291285298066214, 6277618.807942070066929 ], [ 990449.568630150984973, 6277656.922289406880736 ], [ 990464.94231972808484, 6277701.458951484411955 ], [ 990473.107483664527535, 6277738.991728219203651 ], [ 990494.213010732783005, 6277814.05227851588279 ], [ 990505.882572117494419, 6277835.055682372301817 ], [ 990529.287979620858096, 6277866.718381848186255 ], [ 990546.85883876751177, 6277884.319107563234866 ], [ 990572.71844216203317, 6277902.965080669149756 ], [ 990594.974710534093902, 6277910.098440470173955 ], [ 990661.729411460924894, 6277919.370989263989031 ], [ 990801.232470505870879, 6277921.836222616024315 ], [ 990829.267865518340841, 6277970.84529616497457 ], [ 990869.139146250672638, 6278028.293782421387732 ], [ 990926.487268148805015, 6278075.191201395355165 ], [ 990965.418483749963343, 6278098.217991513200104 ], [ 990981.473027011728846, 6278085.15419102460146 ], [ 991004.478346909629181, 6278074.07649018522352 ], [ 991029.933584388112649, 6278053.653527615591884 ], [ 991051.101424071239308, 6278043.827258655801415 ], [ 991123.325307871447876, 6278030.768428657203913 ], [ 991145.398346729343757, 6278013.529322596266866 ], [ 991158.194753860239871, 6278015.114852780476213 ], [ 991164.330024746828713, 6278004.825194989331067 ], [ 991190.181402015616186, 6278002.333870249800384 ], [ 991199.063873636070639, 6277986.829164301045239 ], [ 991215.084039444918744, 6277972.762990337796509 ], [ 991239.601301248185337, 6277978.221708443947136 ], [ 991255.004419567296281, 6277970.580570859834552 ], [ 991258.465117810759693, 6277956.831028196960688 ], [ 991283.812582811107859, 6277951.201757204718888 ], [ 991285.278391960659064, 6277942.145324574783444 ], [ 991298.005779847502708, 6277936.384768645279109 ], [ 991316.335520089720376, 6277935.553087767213583 ], [ 991321.874929562443867, 6277927.684080224484205 ], [ 991345.434369338676333, 6277927.536410605534911 ], [ 991368.113163113943301, 6277914.776122556068003 ], [ 991390.274226933950558, 6277915.121034772135317 ], [ 991408.818326043197885, 6277904.28593207616359 ], [ 991433.59103242366109, 6277897.073322975076735 ], [ 991522.223799494677223, 6277884.546185100451112 ], [ 991583.382122027222067, 6277883.447854706086218 ], [ 991620.704384666169062, 6277897.393015812151134 ], [ 991748.578956893994473, 6278003.710142221301794 ], [ 991753.670896063325927, 6278009.172349644824862 ], [ 991815.378732065320946, 6278024.345557340420783 ], [ 991832.178335798322223, 6278025.114268702454865 ], [ 991854.472225839970633, 6278019.013740747235715 ], [ 991905.661670838948339, 6278011.120472256094217 ], [ 991924.363606995320879, 6278014.535503739491105 ], [ 991952.305170510429889, 6278012.365447212010622 ], [ 991967.200848844833672, 6278015.828886890783906 ], [ 992007.667610384523869, 6278010.560867020860314 ], [ 992022.461675354745239, 6278000.334644116461277 ], [ 992043.497428074013442, 6277998.738867908716202 ], [ 992061.790423309314065, 6278002.246838670223951 ], [ 992137.382349920459092, 6277995.250438041985035 ], [ 992163.05973061779514, 6278016.008694882504642 ], [ 992210.203722814330831, 6278015.164516401477158 ], [ 992280.584201464080252, 6277971.771035960875452 ], [ 992343.819986977847293, 6277962.430604656226933 ], [ 992416.526596552226692, 6277938.949742464348674 ], [ 992516.09370543435216, 6277880.430250011384487 ], [ 992584.081664256984368, 6277869.863687949255109 ], [ 992728.179860459873453, 6277874.584486965090036 ], [ 992929.800765537424013, 6277871.046618619933724 ], [ 993066.881522711832076, 6277866.440515951253474 ], [ 993093.782700197538361, 6277878.13537635654211 ], [ 993111.431202198844403, 6277878.056353287771344 ], [ 993161.801651375135407, 6277868.688960185274482 ], [ 993203.818502199021168, 6277877.29620396066457 ], [ 993234.129180824151263, 6277874.684303742833436 ], [ 993274.918041851837188, 6277865.989884027279913 ], [ 993291.001350351027213, 6277866.506955930031836 ], [ 993322.222886113449931, 6277859.931907184422016 ], [ 993374.101621331181377, 6277844.182305999100208 ], [ 993419.580019907094538, 6277818.013756398111582 ], [ 993444.92838425654918, 6277815.953379075042903 ], [ 993468.637767979758792, 6277810.813593904487789 ], [ 993526.203677078476176, 6277782.30914256349206 ], [ 993557.19567248900421, 6277763.1519535491243 ], [ 993579.64158155140467, 6277752.057483638636768 ], [ 993612.103099104017019, 6277732.63439788017422 ], [ 993651.622573697241023, 6277704.079081454314291 ], [ 993697.613378605223261, 6277668.58989279717207 ], [ 993759.737892420729622, 6277618.489781729876995 ], [ 993773.422417135327123, 6277604.322100712917745 ], [ 993780.78114966629073, 6277590.419381961226463 ], [ 993799.694507537409663, 6277578.717860197648406 ], [ 993822.072874119039625, 6277572.627905908040702 ], [ 993873.425148961134255, 6277540.279697418212891 ], [ 993902.105456505669281, 6277523.910377962514758 ], [ 993923.606180530739948, 6277508.768001213669777 ], [ 993985.818646884523332, 6277484.932070342823863 ], [ 994017.612298872787505, 6277480.055599745362997 ], [ 994041.36440710327588, 6277474.02970954682678 ], [ 994063.195070056477562, 6277472.810904894024134 ], [ 994087.931905887788162, 6277466.496794729493558 ], [ 994180.037595830275677, 6277412.331008491106331 ], [ 994254.927836614428088, 6277375.174388923682272 ], [ 994256.975112110609189, 6277325.534008489921689 ], [ 994286.261987216654234, 6277204.828940918669105 ], [ 994325.388936228351668, 6277176.148024208843708 ], [ 994331.93315529031679, 6277174.669782315380871 ], [ 994352.013993231579661, 6277157.015385454520583 ], [ 994373.371724440017715, 6277132.744143736548722 ], [ 994409.683851564768702, 6277072.112307681702077 ], [ 994434.135854203836061, 6277042.198327021673322 ], [ 994461.559905203757808, 6277000.516375950537622 ], [ 994463.580424477811903, 6276991.819794313982129 ], [ 994547.028642738470808, 6276834.339658725075424 ], [ 994558.81985926697962, 6276810.406015985645354 ], [ 994583.740066700498573, 6276770.389051420614123 ], [ 994619.721400882350281, 6276718.755215605720878 ], [ 994620.211087270407006, 6276704.647262070327997 ], [ 994794.575063519761898, 6276545.583600481972098 ], [ 994837.609349583042786, 6276437.754257659427822 ], [ 994838.923941740067676, 6276291.946927757933736 ], [ 994816.83755285362713, 6276105.89274207688868 ], [ 994790.734869859647006, 6276003.212902015075088 ], [ 994749.100714236614294, 6275875.671051945537329 ], [ 994732.170507090748288, 6275774.194036339409649 ], [ 994738.736279641045257, 6275688.155648346990347 ], [ 994756.860359596321359, 6275667.407529371790588 ], [ 994831.124923411756754, 6275612.758573973551393 ], [ 994906.470227986807004, 6275580.302160625346005 ], [ 994873.976624494185671, 6275568.563871297053993 ], [ 994849.295144253177568, 6275508.675098530948162 ], [ 994832.717615057015792, 6275429.355670860037208 ], [ 994912.415694108698517, 6275379.854184352792799 ], [ 994912.814796253107488, 6275365.964446729980409 ], [ 994897.980177739285864, 6275313.762843525968492 ], [ 994891.522650851286016, 6275297.553411392495036 ], [ 994881.012120162835345, 6275284.939693548716605 ], [ 994854.841273283353075, 6275278.278194131329656 ], [ 994801.667083525797352, 6275284.722309517674148 ], [ 994797.582089958828874, 6275283.754706448875368 ], [ 994788.321782320621423, 6275252.840115661732852 ], [ 994778.533023284981027, 6275233.361465135589242 ], [ 994737.192543456563726, 6275209.754876110702753 ], [ 994721.037076062639244, 6275208.897343263030052 ], [ 994698.92644152790308, 6275201.978988960385323 ], [ 994671.921588546363637, 6275202.845786299556494 ], [ 994643.376559061463922, 6275210.762556320056319 ], [ 994605.533162452746183, 6275227.151330552995205 ], [ 994585.015862410189584, 6275231.322209428064525 ], [ 994557.722917304956354, 6275240.18728082627058 ], [ 994521.036137484246865, 6275242.054183971136808 ], [ 994501.313144297804683, 6275251.825252830982208 ], [ 994485.532962367171422, 6275263.892397352494299 ], [ 994460.633223414653912, 6275289.335571855306625 ], [ 994446.304100087494589, 6275306.810497565194964 ], [ 994415.365366018959321, 6275315.730428409762681 ], [ 994383.202822675928473, 6275319.587109955027699 ], [ 994351.824387386441231, 6275329.265908062458038 ], [ 994333.521653070347384, 6275338.101602077484131 ], [ 994312.730040728463791, 6275353.498436356894672 ], [ 994295.522217822144739, 6275371.95352625194937 ], [ 994283.33323088940233, 6275376.398230598308146 ], [ 994259.564207602059469, 6275396.664813504554331 ], [ 994221.880069742794149, 6275420.184036748483777 ], [ 994198.224488247651607, 6275429.218307374045253 ], [ 994158.695622598752379, 6275431.289973030798137 ], [ 994053.222163785248995, 6275374.356084640137851 ], [ 993941.464711648644879, 6275325.479351385496557 ], [ 993814.127415081951767, 6275300.142856202088296 ], [ 993661.436820435454138, 6275274.977154008112848 ], [ 993611.63166882970836, 6275169.542827208526433 ], [ 993382.118457477074116, 6274976.511720662005246 ], [ 993372.889377873856574, 6274990.551753309555352 ], [ 993347.583395706955343, 6275007.301839590072632 ], [ 993326.304292533081025, 6275010.440353725105524 ], [ 993290.990570621564984, 6275022.947599159553647 ], [ 993265.804817808791995, 6275021.23363565094769 ], [ 993257.50396328791976, 6275016.846599546261132 ], [ 993245.240137752960436, 6274998.258133036084473 ], [ 993212.460788990138099, 6274969.714487207122147 ], [ 993149.018769631162286, 6274931.751170936971903 ], [ 993131.570205039111897, 6274918.487950122915208 ], [ 993120.400601965142414, 6274902.50908641051501 ], [ 993114.204973830608651, 6274876.967473529279232 ], [ 993110.298197340220213, 6274849.194455688819289 ], [ 993101.731939913704991, 6274827.660733937285841 ], [ 993085.680275945458561, 6274806.895839988254011 ], [ 993080.519965542014688, 6274792.305716685019433 ], [ 993075.381618903018534, 6274750.79063097666949 ], [ 993044.923592549515888, 6274710.449229695834219 ], [ 992999.008521702839062, 6274638.132920864038169 ], [ 993001.264822196797468, 6274629.557902975939214 ], [ 992980.323434044723399, 6274620.028996048495173 ], [ 992921.315334266750142, 6274571.81282158754766 ], [ 992900.914601183496416, 6274548.734753276221454 ], [ 992880.500620200647973, 6274532.99959337618202 ], [ 992855.916402251808904, 6274525.195407456718385 ], [ 992817.597100835293531, 6274521.990446800366044 ], [ 992805.089432106819004, 6274462.780206295661628 ], [ 992764.097250177757815, 6274396.032269141636789 ], [ 992686.675943252397701, 6274371.340507836081088 ], [ 992645.625258855056018, 6274362.336865808814764 ], [ 992626.191304807085544, 6274342.864517230540514 ], [ 992590.67584360553883, 6274320.874623953364789 ], [ 992556.294112981762737, 6274305.946560532785952 ], [ 992543.58572343189735, 6274176.853710971772671 ], [ 992512.803581851068884, 6274164.650005594827235 ], [ 992484.923572300001979, 6274143.900852990336716 ], [ 992447.191533540375531, 6274129.598712047562003 ], [ 992410.521883101668209, 6274109.78226828482002 ], [ 992364.111027444130741, 6274081.619990289211273 ], [ 992280.391280767391436, 6274038.731268457137048 ], [ 992236.780429041013122, 6274018.375424164347351 ], [ 992132.129111791378818, 6274002.791296388953924 ], [ 992048.398213959066197, 6273991.949247919023037 ], [ 992033.032244695350528, 6273973.777606426738203 ], [ 991940.200075945584103, 6273876.847245668061078 ], [ 991897.294756642309949, 6273833.939482484944165 ], [ 991864.374294195789844, 6273753.325098345987499 ], [ 991852.907781628891826, 6273731.32674593385309 ], [ 991821.896120899589732, 6273692.190104169771075 ], [ 991767.321086285635829, 6273574.981592247262597 ], [ 991725.739141201833263, 6273517.226165689527988 ], [ 991722.272827161941677, 6273378.655141545459628 ], [ 991688.012792459689081, 6273302.430996400304139 ], [ 991692.585878865211271, 6273296.29794002044946 ], [ 991676.498353924020194, 6273284.992609022185206 ], [ 991653.215709286741912, 6273280.479429764673114 ], [ 991659.81666969647631, 6273263.64639033190906 ], [ 991682.382369041675702, 6273191.688288111239672 ], [ 991702.685281938174739, 6273119.626791783608496 ], [ 991710.78097824100405, 6273082.500710361637175 ], [ 991722.112834878382273, 6273056.092655862681568 ], [ 991737.560203841305338, 6273038.885143347084522 ], [ 991792.734136546379887, 6273008.473011971451342 ], [ 991842.413673388771713, 6272970.689163821749389 ], [ 991857.337165278848261, 6272949.007369158789515 ], [ 991870.919103409396484, 6272917.695497444830835 ], [ 991884.765603224514052, 6272878.829744420945644 ], [ 991912.885597478132695, 6272791.771567055024207 ], [ 991919.180785382748581, 6272769.250201545655727 ], [ 991948.268196961376816, 6272653.97504809871316 ], [ 991963.887213826761581, 6272622.422644589096308 ], [ 991978.720035690465011, 6272583.268287438899279 ], [ 991981.969631546875462, 6272558.271056833676994 ], [ 991996.186027591815218, 6272520.201165156438947 ], [ 992022.810913763241842, 6272483.589074344374239 ], [ 992046.506931153591722, 6272441.947403757832944 ], [ 992059.099391800933518, 6272414.596012078225613 ], [ 992068.206619027303532, 6272383.747211297042668 ], [ 992062.867589413188398, 6272337.550413784570992 ], [ 992051.895292825298384, 6272310.010955577716231 ], [ 992034.622012872714549, 6272283.852223389782012 ], [ 992013.52326212101616, 6272259.855107760988176 ], [ 991976.59475167223718, 6272213.548546043224633 ], [ 991962.165144561324269, 6272188.966538191772997 ], [ 991960.841905735898763, 6272164.761468831449747 ], [ 991972.518949496909045, 6272141.484796818345785 ], [ 991997.689493302023038, 6272106.586172580718994 ], [ 992010.706377875409089, 6272080.58920553419739 ], [ 992011.433540740516037, 6272061.151039654389024 ], [ 992006.822086190804839, 6272032.678700924851 ], [ 992012.737591179669835, 6271995.452875697053969 ], [ 992021.978755158022977, 6271975.847842893563211 ], [ 992036.58108401671052, 6271955.931749202311039 ], [ 992069.423576942179352, 6271918.046327594667673 ], [ 992109.708833184326068, 6271882.17059507407248 ], [ 992130.113978192210197, 6271855.844276703894138 ], [ 992143.287986304610968, 6271831.746194461360574 ], [ 992160.296463395352475, 6271791.133774511516094 ], [ 992171.393175628036261, 6271769.944833053275943 ], [ 992188.210680227028206, 6271745.90230256319046 ], [ 992238.460126445279457, 6271679.996506058610976 ], [ 992274.238908716244623, 6271631.11977922078222 ], [ 992294.674490378471091, 6271609.468434284441173 ], [ 992353.720713267801329, 6271500.127358164638281 ], [ 992378.565077653969638, 6271472.447230011224747 ], [ 992397.169408615212888, 6271443.034925720654428 ], [ 992409.325640975264832, 6271414.662515802308917 ], [ 992434.934786177473143, 6271331.384517660364509 ], [ 992461.60398541984614, 6271270.964686864055693 ], [ 992486.784015507204458, 6271223.606119994074106 ], [ 992227.599483267753385, 6270692.346524626947939 ], [ 992230.086271403357387, 6270691.12514416500926 ], [ 992222.469398538814858, 6270653.947339800186455 ], [ 992204.430611463962123, 6270619.63057482149452 ], [ 992181.62165380246006, 6270581.535048578865826 ], [ 992137.00664216093719, 6270492.260691080242395 ], [ 992110.189581790938973, 6270451.422921109944582 ], [ 992072.765475467313081, 6270380.280646107159555 ], [ 992064.485014783916995, 6270343.406465516425669 ], [ 992053.460109626641497, 6270260.231136247515678 ], [ 992047.400533862644807, 6270188.965888661332428 ], [ 992035.809652776224539, 6270102.204114127904177 ], [ 992025.080451851710677, 6270001.907192687503994 ], [ 992013.926002858672291, 6269926.848359398543835 ], [ 992016.415746878948994, 6269888.352633810602129 ], [ 992005.578994799405336, 6269765.574814677238464 ], [ 992026.064891216577962, 6269693.297963555902243 ], [ 992032.875394651200622, 6269659.561714584939182 ], [ 992074.67315534572117, 6269654.685996187850833 ], [ 992109.20606124389451, 6269656.265522034838796 ], [ 992154.468092651222833, 6269666.013507593423128 ], [ 992199.808705408941023, 6269663.414764592424035 ], [ 992217.116414025425911, 6269660.646182934753597 ], [ 992184.288450464839116, 6269630.659696841612458 ], [ 992173.567221924779005, 6269609.918548562563956 ], [ 992165.479383481200784, 6269567.044467099942267 ], [ 992140.363533993484452, 6269517.271702646277845 ], [ 992113.803639180958271, 6269481.34138448536396 ], [ 992085.70451580430381, 6269456.022431404329836 ], [ 992057.569250881206244, 6269433.261100267991424 ], [ 991996.222133658826351, 6269392.402464407496154 ], [ 991967.507567758671939, 6269382.299514343962073 ], [ 991926.80649134889245, 6269352.510817810893059 ], [ 991847.864131343783811, 6269297.608598782680929 ], [ 991826.226201340556145, 6269285.159296410158277 ], [ 991803.699713716981933, 6269265.548377943225205 ], [ 991780.678826391231269, 6269239.01639655046165 ], [ 991761.262068829149939, 6269211.647751875221729 ], [ 991751.090737873804756, 6269184.145185947418213 ], [ 991727.131270576035604, 6269176.374666977673769 ], [ 991708.088577562943101, 6269179.844255918636918 ], [ 991685.970663149608299, 6269195.635352742858231 ], [ 991656.368632639292628, 6269231.557851918041706 ], [ 991622.971453340956941, 6269261.85508400760591 ], [ 991577.710877932258882, 6269291.054481845349073 ], [ 991537.027489535044879, 6269303.439300579950213 ], [ 991499.033927449490875, 6269311.941540301777422 ], [ 991451.715018024668097, 6269313.453673960641026 ], [ 991412.033921498223208, 6269316.316071981564164 ], [ 991342.739847916760482, 6269335.852898348122835 ], [ 991308.026976473629475, 6269348.845312942750752 ], [ 991281.964104888378642, 6269349.88184557389468 ], [ 991262.47284965228755, 6269347.212600288912654 ], [ 991239.196388373151422, 6269333.355404736474156 ], [ 991217.190433788346127, 6269295.188856863416731 ], [ 991206.203388636698946, 6269264.200815671123564 ], [ 991176.990085538942367, 6269204.565122288651764 ], [ 991130.189318991731852, 6269153.808002552948892 ], [ 991098.622398493811488, 6269126.22144016250968 ], [ 991059.482810250483453, 6269097.622320364229381 ], [ 991008.49345456622541, 6269078.274951417930424 ], [ 990990.583552560652606, 6269074.677231591194868 ], [ 991069.378632315550931, 6268928.502963677048683 ], [ 990991.125790361547843, 6268744.351265771314502 ], [ 990964.415087750880048, 6268688.391114335507154 ], [ 990923.176066568586975, 6268561.671215819194913 ], [ 990892.914928106591105, 6268505.327113653533161 ], [ 990819.104865100467578, 6268403.161015432327986 ], [ 990771.430494312546216, 6268357.151376713067293 ], [ 990718.183691915823147, 6268285.74217358790338 ], [ 990693.733761760289781, 6268249.46906212810427 ], [ 990657.119148391648196, 6268200.848199324682355 ], [ 990597.397782659623772, 6268116.683547977358103 ], [ 990568.868959070183337, 6268022.144053928554058 ], [ 990522.287512385519221, 6267795.154736563563347 ], [ 990521.814864075975493, 6267750.292619586922228 ], [ 990506.363990497775376, 6267671.14663711655885 ], [ 990503.527390928473324, 6267669.3486302588135 ], [ 990495.965382288675755, 6267618.155665772035718 ], [ 990489.017388270702213, 6267605.155254150740802 ], [ 990471.025954609620385, 6267581.861174198798835 ], [ 990450.228376267012209, 6267561.443770726211369 ], [ 990442.465798661229201, 6267543.176819535903633 ], [ 990439.122021049144678, 6267520.437559767626226 ], [ 990425.706017171265557, 6267496.350236274302006 ], [ 990421.49786686594598, 6267478.356174295768142 ], [ 990406.393276529968716, 6267459.310415143147111 ], [ 990400.78758237301372, 6267416.774052647873759 ], [ 990391.987219937611371, 6267387.444531270302832 ], [ 990383.163366491440684, 6267319.392954184673727 ], [ 990367.361655296757817, 6267255.029826020821929 ], [ 990341.274763690540567, 6267192.20208780746907 ], [ 990329.524345805984922, 6267147.494942608289421 ], [ 990321.332740550627932, 6267094.048152687959373 ], [ 990315.738162476103753, 6267020.913781410083175 ], [ 990317.261501638451591, 6266982.039410173892975 ], [ 990321.715621649287641, 6266921.489788305945694 ], [ 990323.991664571454749, 6266823.232737026177347 ], [ 990320.806564407073893, 6266779.137311650440097 ], [ 990320.632040695752949, 6266602.770175214856863 ], [ 990321.061510350205936, 6266500.534641735255718 ], [ 990326.91290825244505, 6266357.487571937032044 ], [ 990339.041283807484433, 6266320.763949227519333 ], [ 990336.464911408955231, 6266298.94963161367923 ], [ 990361.162505400367081, 6266180.125072171911597 ], [ 990376.967837813310325, 6266091.05001437291503 ], [ 990399.984564652550034, 6265993.178678376600146 ], [ 990414.610462625860237, 6265833.728398581035435 ], [ 990420.231316366698593, 6265801.048442090861499 ], [ 990423.261822604457848, 6265759.349277582019567 ], [ 990440.72439720085822, 6265690.934035020880401 ], [ 990448.69677855016198, 6265652.908790643326938 ], [ 990458.605190153233707, 6265549.100576316937804 ], [ 990462.775280609261245, 6265521.584255538880825 ], [ 990503.324976672884077, 6265198.634184620343149 ], [ 990509.423454774194397, 6265126.920464473776519 ], [ 990508.831422212533653, 6265070.368945092894137 ], [ 990503.473626216407865, 6265057.997073034755886 ], [ 990489.674902712227777, 6265006.519916327670217 ], [ 990482.361353208543733, 6264962.236235497519374 ], [ 990482.733605665387586, 6264941.557123692706227 ], [ 990477.512450462440029, 6264881.568341439589858 ], [ 990475.29586876835674, 6264871.453378264792264 ], [ 990474.540893026161939, 6264809.553464046679437 ], [ 990468.883338943123817, 6264787.710116658359766 ], [ 990465.091362494393252, 6264756.938765704631805 ], [ 990463.686658651567996, 6264723.605453813448548 ], [ 990459.323752989992499, 6264700.040643223561347 ], [ 990461.727471469552256, 6264661.428220629692078 ], [ 990457.34084427531343, 6264606.261872964911163 ], [ 990458.278530715964735, 6264576.706875164993107 ], [ 990170.566664779558778, 6264216.589087931439281 ], [ 989850.913818217697553, 6263882.186099879443645 ], [ 989644.409078129800037, 6263667.199544640257955 ], [ 989455.913574097678065, 6263530.701379777863622 ], [ 989469.887996553443372, 6263514.08748522773385 ], [ 989481.214766086777672, 6263491.456443162634969 ], [ 989503.43083586031571, 6263418.246001046150923 ], [ 989532.988231386290863, 6263362.058494294062257 ], [ 989546.615919226780534, 6263333.411926602013409 ], [ 989579.132839280180633, 6263292.491262868046761 ], [ 989597.473619260708801, 6263272.626030785962939 ], [ 989629.790825249627233, 6263220.013232345692813 ], [ 989647.080997954122722, 6263166.052031618542969 ], [ 989660.011131342616864, 6263136.706401441246271 ], [ 989670.916018111398444, 6263121.622794697061181 ], [ 989711.272403176873922, 6263081.391709360294044 ], [ 989732.913097935845144, 6263040.646367492154241 ], [ 989749.897055054549128, 6262991.678579942323267 ], [ 989758.698231486370787, 6262958.585298180580139 ], [ 989789.374194492585957, 6262865.285164345987141 ], [ 989790.680854456499219, 6262848.98772113956511 ], [ 989805.237652939977124, 6262824.945688869804144 ], [ 989825.296871929196641, 6262810.166004166938365 ], [ 989841.706305625964887, 6262788.210889761336148 ], [ 989845.07779381936416, 6262772.897219178266823 ], [ 989865.870137601625174, 6262754.47897254768759 ], [ 989876.294162308447994, 6262733.921588941477239 ], [ 989894.108632671413943, 6262725.71651036478579 ], [ 989901.787501875194721, 6262715.605335342697799 ], [ 989906.904666809248738, 6262699.369412735104561 ], [ 989902.790555489249527, 6262652.338125229813159 ], [ 989908.367960965959355, 6262634.899093608371913 ], [ 989923.703085504472256, 6262602.658555278554559 ], [ 989932.600428164936602, 6262563.89494233392179 ], [ 989933.560694601852447, 6262512.309097959659994 ], [ 989938.900416710297577, 6262494.748018180951476 ], [ 989959.303393726004288, 6262472.417867354117334 ], [ 989973.789443742134608, 6262466.064864510670304 ], [ 989986.268028787220828, 6262466.408326958306134 ], [ 990014.176650047535077, 6262473.571622333489358 ], [ 990092.17718517803587, 6262485.344475464895368 ], [ 990120.91944492328912, 6262486.648738466203213 ], [ 990137.899743848713115, 6262477.182447745464742 ], [ 990158.77416010457091, 6262455.208100783638656 ], [ 990171.809925676789135, 6262430.763888884335756 ], [ 990172.210510499309748, 6262407.637801187112927 ], [ 990166.284395335591398, 6262377.325786028988659 ], [ 990169.261717264074832, 6262359.991439050063491 ], [ 990162.966633447445929, 6262332.444438788108528 ], [ 990154.931875374517404, 6262311.049641587771475 ], [ 990123.013966302154586, 6262299.252989548258483 ], [ 990090.894869603682309, 6262268.642648007720709 ], [ 990081.315651644021273, 6262243.728484047576785 ], [ 990048.911109235719778, 6262230.129809879697859 ], [ 990038.88909970363602, 6262218.548093223944306 ], [ 990026.222537002991885, 6262216.972047104500234 ], [ 990010.891331834020093, 6262225.845855639316142 ], [ 989998.984085785225034, 6262225.417011750862002 ], [ 989966.030721014132723, 6262202.447151174768806 ], [ 989942.892123248311691, 6262192.05104598775506 ], [ 989937.898362237843685, 6262173.353676666505635 ], [ 989922.860666693886742, 6262159.653097026050091 ], [ 989917.218662888510153, 6262139.146020040847361 ], [ 989893.911553047830239, 6262123.51274704746902 ], [ 989885.263908292166889, 6262104.872287812642753 ], [ 989875.176366957370192, 6262096.514714836142957 ], [ 989853.187601616838947, 6262092.958584181033075 ], [ 989820.319181035971269, 6262091.357293104752898 ], [ 989801.278087188722566, 6262097.949302969500422 ], [ 989781.403835549717769, 6262071.011202453635633 ], [ 989761.279579902300611, 6262056.746667788363993 ], [ 989760.477253178600222, 6262045.805801731534302 ], [ 989733.533101846231148, 6262038.798670049756765 ], [ 989713.302047811681405, 6262023.305478529073298 ], [ 989701.885747663443908, 6262024.56850756239146 ], [ 989693.027021063957363, 6262014.15277564805001 ], [ 989674.063977717189118, 6262010.066749205812812 ], [ 989656.322413253365085, 6262013.046152525581419 ], [ 989644.402785983169451, 6262005.718662136234343 ], [ 989617.387447589542717, 6261998.486265383660793 ], [ 989603.640640173223801, 6261990.297193892300129 ], [ 989560.099148376262747, 6261971.745819715783 ], [ 989529.616413631127216, 6261962.242633645422757 ], [ 989504.293725466355681, 6261964.211541400291026 ], [ 989463.84141502995044, 6261954.479800246655941 ], [ 989410.382906544487923, 6261927.35777201410383 ], [ 989393.112057136138901, 6261914.55884375423193 ], [ 989365.365097420872189, 6261900.17312750313431 ], [ 989312.602201234665699, 6261882.76393633056432 ], [ 989286.597292812773958, 6261872.908207702450454 ], [ 989267.307369260350242, 6261861.687332301400602 ], [ 989211.990562331862748, 6261836.151998475193977 ], [ 989083.076495451503433, 6261785.591517117805779 ], [ 989064.497890604659915, 6261783.750121993012726 ], [ 988980.587011862779036, 6261746.353524809703231 ], [ 988887.136710414895788, 6261711.753878998570144 ], [ 988873.905045073945075, 6261704.702405832707882 ], [ 988850.035645456984639, 6261697.838004050776362 ], [ 988793.937673923792318, 6261675.164126234129071 ], [ 988771.761339045246132, 6261663.146808571182191 ], [ 988711.934452685061842, 6261643.977168776094913 ], [ 988704.818700083531439, 6261643.433329748921096 ], [ 988587.587626182823442, 6261592.743031804449856 ], [ 988569.527732212794945, 6261586.586991829797626 ], [ 988482.509446621756069, 6261549.613237522542477 ], [ 988439.177316321758553, 6261537.087733869440854 ], [ 988399.293597392272204, 6261518.264423384331167 ], [ 988269.277143169892952, 6261473.902193667367101 ], [ 988242.292962602339685, 6261455.105112398974597 ], [ 988211.362898935098201, 6261450.038993531838059 ], [ 987819.896537911845371, 6261555.469790322706103 ], [ 987785.485766294877976, 6261552.029352094978094 ], [ 987755.718636969453655, 6261553.582653236575425 ], [ 987732.316469750716351, 6261543.516713134944439 ], [ 987723.368991670198739, 6261534.991436226293445 ], [ 987660.866872219368815, 6261551.762606226839125 ], [ 987635.723314093891531, 6261549.741325626149774 ], [ 987606.260005342774093, 6261577.012134043499827 ], [ 987585.675410114694387, 6261581.872252232395113 ], [ 987581.294137605465949, 6261592.69082700368017 ], [ 987561.323170530842617, 6261591.125018058344722 ], [ 987530.784760119044222, 6261597.206692519597709 ], [ 987502.113631150219589, 6261619.506463013589382 ], [ 987485.124763580155559, 6261636.434344685636461 ], [ 987441.175891716266051, 6261643.026173555292189 ], [ 987413.069325244403444, 6261652.778316350653768 ], [ 987399.829987905453891, 6261660.30583474971354 ], [ 987388.317810017615557, 6261678.147736643441021 ], [ 987388.869719696114771, 6261694.751590033993125 ], [ 987256.462772116530687, 6261721.625889555551112 ], [ 987230.335495322942734, 6261723.456383060663939 ], [ 987221.415738880168647, 6261726.950091520324349 ], [ 987069.039786387467757, 6261752.263579057529569 ], [ 987052.063611098797992, 6261770.750852415338159 ] ] ] } }
]
}
